{
  "type": "FeatureCollection",
  "features": [
    {
      "type": "Feature",
      "geometry": {
        "type": "Polygon",
        "coordinates": [
          [
            [
              82.177884375,
              28.8164984375
            ],
            [
              82.177884375,
              28.816459375
            ],
            [
              82.1778453125,
              28.816459375
            ],
            [
              82.1778453125,
              28.81606875
            ],
            [
              82.177884375,
              28.81606875
            ],
            [
              82.177884375,
              28.816029687500002
            ],
            [
              82.17796249999999,
              28.816029687500002
            ],
            [
              82.17796249999999,
              28.815990625
            ],
            [
              82.1780015625,
              28.815990625
            ],
            [
              82.1780015625,
              28.8159515625
            ],
            [
              82.178040625,
              28.8159515625
            ],
            [
              82.178040625,
              28.815990625
            ],
            [
              82.1780796875,
              28.815990625
            ],
            [
              82.1780796875,
              28.81606875
            ],
            [
              82.17811875,
              28.81606875
            ],
            [
              82.17811875,
              28.816146875
            ],
            [
              82.1781578125,
              28.816146875
            ],
            [
              82.1781578125,
              28.8162640625
            ],
            [
              82.178196875,
              28.8162640625
            ],
            [
              82.178196875,
              28.816303125
            ],
            [
              82.1781578125,
              28.816303125
            ],
            [
              82.1781578125,
              28.816342187500002
            ],
            [
              82.17811875,
              28.816342187500002
            ],
            [
              82.17811875,
              28.816381250000003
            ],
            [
              82.1780796875,
              28.816381250000003
            ],
            [
              82.1780796875,
              28.8164203125
            ],
            [
              82.1780015625,
              28.8164203125
            ],
            [
              82.1780015625,
              28.816459375
            ],
            [
              82.1779234375,
              28.816459375
            ],
            [
              82.1779234375,
              28.8164984375
            ],
            [
              82.177884375,
              28.8164984375
            ]
          ]
        ]
      },
      "properties": {
        "building_id": 0,
        "damage_tier": "destroyed",
        "confidence": 0.487
      }
    }
  ]
}