{
  "type": "FeatureCollection",
  "features": [
    {
      "type": "Feature",
      "geometry": {
        "type": "Polygon",
        "coordinates": [
          [
            [
              0.004755859375,
              0.005
            ],
            [
              0.004755859375,
              0.004853515625
            ],
            [
              0.004765625,
              0.004853515625
            ],
            [
              0.004765625,
              0.00484375
            ],
            [
              0.004775390625,
              0.00484375
            ],
            [
              0.004775390625,
              0.00482421875
            ],
            [
              0.004912109375,
              0.00482421875
            ],
            [
              0.004912109375,
              0.004814453125
            ],
            [
              0.004931640625,
              0.004814453125
            ],
            [
              0.004931640625,
              0.0048046875
            ],
            [
              0.00494140625,
              0.0048046875
            ],
            [
              0.00494140625,
              0.004794921875
            ],
            [
              0.004970703125000001,
              0.004794921875
            ],
            [
              0.004970703125000001,
              0.004755859375
            ],
            [
              0.004960937500000001,
              0.004755859375
            ],
            [
              0.004960937500000001,
              0.00474609375
            ],
            [
              0.0049804687500000005,
              0.00474609375
            ],
            [
              0.0049804687500000005,
              0.004736328125
            ],
            [
              0.005,
              0.004736328125
            ],
            [
              0.005,
              0.005
            ],
            [
              0.004755859375,
              0.005
            ]
          ]
        ]
      },
      "properties": {
        "building_id": 0,
        "damage_tier": "no-damage",
        "confidence": 0.461
      }
    },
    {
      "type": "Feature",
      "geometry": {
        "type": "Polygon",
        "coordinates": [
          [
            [
              0.004707031249999999,
              -0.0012500000000000002
            ],
            [
              0.004707031249999999,
              -0.001259765625
            ],
            [
              0.004697265625,
              -0.001259765625
            ],
            [
              0.004697265625,
              -0.0012695312499999998
            ],
            [
              0.0046875,
              -0.0012695312499999998
            ],
            [
              0.0046875,
              -0.00134765625
            ],
            [
              0.004697265625,
              -0.00134765625
            ],
            [
              0.004697265625,
              -0.00146484375
            ],
            [
              0.0046875,
              -0.00146484375
            ],
            [
              0.0046875,
              -0.00154296875
            ],
            [
              0.004697265625,
              -0.00154296875
            ],
            [
              0.004697265625,
              -0.0015624999999999997
            ],
            [
              0.004707031249999999,
              -0.0015624999999999997
            ],
            [
              0.004707031249999999,
              -0.0015722656250000003
            ],
            [
              0.004726562500000001,
              -0.0015722656250000003
            ],
            [
              0.004726562500000001,
              -0.00158203125
            ],
            [
              0.004833984375,
              -0.00158203125
            ],
            [
              0.004833984375,
              -0.0015722656250000003
            ],
            [
              0.004853515625,
              -0.0015722656250000003
            ],
            [
              0.004853515625,
              -0.0015624999999999997
            ],
            [
              0.0048632812499999995,
              -0.0015624999999999997
            ],
            [
              0.0048632812499999995,
              -0.0015527343749999999
            ],
            [
              0.004873046874999999,
              -0.0015527343749999999
            ],
            [
              0.004873046874999999,
              -0.00154296875
            ],
            [
              0.004882812500000001,
              -0.00154296875
            ],
            [
              0.004882812500000001,
              -0.0014941406250000002
            ],
            [
              0.004892578125000001,
              -0.0014941406250000002
            ],
            [
              0.004892578125000001,
              -0.0014843750000000005
            ],
            [
              0.004931640625,
              -0.0014843750000000005
            ],
            [
              0.004931640625,
              -0.0014941406250000002
            ],
            [
              0.004960937500000001,
              -0.0014941406250000002
            ],
            [
              0.004960937500000001,
              -0.0014843750000000005
            ],
            [
              0.005,
              -0.0014843750000000005
            ],
            [
              0.005,
              -0.0012500000000000002
            ],
            [
              0.004707031249999999,
              -0.0012500000000000002
            ]
          ]
        ]
      },
      "properties": {
        "building_id": 1,
        "damage_tier": "no-damage",
        "confidence": 0.366
      }
    },
    {
      "type": "Feature",
      "geometry": {
        "type": "Polygon",
        "coordinates": [
          [
            [
              0.004306640624999999,
              -0.0018164062500000003
            ],
            [
              0.004306640624999999,
              -0.001826171875
            ],
            [
              0.0042968749999999995,
              -0.001826171875
            ],
            [
              0.0042968749999999995,
              -0.0018359375
            ],
            [
              0.004287109375,
              -0.0018359375
            ],
            [
              0.004287109375,
              -0.0018457031249999997
            ],
            [
              0.00427734375,
              -0.0018457031249999997
            ],
            [
              0.00427734375,
              -0.0018554687500000003
            ],
            [
              0.004267578125,
              -0.0018554687500000003
            ],
            [
              0.004267578125,
              -0.0019238281249999998
            ],
            [
              0.0042578125,
              -0.0019238281249999998
            ],
            [
              0.0042578125,
              -0.0019433593750000002
            ],
            [
              0.004267578125,
              -0.0019433593750000002
            ],
            [
              0.004267578125,
              -0.0020214843750000003
            ],
            [
              0.00427734375,
              -0.0020214843750000003
            ],
            [
              0.00427734375,
              -0.00203125
            ],
            [
              0.004287109375,
              -0.00203125
            ],
            [
              0.004287109375,
              -0.002041015625
            ],
            [
              0.0042968749999999995,
              -0.002041015625
            ],
            [
              0.0042968749999999995,
              -0.0020507812499999997
            ],
            [
              0.004306640624999999,
              -0.0020507812499999997
            ],
            [
              0.004306640624999999,
              -0.0020605468750000003
            ],
            [
              0.0043359375,
              -0.0020605468750000003
            ],
            [
              0.0043359375,
              -0.0020703125
            ],
            [
              0.004394531250000001,
              -0.0020703125
            ],
            [
              0.004394531250000001,
              -0.0020605468750000003
            ],
            [
              0.004443359375,
              -0.0020605468750000003
            ],
            [
              0.004443359375,
              -0.0020507812499999997
            ],
            [
              0.004453125,
              -0.0020507812499999997
            ],
            [
              0.004453125,
              -0.0020214843750000003
            ],
            [
              0.004462890624999999,
              -0.0020214843750000003
            ],
            [
              0.004462890624999999,
              -0.0019921875
            ],
            [
              0.004453125,
              -0.0019921875
            ],
            [
              0.004453125,
              -0.0018945312500000004
            ],
            [
              0.004443359375,
              -0.0018945312500000004
            ],
            [
              0.004443359375,
              -0.0018652343750000001
            ],
            [
              0.00443359375,
              -0.0018652343750000001
            ],
            [
              0.00443359375,
              -0.0018554687500000003
            ],
            [
              0.004423828125,
              -0.0018554687500000003
            ],
            [
              0.004423828125,
              -0.0018457031249999997
            ],
            [
              0.0044140625000000005,
              -0.0018457031249999997
            ],
            [
              0.0044140625000000005,
              -0.0018359375
            ],
            [
              0.004404296875000001,
              -0.0018359375
            ],
            [
              0.004404296875000001,
              -0.001826171875
            ],
            [
              0.0043749999999999995,
              -0.001826171875
            ],
            [
              0.0043749999999999995,
              -0.0018164062500000003
            ],
            [
              0.004306640624999999,
              -0.0018164062500000003
            ]
          ]
        ]
      },
      "properties": {
        "building_id": 2,
        "damage_tier": "destroyed",
        "confidence": 0.448
      }
    }
  ]
}