{
  "type": "FeatureCollection",
  "features": [
    {
      "type": "Feature",
      "geometry": {
        "type": "Polygon",
        "coordinates": [
          [
            [
              -0.0232421875,
              -0.028222656250000006
            ],
            [
              -0.0232421875,
              -0.028515625000000003
            ],
            [
              -0.023339843750000002,
              -0.028515625000000003
            ],
            [
              -0.023339843750000002,
              -0.02890625000000001
            ],
            [
              -0.0232421875,
              -0.02890625000000001
            ],
            [
              -0.0232421875,
              -0.029101562499999997
            ],
            [
              -0.023144531250000003,
              -0.029101562499999997
            ],
            [
              -0.023144531250000003,
              -0.029003906250000003
            ],
            [
              -0.023046875,
              -0.029003906250000003
            ],
            [
              -0.023046875,
              -0.02890625000000001
            ],
            [
              -0.022851562500000002,
              -0.02890625000000001
            ],
            [
              -0.022851562500000002,
              -0.02880859375
            ],
            [
              -0.02275390625,
              -0.02880859375
            ],
            [
              -0.02275390625,
              -0.02841796875000001
            ],
            [
              -0.022656250000000003,
              -0.02841796875000001
            ],
            [
              -0.022656250000000003,
              -0.0283203125
            ],
            [
              -0.022851562500000002,
              -0.0283203125
            ],
            [
              -0.022851562500000002,
              -0.028222656250000006
            ],
            [
              -0.0232421875,
              -0.028222656250000006
            ]
          ]
        ]
      },
      "properties": {
        "building_id": 0,
        "damage_tier": "no-damage",
        "confidence": 0.844
      }
    }
  ]
}