{
  "type": "FeatureCollection",
  "features": [
    {
      "type": "Feature",
      "geometry": {
        "type": "Polygon",
        "coordinates": [
          [
            [
              0.0431640625,
              -0.0359375
            ],
            [
              0.0431640625,
              -0.036035156250000006
            ],
            [
              0.04306640625000001,
              -0.036035156250000006
            ],
            [
              0.04306640625000001,
              -0.036328125
            ],
            [
              0.0431640625,
              -0.036328125
            ],
            [
              0.0431640625,
              -0.03642578125
            ],
            [
              0.04326171875,
              -0.03642578125
            ],
            [
              0.04326171875,
              -0.036328125
            ],
            [
              0.04345703125,
              -0.036328125
            ],
            [
              0.04345703125,
              -0.03623046875000001
            ],
            [
              0.04375,
              -0.03623046875000001
            ],
            [
              0.04375,
              -0.036328125
            ],
            [
              0.044140625,
              -0.036328125
            ],
            [
              0.044140625,
              -0.03623046875000001
            ],
            [
              0.04423828125,
              -0.03623046875000001
            ],
            [
              0.04423828125,
              -0.0361328125
            ],
            [
              0.044140625,
              -0.0361328125
            ],
            [
              0.044140625,
              -0.036035156250000006
            ],
            [
              0.0439453125,
              -0.036035156250000006
            ],
            [
              0.0439453125,
              -0.0359375
            ],
            [
              0.043847656250000006,
              -0.0359375
            ],
            [
              0.043847656250000006,
              -0.036035156250000006
            ],
            [
              0.043359375000000006,
              -0.036035156250000006
            ],
            [
              0.043359375000000006,
              -0.0359375
            ],
            [
              0.0431640625,
              -0.0359375
            ]
          ]
        ]
      },
      "properties": {
        "building_id": 0,
        "damage_tier": "destroyed",
        "confidence": 0.698
      }
    },
    {
      "type": "Feature",
      "geometry": {
        "type": "Polygon",
        "coordinates": [
          [
            [
              0.017968750000000006,
              -0.0470703125
            ],
            [
              0.017968750000000006,
              -0.04716796875
            ],
            [
              0.017773437500000003,
              -0.04716796875
            ],
            [
              0.017773437500000003,
              -0.047265625000000006
            ],
            [
              0.017578125,
              -0.047265625000000006
            ],
            [
              0.017578125,
              -0.04736328125
            ],
            [
              0.017480468750000006,
              -0.04736328125
            ],
            [
              0.017480468750000006,
              -0.04746093750000001
            ],
            [
              0.017382812499999997,
              -0.04746093750000001
            ],
            [
              0.017382812499999997,
              -0.04755859375
            ],
            [
              0.017285156250000003,
              -0.04755859375
            ],
            [
              0.017285156250000003,
              -0.047753906250000006
            ],
            [
              0.017187499999999994,
              -0.047753906250000006
            ],
            [
              0.017187499999999994,
              -0.049609375
            ],
            [
              0.017285156250000003,
              -0.049609375
            ],
            [
              0.017285156250000003,
              -0.05
            ],
            [
              0.02001953125,
              -0.05
            ],
            [
              0.02001953125,
              -0.049707031250000006
            ],
            [
              0.019921875000000006,
              -0.049707031250000006
            ],
            [
              0.019921875000000006,
              -0.048828125
            ],
            [
              0.019824218749999997,
              -0.048828125
            ],
            [
              0.019824218749999997,
              -0.048242187500000006
            ],
            [
              0.019726562500000003,
              -0.048242187500000006
            ],
            [
              0.019726562500000003,
              -0.04794921875000001
            ],
            [
              0.019628906249999994,
              -0.04794921875000001
            ],
            [
              0.019628906249999994,
              -0.047753906250000006
            ],
            [
              0.01953125,
              -0.047753906250000006
            ],
            [
              0.01953125,
              -0.04755859375
            ],
            [
              0.019433593750000006,
              -0.04755859375
            ],
            [
              0.019433593750000006,
              -0.04746093750000001
            ],
            [
              0.019335937499999997,
              -0.04746093750000001
            ],
            [
              0.019335937499999997,
              -0.04736328125
            ],
            [
              0.019140624999999994,
              -0.04736328125
            ],
            [
              0.019140624999999994,
              -0.047265625000000006
            ],
            [
              0.018847656249999997,
              -0.047265625000000006
            ],
            [
              0.018847656249999997,
              -0.04716796875
            ],
            [
              0.018457031250000006,
              -0.04716796875
            ],
            [
              0.018457031250000006,
              -0.0470703125
            ],
            [
              0.017968750000000006,
              -0.0470703125
            ]
          ]
        ]
      },
      "properties": {
        "building_id": 1,
        "damage_tier": "destroyed",
        "confidence": 0.773
      }
    }
  ]
}