{
  "type": "FeatureCollection",
  "features": [
    {
      "type": "Feature",
      "geometry": {
        "type": "Polygon",
        "coordinates": [
          [
            [
              -0.048828125,
              0.05
            ],
            [
              -0.048828125,
              0.049707031250000006
            ],
            [
              -0.0490234375,
              0.049707031250000006
            ],
            [
              -0.0490234375,
              0.049609375000000004
            ],
            [
              -0.049121093750000004,
              0.049609375000000004
            ],
            [
              -0.049121093750000004,
              0.04951171875
            ],
            [
              -0.049218750000000006,
              0.04951171875
            ],
            [
              -0.049218750000000006,
              0.049218750000000006
            ],
            [
              -0.04931640625,
              0.049218750000000006
            ],
            [
              -0.04931640625,
              0.04892578125
            ],
            [
              -0.049218750000000006,
              0.04892578125
            ],
            [
              -0.049218750000000006,
              0.048730468750000006
            ],
            [
              -0.049121093750000004,
              0.048730468750000006
            ],
            [
              -0.049121093750000004,
              0.048632812500000004
            ],
            [
              -0.0490234375,
              0.048632812500000004
            ],
            [
              -0.0490234375,
              0.04853515625
            ],
            [
              -0.04892578125,
              0.04853515625
            ],
            [
              -0.04892578125,
              0.0484375
            ],
            [
              -0.048828125,
              0.0484375
            ],
            [
              -0.048828125,
              0.04833984375
            ],
            [
              -0.048730468750000006,
              0.04833984375
            ],
            [
              -0.048730468750000006,
              0.048242187500000006
            ],
            [
              -0.048632812500000004,
              0.048242187500000006
            ],
            [
              -0.048632812500000004,
              0.048144531250000004
            ],
            [
              -0.04853515625,
              0.048144531250000004
            ],
            [
              -0.04853515625,
              0.048046875
            ],
            [
              -0.04833984375,
              0.048046875
            ],
            [
              -0.04833984375,
              0.04794921875
            ],
            [
              -0.048242187500000006,
              0.04794921875
            ],
            [
              -0.048242187500000006,
              0.0478515625
            ],
            [
              -0.048144531250000004,
              0.0478515625
            ],
            [
              -0.048144531250000004,
              0.047753906250000006
            ],
            [
              -0.04794921875,
              0.047753906250000006
            ],
            [
              -0.04794921875,
              0.047656250000000004
            ],
            [
              -0.0478515625,
              0.047656250000000004
            ],
            [
              -0.0478515625,
              0.04755859375
            ],
            [
              -0.04736328125,
              0.04755859375
            ],
            [
              -0.04736328125,
              0.047656250000000004
            ],
            [
              -0.0470703125,
              0.047656250000000004
            ],
            [
              -0.0470703125,
              0.047753906250000006
            ],
            [
              -0.04658203125,
              0.047753906250000006
            ],
            [
              -0.04658203125,
              0.0478515625
            ],
            [
              -0.04599609375,
              0.0478515625
            ],
            [
              -0.04599609375,
              0.04794921875
            ],
            [
              -0.0458984375,
              0.04794921875
            ],
            [
              -0.0458984375,
              0.048046875
            ],
            [
              -0.045800781250000006,
              0.048046875
            ],
            [
              -0.045800781250000006,
              0.048144531250000004
            ],
            [
              -0.04560546875,
              0.048144531250000004
            ],
            [
              -0.04560546875,
              0.048242187500000006
            ],
            [
              -0.0455078125,
              0.048242187500000006
            ],
            [
              -0.0455078125,
              0.04833984375
            ],
            [
              -0.04541015625,
              0.04833984375
            ],
            [
              -0.04541015625,
              0.0484375
            ],
            [
              -0.045312500000000006,
              0.0484375
            ],
            [
              -0.045312500000000006,
              0.04853515625
            ],
            [
              -0.0451171875,
              0.04853515625
            ],
            [
              -0.0451171875,
              0.048632812500000004
            ],
            [
              -0.04501953125,
              0.048632812500000004
            ],
            [
              -0.04501953125,
              0.0494140625
            ],
            [
              -0.0451171875,
              0.0494140625
            ],
            [
              -0.0451171875,
              0.04951171875
            ],
            [
              -0.045214843750000004,
              0.04951171875
            ],
            [
              -0.045214843750000004,
              0.049609375000000004
            ],
            [
              -0.045312500000000006,
              0.049609375000000004
            ],
            [
              -0.045312500000000006,
              0.049707031250000006
            ],
            [
              -0.04541015625,
              0.049707031250000006
            ],
            [
              -0.04541015625,
              0.05
            ],
            [
              -0.048828125,
              0.05
            ]
          ]
        ]
      },
      "properties": {
        "building_id": 0,
        "damage_tier": "destroyed",
        "confidence": 0.962
      }
    },
    {
      "type": "Feature",
      "geometry": {
        "type": "Polygon",
        "coordinates": [
          [
            [
              -0.0494140625,
              0.019433593750000002
            ],
            [
              -0.0494140625,
              0.0193359375
            ],
            [
              -0.04951171875,
              0.0193359375
            ],
            [
              -0.04951171875,
              0.019140625
            ],
            [
              -0.049609375000000004,
              0.019140625
            ],
            [
              -0.049609375000000004,
              0.01904296875
            ],
            [
              -0.049707031250000006,
              0.01904296875
            ],
            [
              -0.049707031250000006,
              0.01865234375
            ],
            [
              -0.0498046875,
              0.01865234375
            ],
            [
              -0.0498046875,
              0.01845703125
            ],
            [
              -0.049707031250000006,
              0.01845703125
            ],
            [
              -0.049707031250000006,
              0.018359375000000004
            ],
            [
              -0.049609375000000004,
              0.018359375000000004
            ],
            [
              -0.049609375000000004,
              0.018261718750000003
            ],
            [
              -0.049218750000000006,
              0.018261718750000003
            ],
            [
              -0.049218750000000006,
              0.018359375000000004
            ],
            [
              -0.049121093750000004,
              0.018359375000000004
            ],
            [
              -0.049121093750000004,
              0.01845703125
            ],
            [
              -0.0490234375,
              0.01845703125
            ],
            [
              -0.0490234375,
              0.0185546875
            ],
            [
              -0.04892578125,
              0.0185546875
            ],
            [
              -0.04892578125,
              0.01865234375
            ],
            [
              -0.048828125,
              0.01865234375
            ],
            [
              -0.048828125,
              0.018750000000000003
            ],
            [
              -0.048730468750000006,
              0.018750000000000003
            ],
            [
              -0.048730468750000006,
              0.01884765625
            ],
            [
              -0.048632812500000004,
              0.01884765625
            ],
            [
              -0.048632812500000004,
              0.019238281250000003
            ],
            [
              -0.04853515625,
              0.019238281250000003
            ],
            [
              -0.04853515625,
              0.0193359375
            ],
            [
              -0.048730468750000006,
              0.0193359375
            ],
            [
              -0.048730468750000006,
              0.019433593750000002
            ],
            [
              -0.0494140625,
              0.019433593750000002
            ]
          ]
        ]
      },
      "properties": {
        "building_id": 1,
        "damage_tier": "destroyed",
        "confidence": 0.789
      }
    },
    {
      "type": "Feature",
      "geometry": {
        "type": "Polygon",
        "coordinates": [
          [
            [
              -0.04365234375,
              0.0171875
            ],
            [
              -0.04365234375,
              0.01708984375
            ],
            [
              -0.04404296875,
              0.01708984375
            ],
            [
              -0.04404296875,
              0.0169921875
            ],
            [
              -0.044335937500000006,
              0.0169921875
            ],
            [
              -0.044335937500000006,
              0.016894531250000004
            ],
            [
              -0.04453125,
              0.016894531250000004
            ],
            [
              -0.04453125,
              0.016796875000000003
            ],
            [
              -0.044726562500000004,
              0.016796875000000003
            ],
            [
              -0.044726562500000004,
              0.01669921875
            ],
            [
              -0.04501953125,
              0.01669921875
            ],
            [
              -0.04501953125,
              0.0166015625
            ],
            [
              -0.0451171875,
              0.0166015625
            ],
            [
              -0.0451171875,
              0.01650390625
            ],
            [
              -0.045214843750000004,
              0.01650390625
            ],
            [
              -0.045214843750000004,
              0.016308593750000003
            ],
            [
              -0.045312500000000006,
              0.016308593750000003
            ],
            [
              -0.045312500000000006,
              0.015039062499999999
            ],
            [
              -0.045214843750000004,
              0.015039062499999999
            ],
            [
              -0.045214843750000004,
              0.014843750000000003
            ],
            [
              -0.0451171875,
              0.014843750000000003
            ],
            [
              -0.0451171875,
              0.014746093750000001
            ],
            [
              -0.04501953125,
              0.014746093750000001
            ],
            [
              -0.04501953125,
              0.0146484375
            ],
            [
              -0.044824218750000006,
              0.0146484375
            ],
            [
              -0.044824218750000006,
              0.014550781249999999
            ],
            [
              -0.044335937500000006,
              0.014550781249999999
            ],
            [
              -0.044335937500000006,
              0.0146484375
            ],
            [
              -0.04404296875,
              0.0146484375
            ],
            [
              -0.04404296875,
              0.014746093750000001
            ],
            [
              -0.0435546875,
              0.014746093750000001
            ],
            [
              -0.0435546875,
              0.014843750000000003
            ],
            [
              -0.04267578125,
              0.014843750000000003
            ],
            [
              -0.04267578125,
              0.014941406250000004
            ],
            [
              -0.042285156250000004,
              0.014941406250000004
            ],
            [
              -0.042285156250000004,
              0.015039062499999999
            ],
            [
              -0.0421875,
              0.015039062499999999
            ],
            [
              -0.0421875,
              0.01513671875
            ],
            [
              -0.04208984375,
              0.01513671875
            ],
            [
              -0.04208984375,
              0.015234375000000001
            ],
            [
              -0.0419921875,
              0.015234375000000001
            ],
            [
              -0.0419921875,
              0.015332031250000003
            ],
            [
              -0.041894531250000006,
              0.015332031250000003
            ],
            [
              -0.041894531250000006,
              0.015429687500000004
            ],
            [
              -0.041796875000000004,
              0.015429687500000004
            ],
            [
              -0.041796875000000004,
              0.015527343749999999
            ],
            [
              -0.041894531250000006,
              0.015527343749999999
            ],
            [
              -0.041894531250000006,
              0.01572265625
            ],
            [
              -0.0419921875,
              0.01572265625
            ],
            [
              -0.0419921875,
              0.01611328125
            ],
            [
              -0.041894531250000006,
              0.01611328125
            ],
            [
              -0.041894531250000006,
              0.016308593750000003
            ],
            [
              -0.041796875000000004,
              0.016308593750000003
            ],
            [
              -0.041796875000000004,
              0.01650390625
            ],
            [
              -0.04169921875,
              0.01650390625
            ],
            [
              -0.04169921875,
              0.0169921875
            ],
            [
              -0.041796875000000004,
              0.0169921875
            ],
            [
              -0.041796875000000004,
              0.01708984375
            ],
            [
              -0.0419921875,
              0.01708984375
            ],
            [
              -0.0419921875,
              0.0171875
            ],
            [
              -0.04365234375,
              0.0171875
            ]
          ]
        ]
      },
      "properties": {
        "building_id": 2,
        "damage_tier": "destroyed",
        "confidence": 0.986
      }
    },
    {
      "type": "Feature",
      "geometry": {
        "type": "Polygon",
        "coordinates": [
          [
            [
              -0.0484375,
              0.008105468749999997
            ],
            [
              -0.0484375,
              0.008007812500000003
            ],
            [
              -0.048632812500000004,
              0.008007812500000003
            ],
            [
              -0.048632812500000004,
              0.007910156250000001
            ],
            [
              -0.048828125,
              0.007910156250000001
            ],
            [
              -0.048828125,
              0.0078125
            ],
            [
              -0.0490234375,
              0.0078125
            ],
            [
              -0.0490234375,
              0.007714843749999999
            ],
            [
              -0.049121093750000004,
              0.007714843749999999
            ],
            [
              -0.049121093750000004,
              0.007617187499999997
            ],
            [
              -0.049218750000000006,
              0.007617187499999997
            ],
            [
              -0.049218750000000006,
              0.007519531250000003
            ],
            [
              -0.04931640625,
              0.007519531250000003
            ],
            [
              -0.04931640625,
              0.007421875000000001
            ],
            [
              -0.0494140625,
              0.007421875000000001
            ],
            [
              -0.0494140625,
              0.00732421875
            ],
            [
              -0.04951171875,
              0.00732421875
            ],
            [
              -0.04951171875,
              0.007226562499999999
            ],
            [
              -0.049609375000000004,
              0.007226562499999999
            ],
            [
              -0.049609375000000004,
              0.007031250000000003
            ],
            [
              -0.049707031250000006,
              0.007031250000000003
            ],
            [
              -0.049707031250000006,
              0.0068359375
            ],
            [
              -0.0498046875,
              0.0068359375
            ],
            [
              -0.0498046875,
              0.00634765625
            ],
            [
              -0.049707031250000006,
              0.00634765625
            ],
            [
              -0.049707031250000006,
              0.006249999999999999
            ],
            [
              -0.049609375000000004,
              0.006249999999999999
            ],
            [
              -0.049609375000000004,
              0.006054687500000003
            ],
            [
              -0.04951171875,
              0.006054687500000003
            ],
            [
              -0.04951171875,
              0.005957031250000001
            ],
            [
              -0.04931640625,
              0.005957031250000001
            ],
            [
              -0.04931640625,
              0.005859375
            ],
            [
              -0.049218750000000006,
              0.005859375
            ],
            [
              -0.049218750000000006,
              0.005761718749999999
            ],
            [
              -0.0490234375,
              0.005761718749999999
            ],
            [
              -0.0490234375,
              0.005664062499999997
            ],
            [
              -0.048730468750000006,
              0.005664062499999997
            ],
            [
              -0.048730468750000006,
              0.005566406250000003
            ],
            [
              -0.048046875,
              0.005566406250000003
            ],
            [
              -0.048046875,
              0.005664062499999997
            ],
            [
              -0.04794921875,
              0.005664062499999997
            ],
            [
              -0.04794921875,
              0.005761718749999999
            ],
            [
              -0.047753906250000006,
              0.005761718749999999
            ],
            [
              -0.047753906250000006,
              0.005859375
            ],
            [
              -0.047656250000000004,
              0.005859375
            ],
            [
              -0.047656250000000004,
              0.005957031250000001
            ],
            [
              -0.04755859375,
              0.005957031250000001
            ],
            [
              -0.04755859375,
              0.006152343749999997
            ],
            [
              -0.0474609375,
              0.006152343749999997
            ],
            [
              -0.0474609375,
              0.006445312500000001
            ],
            [
              -0.04736328125,
              0.006445312500000001
            ],
            [
              -0.04736328125,
              0.006640624999999997
            ],
            [
              -0.047265625000000006,
              0.006640624999999997
            ],
            [
              -0.047265625000000006,
              0.006738281249999999
            ],
            [
              -0.0470703125,
              0.006738281249999999
            ],
            [
              -0.0470703125,
              0.0068359375
            ],
            [
              -0.04697265625,
              0.0068359375
            ],
            [
              -0.04697265625,
              0.007226562499999999
            ],
            [
              -0.046875,
              0.007226562499999999
            ],
            [
              -0.046875,
              0.00732421875
            ],
            [
              -0.04697265625,
              0.00732421875
            ],
            [
              -0.04697265625,
              0.007714843749999999
            ],
            [
              -0.0470703125,
              0.007714843749999999
            ],
            [
              -0.0470703125,
              0.0078125
            ],
            [
              -0.047167968750000004,
              0.0078125
            ],
            [
              -0.047167968750000004,
              0.007910156250000001
            ],
            [
              -0.047265625000000006,
              0.007910156250000001
            ],
            [
              -0.047265625000000006,
              0.008007812500000003
            ],
            [
              -0.0474609375,
              0.008007812500000003
            ],
            [
              -0.0474609375,
              0.008105468749999997
            ],
            [
              -0.0484375,
              0.008105468749999997
            ]
          ]
        ]
      },
      "properties": {
        "building_id": 3,
        "damage_tier": "destroyed",
        "confidence": 0.847
      }
    },
    {
      "type": "Feature",
      "geometry": {
        "type": "Polygon",
        "coordinates": [
          [
            [
              -0.046777343750000006,
              0.005761718749999999
            ],
            [
              -0.046777343750000006,
              0.005664062499999997
            ],
            [
              -0.04697265625,
              0.005664062499999997
            ],
            [
              -0.04697265625,
              0.005566406250000003
            ],
            [
              -0.0470703125,
              0.005566406250000003
            ],
            [
              -0.0470703125,
              0.005468750000000001
            ],
            [
              -0.047265625000000006,
              0.005468750000000001
            ],
            [
              -0.047265625000000006,
              0.00537109375
            ],
            [
              -0.04736328125,
              0.00537109375
            ],
            [
              -0.04736328125,
              0.005273437499999999
            ],
            [
              -0.0474609375,
              0.005273437499999999
            ],
            [
              -0.0474609375,
              0.005175781249999997
            ],
            [
              -0.04755859375,
              0.005175781249999997
            ],
            [
              -0.04755859375,
              0.005078125000000003
            ],
            [
              -0.047656250000000004,
              0.005078125000000003
            ],
            [
              -0.047656250000000004,
              0.004980468750000001
            ],
            [
              -0.047753906250000006,
              0.004980468750000001
            ],
            [
              -0.047753906250000006,
              0.004785156249999999
            ],
            [
              -0.0478515625,
              0.004785156249999999
            ],
            [
              -0.0478515625,
              0.004492187500000001
            ],
            [
              -0.04794921875,
              0.004492187500000001
            ],
            [
              -0.04794921875,
              0.00439453125
            ],
            [
              -0.0478515625,
              0.00439453125
            ],
            [
              -0.0478515625,
              0.00390625
            ],
            [
              -0.04794921875,
              0.00390625
            ],
            [
              -0.04794921875,
              0.0035156250000000014
            ],
            [
              -0.0478515625,
              0.0035156250000000014
            ],
            [
              -0.0478515625,
              0.0032226562499999972
            ],
            [
              -0.047656250000000004,
              0.0032226562499999972
            ],
            [
              -0.047656250000000004,
              0.0031250000000000028
            ],
            [
              -0.04736328125,
              0.0031250000000000028
            ],
            [
              -0.04736328125,
              0.0030273437500000014
            ],
            [
              -0.047265625000000006,
              0.0030273437500000014
            ],
            [
              -0.047265625000000006,
              0.0029296875
            ],
            [
              -0.0470703125,
              0.0029296875
            ],
            [
              -0.0470703125,
              0.0028320312499999986
            ],
            [
              -0.046777343750000006,
              0.0028320312499999986
            ],
            [
              -0.046777343750000006,
              0.0027343749999999972
            ],
            [
              -0.04609375,
              0.0027343749999999972
            ],
            [
              -0.04609375,
              0.0028320312499999986
            ],
            [
              -0.04599609375,
              0.0028320312499999986
            ],
            [
              -0.04599609375,
              0.0029296875
            ],
            [
              -0.0458984375,
              0.0029296875
            ],
            [
              -0.0458984375,
              0.0030273437500000014
            ],
            [
              -0.045800781250000006,
              0.0030273437500000014
            ],
            [
              -0.045800781250000006,
              0.0033203124999999986
            ],
            [
              -0.045703125000000004,
              0.0033203124999999986
            ],
            [
              -0.045703125000000004,
              0.0036132812500000028
            ],
            [
              -0.04560546875,
              0.0036132812500000028
            ],
            [
              -0.04560546875,
              0.0038085937499999986
            ],
            [
              -0.0455078125,
              0.0038085937499999986
            ],
            [
              -0.0455078125,
              0.004003906250000001
            ],
            [
              -0.04541015625,
              0.004003906250000001
            ],
            [
              -0.04541015625,
              0.004199218749999997
            ],
            [
              -0.045312500000000006,
              0.004199218749999997
            ],
            [
              -0.045312500000000006,
              0.004492187500000001
            ],
            [
              -0.045214843750000004,
              0.004492187500000001
            ],
            [
              -0.045214843750000004,
              0.005078125000000003
            ],
            [
              -0.045312500000000006,
              0.005078125000000003
            ],
            [
              -0.045312500000000006,
              0.005273437499999999
            ],
            [
              -0.04541015625,
              0.005273437499999999
            ],
            [
              -0.04541015625,
              0.00537109375
            ],
            [
              -0.0455078125,
              0.00537109375
            ],
            [
              -0.0455078125,
              0.005468750000000001
            ],
            [
              -0.045800781250000006,
              0.005468750000000001
            ],
            [
              -0.045800781250000006,
              0.005566406250000003
            ],
            [
              -0.04599609375,
              0.005566406250000003
            ],
            [
              -0.04599609375,
              0.005664062499999997
            ],
            [
              -0.046289062500000006,
              0.005664062499999997
            ],
            [
              -0.046289062500000006,
              0.005761718749999999
            ],
            [
              -0.046777343750000006,
              0.005761718749999999
            ]
          ]
        ]
      },
      "properties": {
        "building_id": 4,
        "damage_tier": "destroyed",
        "confidence": 0.919
      }
    },
    {
      "type": "Feature",
      "geometry": {
        "type": "Polygon",
        "coordinates": [
          [
            [
              -0.04404296875,
              -0.004492187500000001
            ],
            [
              -0.04404296875,
              -0.004589843750000003
            ],
            [
              -0.044140625,
              -0.004589843750000003
            ],
            [
              -0.044140625,
              -0.004785156249999999
            ],
            [
              -0.044238281250000004,
              -0.004785156249999999
            ],
            [
              -0.044238281250000004,
              -0.004980468750000001
            ],
            [
              -0.04404296875,
              -0.004980468750000001
            ],
            [
              -0.04404296875,
              -0.005078125000000003
            ],
            [
              -0.0439453125,
              -0.005078125000000003
            ],
            [
              -0.0439453125,
              -0.004980468750000001
            ],
            [
              -0.043847656250000006,
              -0.004980468750000001
            ],
            [
              -0.043847656250000006,
              -0.0048828125
            ],
            [
              -0.043750000000000004,
              -0.0048828125
            ],
            [
              -0.043750000000000004,
              -0.004785156249999999
            ],
            [
              -0.043847656250000006,
              -0.004785156249999999
            ],
            [
              -0.043847656250000006,
              -0.004589843750000003
            ],
            [
              -0.0439453125,
              -0.004589843750000003
            ],
            [
              -0.0439453125,
              -0.004492187500000001
            ],
            [
              -0.04404296875,
              -0.004492187500000001
            ]
          ]
        ]
      },
      "properties": {
        "building_id": 5,
        "damage_tier": "destroyed",
        "confidence": 0.94
      }
    },
    {
      "type": "Feature",
      "geometry": {
        "type": "Polygon",
        "coordinates": [
          [
            [
              -0.0451171875,
              -0.007031250000000003
            ],
            [
              -0.0451171875,
              -0.007128906249999997
            ],
            [
              -0.045312500000000006,
              -0.007128906249999997
            ],
            [
              -0.045312500000000006,
              -0.007226562499999999
            ],
            [
              -0.045214843750000004,
              -0.007226562499999999
            ],
            [
              -0.045214843750000004,
              -0.00732421875
            ],
            [
              -0.0451171875,
              -0.00732421875
            ],
            [
              -0.0451171875,
              -0.007421875000000001
            ],
            [
              -0.044824218750000006,
              -0.007421875000000001
            ],
            [
              -0.044824218750000006,
              -0.00732421875
            ],
            [
              -0.044726562500000004,
              -0.00732421875
            ],
            [
              -0.044726562500000004,
              -0.007226562499999999
            ],
            [
              -0.044824218750000006,
              -0.007226562499999999
            ],
            [
              -0.044824218750000006,
              -0.007128906249999997
            ],
            [
              -0.04501953125,
              -0.007128906249999997
            ],
            [
              -0.04501953125,
              -0.007031250000000003
            ],
            [
              -0.0451171875,
              -0.007031250000000003
            ]
          ]
        ]
      },
      "properties": {
        "building_id": 6,
        "damage_tier": "destroyed",
        "confidence": 0.959
      }
    },
    {
      "type": "Feature",
      "geometry": {
        "type": "Polygon",
        "coordinates": [
          [
            [
              -0.044824218750000006,
              -0.009765625
            ],
            [
              -0.044824218750000006,
              -0.009863281250000001
            ],
            [
              -0.04501953125,
              -0.009863281250000001
            ],
            [
              -0.04501953125,
              -0.009960937500000003
            ],
            [
              -0.045214843750000004,
              -0.009960937500000003
            ],
            [
              -0.045214843750000004,
              -0.010058593749999997
            ],
            [
              -0.045312500000000006,
              -0.010058593749999997
            ],
            [
              -0.045312500000000006,
              -0.010156249999999999
            ],
            [
              -0.0455078125,
              -0.010156249999999999
            ],
            [
              -0.0455078125,
              -0.01025390625
            ],
            [
              -0.04560546875,
              -0.01025390625
            ],
            [
              -0.04560546875,
              -0.010351562500000001
            ],
            [
              -0.045800781250000006,
              -0.010351562500000001
            ],
            [
              -0.045800781250000006,
              -0.010449218750000003
            ],
            [
              -0.0458984375,
              -0.010449218750000003
            ],
            [
              -0.0458984375,
              -0.010546874999999997
            ],
            [
              -0.04599609375,
              -0.010546874999999997
            ],
            [
              -0.04599609375,
              -0.010644531249999999
            ],
            [
              -0.04609375,
              -0.010644531249999999
            ],
            [
              -0.04609375,
              -0.0107421875
            ],
            [
              -0.046191406250000004,
              -0.0107421875
            ],
            [
              -0.046191406250000004,
              -0.010839843750000001
            ],
            [
              -0.046289062500000006,
              -0.010839843750000001
            ],
            [
              -0.046289062500000006,
              -0.010937500000000003
            ],
            [
              -0.04638671875,
              -0.010937500000000003
            ],
            [
              -0.04638671875,
              -0.011035156249999997
            ],
            [
              -0.046484375,
              -0.011035156249999997
            ],
            [
              -0.046484375,
              -0.01123046875
            ],
            [
              -0.04658203125,
              -0.01123046875
            ],
            [
              -0.04658203125,
              -0.011621093749999999
            ],
            [
              -0.046484375,
              -0.011621093749999999
            ],
            [
              -0.046484375,
              -0.011816406250000001
            ],
            [
              -0.04638671875,
              -0.011816406250000001
            ],
            [
              -0.04638671875,
              -0.011914062500000003
            ],
            [
              -0.046289062500000006,
              -0.011914062500000003
            ],
            [
              -0.046289062500000006,
              -0.012011718749999997
            ],
            [
              -0.046191406250000004,
              -0.012011718749999997
            ],
            [
              -0.046191406250000004,
              -0.012109374999999999
            ],
            [
              -0.04609375,
              -0.012109374999999999
            ],
            [
              -0.04609375,
              -0.01220703125
            ],
            [
              -0.04599609375,
              -0.01220703125
            ],
            [
              -0.04599609375,
              -0.012304687500000001
            ],
            [
              -0.045800781250000006,
              -0.012304687500000001
            ],
            [
              -0.045800781250000006,
              -0.012402343750000003
            ],
            [
              -0.045214843750000004,
              -0.012402343750000003
            ],
            [
              -0.045214843750000004,
              -0.012304687500000001
            ],
            [
              -0.044824218750000006,
              -0.012304687500000001
            ],
            [
              -0.044824218750000006,
              -0.01220703125
            ],
            [
              -0.0439453125,
              -0.01220703125
            ],
            [
              -0.0439453125,
              -0.012109374999999999
            ],
            [
              -0.043750000000000004,
              -0.012109374999999999
            ],
            [
              -0.043750000000000004,
              -0.012011718749999997
            ],
            [
              -0.0435546875,
              -0.012011718749999997
            ],
            [
              -0.0435546875,
              -0.011914062500000003
            ],
            [
              -0.043359375000000006,
              -0.011914062500000003
            ],
            [
              -0.043359375000000006,
              -0.011816406250000001
            ],
            [
              -0.0431640625,
              -0.011816406250000001
            ],
            [
              -0.0431640625,
              -0.01171875
            ],
            [
              -0.04306640625,
              -0.01171875
            ],
            [
              -0.04306640625,
              -0.011523437499999997
            ],
            [
              -0.04296875,
              -0.011523437499999997
            ],
            [
              -0.04296875,
              -0.010937500000000003
            ],
            [
              -0.04306640625,
              -0.010937500000000003
            ],
            [
              -0.04306640625,
              -0.0107421875
            ],
            [
              -0.0431640625,
              -0.0107421875
            ],
            [
              -0.0431640625,
              -0.010644531249999999
            ],
            [
              -0.043261718750000004,
              -0.010644531249999999
            ],
            [
              -0.043261718750000004,
              -0.010546874999999997
            ],
            [
              -0.043359375000000006,
              -0.010546874999999997
            ],
            [
              -0.043359375000000006,
              -0.010449218750000003
            ],
            [
              -0.0435546875,
              -0.010449218750000003
            ],
            [
              -0.0435546875,
              -0.010351562500000001
            ],
            [
              -0.04365234375,
              -0.010351562500000001
            ],
            [
              -0.04365234375,
              -0.01025390625
            ],
            [
              -0.043750000000000004,
              -0.01025390625
            ],
            [
              -0.043750000000000004,
              -0.010156249999999999
            ],
            [
              -0.043847656250000006,
              -0.010156249999999999
            ],
            [
              -0.043847656250000006,
              -0.010058593749999997
            ],
            [
              -0.04404296875,
              -0.010058593749999997
            ],
            [
              -0.04404296875,
              -0.009960937500000003
            ],
            [
              -0.044238281250000004,
              -0.009960937500000003
            ],
            [
              -0.044238281250000004,
              -0.009863281250000001
            ],
            [
              -0.04453125,
              -0.009863281250000001
            ],
            [
              -0.04453125,
              -0.009765625
            ],
            [
              -0.044824218750000006,
              -0.009765625
            ]
          ]
        ]
      },
      "properties": {
        "building_id": 7,
        "damage_tier": "destroyed",
        "confidence": 0.906
      }
    },
    {
      "type": "Feature",
      "geometry": {
        "type": "Polygon",
        "coordinates": [
          [
            [
              -0.03662109375,
              -0.019140624999999994
            ],
            [
              -0.03662109375,
              -0.019238281250000003
            ],
            [
              -0.036914062500000004,
              -0.019238281250000003
            ],
            [
              -0.036914062500000004,
              -0.019335937499999997
            ],
            [
              -0.037011718750000006,
              -0.019335937499999997
            ],
            [
              -0.037011718750000006,
              -0.019433593750000006
            ],
            [
              -0.037109375,
              -0.019433593750000006
            ],
            [
              -0.037109375,
              -0.019628906249999994
            ],
            [
              -0.03720703125,
              -0.019628906249999994
            ],
            [
              -0.03720703125,
              -0.019726562500000003
            ],
            [
              -0.0373046875,
              -0.019726562500000003
            ],
            [
              -0.0373046875,
              -0.020214843750000003
            ],
            [
              -0.03720703125,
              -0.020214843750000003
            ],
            [
              -0.03720703125,
              -0.020312499999999997
            ],
            [
              -0.037109375,
              -0.020312499999999997
            ],
            [
              -0.037109375,
              -0.0205078125
            ],
            [
              -0.037011718750000006,
              -0.0205078125
            ],
            [
              -0.037011718750000006,
              -0.020605468749999994
            ],
            [
              -0.036914062500000004,
              -0.020605468749999994
            ],
            [
              -0.036914062500000004,
              -0.020703125000000003
            ],
            [
              -0.03671875,
              -0.020703125000000003
            ],
            [
              -0.03671875,
              -0.020800781249999997
            ],
            [
              -0.0361328125,
              -0.020800781249999997
            ],
            [
              -0.0361328125,
              -0.020703125000000003
            ],
            [
              -0.036035156250000006,
              -0.020703125000000003
            ],
            [
              -0.036035156250000006,
              -0.020605468749999994
            ],
            [
              -0.035937500000000004,
              -0.020605468749999994
            ],
            [
              -0.035937500000000004,
              -0.020312499999999997
            ],
            [
              -0.03583984375,
              -0.020312499999999997
            ],
            [
              -0.03583984375,
              -0.02001953125
            ],
            [
              -0.0357421875,
              -0.02001953125
            ],
            [
              -0.0357421875,
              -0.019921875000000006
            ],
            [
              -0.03564453125,
              -0.019921875000000006
            ],
            [
              -0.03564453125,
              -0.019433593750000006
            ],
            [
              -0.0357421875,
              -0.019433593750000006
            ],
            [
              -0.0357421875,
              -0.019238281250000003
            ],
            [
              -0.036035156250000006,
              -0.019238281250000003
            ],
            [
              -0.036035156250000006,
              -0.019140624999999994
            ],
            [
              -0.03662109375,
              -0.019140624999999994
            ]
          ]
        ]
      },
      "properties": {
        "building_id": 8,
        "damage_tier": "destroyed",
        "confidence": 0.969
      }
    },
    {
      "type": "Feature",
      "geometry": {
        "type": "Polygon",
        "coordinates": [
          [
            [
              -0.03193359375,
              -0.02890625000000001
            ],
            [
              -0.03193359375,
              -0.029003906250000003
            ],
            [
              -0.03203125,
              -0.029003906250000003
            ],
            [
              -0.03203125,
              -0.029101562499999997
            ],
            [
              -0.032128906250000006,
              -0.029101562499999997
            ],
            [
              -0.032128906250000006,
              -0.029199218750000006
            ],
            [
              -0.0322265625,
              -0.029199218750000006
            ],
            [
              -0.0322265625,
              -0.02939453125000001
            ],
            [
              -0.03232421875,
              -0.02939453125000001
            ],
            [
              -0.03232421875,
              -0.029589843749999997
            ],
            [
              -0.032421875,
              -0.029589843749999997
            ],
            [
              -0.032421875,
              -0.02978515625
            ],
            [
              -0.03251953125,
              -0.02978515625
            ],
            [
              -0.03251953125,
              -0.03037109375000001
            ],
            [
              -0.032421875,
              -0.03037109375000001
            ],
            [
              -0.032421875,
              -0.030566406249999997
            ],
            [
              -0.03232421875,
              -0.030566406249999997
            ],
            [
              -0.03232421875,
              -0.03076171875
            ],
            [
              -0.0322265625,
              -0.03076171875
            ],
            [
              -0.0322265625,
              -0.030957031250000003
            ],
            [
              -0.032128906250000006,
              -0.030957031250000003
            ],
            [
              -0.032128906250000006,
              -0.03125
            ],
            [
              -0.03232421875,
              -0.03125
            ],
            [
              -0.03232421875,
              -0.03134765625000001
            ],
            [
              -0.032617187500000006,
              -0.03134765625000001
            ],
            [
              -0.032617187500000006,
              -0.0314453125
            ],
            [
              -0.0328125,
              -0.0314453125
            ],
            [
              -0.0328125,
              -0.03154296875
            ],
            [
              -0.0330078125,
              -0.03154296875
            ],
            [
              -0.0330078125,
              -0.031640625000000006
            ],
            [
              -0.033203125,
              -0.031640625000000006
            ],
            [
              -0.033203125,
              -0.03173828125
            ],
            [
              -0.03349609375,
              -0.03173828125
            ],
            [
              -0.03349609375,
              -0.03183593750000001
            ],
            [
              -0.033593750000000006,
              -0.03183593750000001
            ],
            [
              -0.033593750000000006,
              -0.03193359375
            ],
            [
              -0.03369140625,
              -0.03193359375
            ],
            [
              -0.03369140625,
              -0.03203125
            ],
            [
              -0.03388671875,
              -0.03203125
            ],
            [
              -0.03388671875,
              -0.032128906250000006
            ],
            [
              -0.034082031250000006,
              -0.032128906250000006
            ],
            [
              -0.034082031250000006,
              -0.0322265625
            ],
            [
              -0.03427734375,
              -0.0322265625
            ],
            [
              -0.03427734375,
              -0.03251953125
            ],
            [
              -0.034375,
              -0.03251953125
            ],
            [
              -0.034375,
              -0.03271484375
            ],
            [
              -0.03427734375,
              -0.03271484375
            ],
            [
              -0.03427734375,
              -0.03291015625
            ],
            [
              -0.0341796875,
              -0.03291015625
            ],
            [
              -0.0341796875,
              -0.0330078125
            ],
            [
              -0.034082031250000006,
              -0.0330078125
            ],
            [
              -0.034082031250000006,
              -0.033105468750000006
            ],
            [
              -0.03388671875,
              -0.033105468750000006
            ],
            [
              -0.03388671875,
              -0.033203125
            ],
            [
              -0.0337890625,
              -0.033203125
            ],
            [
              -0.0337890625,
              -0.03330078125000001
            ],
            [
              -0.03369140625,
              -0.03330078125000001
            ],
            [
              -0.03369140625,
              -0.0333984375
            ],
            [
              -0.033593750000000006,
              -0.0333984375
            ],
            [
              -0.033593750000000006,
              -0.03349609375
            ],
            [
              -0.03349609375,
              -0.03349609375
            ],
            [
              -0.03349609375,
              -0.03369140625
            ],
            [
              -0.0333984375,
              -0.03369140625
            ],
            [
              -0.0333984375,
              -0.03378906250000001
            ],
            [
              -0.033203125,
              -0.03378906250000001
            ],
            [
              -0.033203125,
              -0.03388671875
            ],
            [
              -0.0330078125,
              -0.03388671875
            ],
            [
              -0.0330078125,
              -0.033984375
            ],
            [
              -0.03291015625,
              -0.033984375
            ],
            [
              -0.03291015625,
              -0.03388671875
            ],
            [
              -0.03251953125,
              -0.03388671875
            ],
            [
              -0.03251953125,
              -0.03378906250000001
            ],
            [
              -0.03232421875,
              -0.03378906250000001
            ],
            [
              -0.03232421875,
              -0.03369140625
            ],
            [
              -0.0322265625,
              -0.03369140625
            ],
            [
              -0.0322265625,
              -0.033593750000000006
            ],
            [
              -0.032128906250000006,
              -0.033593750000000006
            ],
            [
              -0.032128906250000006,
              -0.03349609375
            ],
            [
              -0.03203125,
              -0.03349609375
            ],
            [
              -0.03203125,
              -0.0333984375
            ],
            [
              -0.03193359375,
              -0.0333984375
            ],
            [
              -0.03193359375,
              -0.033203125
            ],
            [
              -0.0318359375,
              -0.033203125
            ],
            [
              -0.0318359375,
              -0.033105468750000006
            ],
            [
              -0.03173828125,
              -0.033105468750000006
            ],
            [
              -0.03173828125,
              -0.0330078125
            ],
            [
              -0.031640625000000006,
              -0.0330078125
            ],
            [
              -0.031640625000000006,
              -0.03291015625
            ],
            [
              -0.03154296875,
              -0.03291015625
            ],
            [
              -0.03154296875,
              -0.03271484375
            ],
            [
              -0.03125,
              -0.03271484375
            ],
            [
              -0.03125,
              -0.032617187500000006
            ],
            [
              -0.030957031250000003,
              -0.032617187500000006
            ],
            [
              -0.030957031250000003,
              -0.032421875
            ],
            [
              -0.0310546875,
              -0.032421875
            ],
            [
              -0.0310546875,
              -0.0322265625
            ],
            [
              -0.030957031250000003,
              -0.0322265625
            ],
            [
              -0.030957031250000003,
              -0.032128906250000006
            ],
            [
              -0.030859375,
              -0.032128906250000006
            ],
            [
              -0.030859375,
              -0.03203125
            ],
            [
              -0.030664062500000002,
              -0.03203125
            ],
            [
              -0.030664062500000002,
              -0.03183593750000001
            ],
            [
              -0.03056640625,
              -0.03183593750000001
            ],
            [
              -0.03056640625,
              -0.03173828125
            ],
            [
              -0.030468750000000003,
              -0.03173828125
            ],
            [
              -0.030468750000000003,
              -0.03154296875
            ],
            [
              -0.03037109375,
              -0.03154296875
            ],
            [
              -0.03037109375,
              -0.0314453125
            ],
            [
              -0.0302734375,
              -0.0314453125
            ],
            [
              -0.0302734375,
              -0.031152343750000006
            ],
            [
              -0.030175781250000002,
              -0.031152343750000006
            ],
            [
              -0.030175781250000002,
              -0.03076171875
            ],
            [
              -0.030078125,
              -0.03076171875
            ],
            [
              -0.030078125,
              -0.029980468750000003
            ],
            [
              -0.029980468750000003,
              -0.029980468750000003
            ],
            [
              -0.029980468750000003,
              -0.029589843749999997
            ],
            [
              -0.0298828125,
              -0.029589843749999997
            ],
            [
              -0.0298828125,
              -0.02939453125000001
            ],
            [
              -0.029980468750000003,
              -0.02939453125000001
            ],
            [
              -0.029980468750000003,
              -0.029296875
            ],
            [
              -0.030078125,
              -0.029296875
            ],
            [
              -0.030078125,
              -0.029101562499999997
            ],
            [
              -0.03037109375,
              -0.029101562499999997
            ],
            [
              -0.03037109375,
              -0.029003906250000003
            ],
            [
              -0.03125,
              -0.029003906250000003
            ],
            [
              -0.03125,
              -0.02890625000000001
            ],
            [
              -0.03193359375,
              -0.02890625000000001
            ]
          ]
        ]
      },
      "properties": {
        "building_id": 9,
        "damage_tier": "destroyed",
        "confidence": 0.983
      }
    }
  ]
}