{
  "type": "FeatureCollection",
  "features": [
    {
      "type": "Feature",
      "geometry": {
        "type": "Polygon",
        "coordinates": [
          [
            [
              85.40214453125,
              27.735021875
            ],
            [
              85.40214453125,
              27.734992578125
            ],
            [
              85.4020859375,
              27.734992578125
            ],
            [
              85.4020859375,
              27.73496328125
            ],
            [
              85.402056640625,
              27.73496328125
            ],
            [
              85.402056640625,
              27.734933984375
            ],
            [
              85.40202734375,
              27.734933984375
            ],
            [
              85.40202734375,
              27.734904687500002
            ],
            [
              85.40199804687501,
              27.734904687500002
            ],
            [
              85.40199804687501,
              27.734875390625
            ],
            [
              85.40196875000001,
              27.734875390625
            ],
            [
              85.40196875000001,
              27.734816796875002
            ],
            [
              85.40193945312501,
              27.734816796875002
            ],
            [
              85.40193945312501,
              27.7347875
            ],
            [
              85.40191015625001,
              27.7347875
            ],
            [
              85.40191015625001,
              27.734758203125
            ],
            [
              85.40188085937501,
              27.734758203125
            ],
            [
              85.40188085937501,
              27.73472890625
            ],
            [
              85.4018515625,
              27.73472890625
            ],
            [
              85.4018515625,
              27.7346703125
            ],
            [
              85.401822265625,
              27.7346703125
            ],
            [
              85.401822265625,
              27.73449453125
            ],
            [
              85.4018515625,
              27.73449453125
            ],
            [
              85.4018515625,
              27.734465234375
            ],
            [
              85.40191015625001,
              27.734465234375
            ],
            [
              85.40191015625001,
              27.7344359375
            ],
            [
              85.40196875000001,
              27.7344359375
            ],
            [
              85.40196875000001,
              27.734406640625
            ],
            [
              85.40199804687501,
              27.734406640625
            ],
            [
              85.40199804687501,
              27.73437734375
            ],
            [
              85.40202734375,
              27.73437734375
            ],
            [
              85.40202734375,
              27.734348046875
            ],
            [
              85.402115234375,
              27.734348046875
            ],
            [
              85.402115234375,
              27.73431875
            ],
            [
              85.40229101562501,
              27.73431875
            ],
            [
              85.40229101562501,
              27.734348046875
            ],
            [
              85.40234960937501,
              27.734348046875
            ],
            [
              85.40234960937501,
              27.73437734375
            ],
            [
              85.40237890625001,
              27.73437734375
            ],
            [
              85.40237890625001,
              27.734406640625
            ],
            [
              85.402408203125,
              27.734406640625
            ],
            [
              85.402408203125,
              27.734465234375
            ],
            [
              85.4024375,
              27.734465234375
            ],
            [
              85.4024375,
              27.73472890625
            ],
            [
              85.402466796875,
              27.73472890625
            ],
            [
              85.402466796875,
              27.734816796875002
            ],
            [
              85.40249609375,
              27.734816796875002
            ],
            [
              85.40249609375,
              27.734875390625
            ],
            [
              85.402466796875,
              27.734875390625
            ],
            [
              85.402466796875,
              27.734933984375
            ],
            [
              85.4024375,
              27.734933984375
            ],
            [
              85.4024375,
              27.73496328125
            ],
            [
              85.402408203125,
              27.73496328125
            ],
            [
              85.402408203125,
              27.734992578125
            ],
            [
              85.40229101562501,
              27.734992578125
            ],
            [
              85.40229101562501,
              27.735021875
            ],
            [
              85.40214453125,
              27.735021875
            ]
          ]
        ]
      },
      "properties": {
        "building_id": 8,
        "damage_tier": "minor-damage",
        "confidence": 0.354
      }
    },
    {
      "type": "Feature",
      "geometry": {
        "type": "Polygon",
        "coordinates": [
          [
            [
              85.399126953125,
              27.72441640625
            ],
            [
              85.399126953125,
              27.724387109375
            ],
            [
              85.39909765625,
              27.724387109375
            ],
            [
              85.39909765625,
              27.7243578125
            ],
            [
              85.39903906250001,
              27.7243578125
            ],
            [
              85.39903906250001,
              27.724328515625
            ],
            [
              85.39900976562501,
              27.724328515625
            ],
            [
              85.39900976562501,
              27.72429921875
            ],
            [
              85.39903906250001,
              27.72429921875
            ],
            [
              85.39903906250001,
              27.724269921875
            ],
            [
              85.399244140625,
              27.724269921875
            ],
            [
              85.399244140625,
              27.72429921875
            ],
            [
              85.3992734375,
              27.72429921875
            ],
            [
              85.3992734375,
              27.7243578125
            ],
            [
              85.399244140625,
              27.7243578125
            ],
            [
              85.399244140625,
              27.72441640625
            ],
            [
              85.399126953125,
              27.72441640625
            ]
          ]
        ]
      },
      "properties": {
        "building_id": 37,
        "damage_tier": "destroyed",
        "confidence": 0.904
      }
    },
    {
      "type": "Feature",
      "geometry": {
        "type": "Polygon",
        "coordinates": [
          [
            [
              85.39851171875,
              27.724152734375
            ],
            [
              85.39851171875,
              27.7241234375
            ],
            [
              85.398482421875,
              27.7241234375
            ],
            [
              85.398482421875,
              27.72400625
            ],
            [
              85.398453125,
              27.72400625
            ],
            [
              85.398453125,
              27.72394765625
            ],
            [
              85.398423828125,
              27.72394765625
            ],
            [
              85.398423828125,
              27.723859765625
            ],
            [
              85.39839453125,
              27.723859765625
            ],
            [
              85.39839453125,
              27.72383046875
            ],
            [
              85.398423828125,
              27.72383046875
            ],
            [
              85.398423828125,
              27.723801171875
            ],
            [
              85.398453125,
              27.723801171875
            ],
            [
              85.398453125,
              27.723771875
            ],
            [
              85.398482421875,
              27.723771875
            ],
            [
              85.398482421875,
              27.72371328125
            ],
            [
              85.39851171875,
              27.72371328125
            ],
            [
              85.39851171875,
              27.7236546875
            ],
            [
              85.398541015625,
              27.7236546875
            ],
            [
              85.398541015625,
              27.72371328125
            ],
            [
              85.3985703125,
              27.72371328125
            ],
            [
              85.3985703125,
              27.723771875
            ],
            [
              85.39859960937501,
              27.723771875
            ],
            [
              85.39859960937501,
              27.723976953125
            ],
            [
              85.39862890625001,
              27.723976953125
            ],
            [
              85.39862890625001,
              27.724035546875
            ],
            [
              85.39865820312501,
              27.724035546875
            ],
            [
              85.39865820312501,
              27.724094140625
            ],
            [
              85.39859960937501,
              27.724094140625
            ],
            [
              85.39859960937501,
              27.7241234375
            ],
            [
              85.398541015625,
              27.7241234375
            ],
            [
              85.398541015625,
              27.724152734375
            ],
            [
              85.39851171875,
              27.724152734375
            ]
          ]
        ]
      },
      "properties": {
        "building_id": 41,
        "damage_tier": "destroyed",
        "confidence": 0.917
      }
    },
    {
      "type": "Feature",
      "geometry": {
        "type": "Polygon",
        "coordinates": [
          [
            [
              85.39895117187501,
              27.7238890625
            ],
            [
              85.39895117187501,
              27.723859765625
            ],
            [
              85.398921875,
              27.723859765625
            ],
            [
              85.398921875,
              27.72383046875
            ],
            [
              85.39886328125,
              27.72383046875
            ],
            [
              85.39886328125,
              27.723801171875
            ],
            [
              85.3988046875,
              27.723801171875
            ],
            [
              85.3988046875,
              27.723771875
            ],
            [
              85.398775390625,
              27.723771875
            ],
            [
              85.398775390625,
              27.723742578124998
            ],
            [
              85.39874609375,
              27.723742578124998
            ],
            [
              85.39874609375,
              27.72371328125
            ],
            [
              85.39871679687501,
              27.72371328125
            ],
            [
              85.39871679687501,
              27.723683984375
            ],
            [
              85.39868750000001,
              27.723683984375
            ],
            [
              85.39868750000001,
              27.723625390625
            ],
            [
              85.39865820312501,
              27.723625390625
            ],
            [
              85.39865820312501,
              27.7234203125
            ],
            [
              85.39862890625001,
              27.7234203125
            ],
            [
              85.39862890625001,
              27.72336171875
            ],
            [
              85.39865820312501,
              27.72336171875
            ],
            [
              85.39865820312501,
              27.723332421875
            ],
            [
              85.39886328125,
              27.723332421875
            ],
            [
              85.39886328125,
              27.72336171875
            ],
            [
              85.398921875,
              27.72336171875
            ],
            [
              85.398921875,
              27.723391015625
            ],
            [
              85.39900976562501,
              27.723391015625
            ],
            [
              85.39900976562501,
              27.7234203125
            ],
            [
              85.39906835937501,
              27.7234203125
            ],
            [
              85.39906835937501,
              27.723449609375
            ],
            [
              85.39915625,
              27.723449609375
            ],
            [
              85.39915625,
              27.72347890625
            ],
            [
              85.39921484375,
              27.72347890625
            ],
            [
              85.39921484375,
              27.723508203125
            ],
            [
              85.399244140625,
              27.723508203125
            ],
            [
              85.399244140625,
              27.7235375
            ],
            [
              85.3992734375,
              27.7235375
            ],
            [
              85.3992734375,
              27.72359609375
            ],
            [
              85.399302734375,
              27.72359609375
            ],
            [
              85.399302734375,
              27.723683984375
            ],
            [
              85.3992734375,
              27.723683984375
            ],
            [
              85.3992734375,
              27.723771875
            ],
            [
              85.399244140625,
              27.723771875
            ],
            [
              85.399244140625,
              27.72383046875
            ],
            [
              85.39921484375,
              27.72383046875
            ],
            [
              85.39921484375,
              27.723859765625
            ],
            [
              85.399185546875,
              27.723859765625
            ],
            [
              85.399185546875,
              27.7238890625
            ],
            [
              85.39895117187501,
              27.7238890625
            ]
          ]
        ]
      },
      "properties": {
        "building_id": 43,
        "damage_tier": "destroyed",
        "confidence": 0.893
      }
    },
    {
      "type": "Feature",
      "geometry": {
        "type": "Polygon",
        "coordinates": [
          [
            [
              85.396607421875,
              27.721896875
            ],
            [
              85.396607421875,
              27.721867578125
            ],
            [
              85.39651953125001,
              27.721867578125
            ],
            [
              85.39651953125001,
              27.72183828125
            ],
            [
              85.39649023437501,
              27.72183828125
            ],
            [
              85.39649023437501,
              27.721808984375
            ],
            [
              85.39646093750001,
              27.721808984375
            ],
            [
              85.39646093750001,
              27.721750390625
            ],
            [
              85.39643164062501,
              27.721750390625
            ],
            [
              85.39643164062501,
              27.72172109375
            ],
            [
              85.39640234375001,
              27.72172109375
            ],
            [
              85.39640234375001,
              27.721691796875
            ],
            [
              85.396373046875,
              27.721691796875
            ],
            [
              85.396373046875,
              27.721633203125
            ],
            [
              85.39634375,
              27.721633203125
            ],
            [
              85.39634375,
              27.72160390625
            ],
            [
              85.396314453125,
              27.72160390625
            ],
            [
              85.396314453125,
              27.721545312499998
            ],
            [
              85.39628515625,
              27.721545312499998
            ],
            [
              85.39628515625,
              27.721516015625
            ],
            [
              85.396255859375,
              27.721516015625
            ],
            [
              85.396255859375,
              27.721457421875
            ],
            [
              85.39628515625,
              27.721457421875
            ],
            [
              85.39628515625,
              27.721428125
            ],
            [
              85.39634375,
              27.721428125
            ],
            [
              85.39634375,
              27.721398828125
            ],
            [
              85.39640234375001,
              27.721398828125
            ],
            [
              85.39640234375001,
              27.721428125
            ],
            [
              85.39646093750001,
              27.721428125
            ],
            [
              85.39646093750001,
              27.721457421875
            ],
            [
              85.39651953125001,
              27.721457421875
            ],
            [
              85.39651953125001,
              27.72148671875
            ],
            [
              85.3969296875,
              27.72148671875
            ],
            [
              85.3969296875,
              27.721457421875
            ],
            [
              85.396958984375,
              27.721457421875
            ],
            [
              85.396958984375,
              27.721398828125
            ],
            [
              85.39698828125,
              27.721398828125
            ],
            [
              85.39698828125,
              27.721340234375
            ],
            [
              85.397017578125,
              27.721340234375
            ],
            [
              85.397017578125,
              27.7213109375
            ],
            [
              85.397046875,
              27.7213109375
            ],
            [
              85.397046875,
              27.721281640625
            ],
            [
              85.397076171875,
              27.721281640625
            ],
            [
              85.397076171875,
              27.72125234375
            ],
            [
              85.39733984375,
              27.72125234375
            ],
            [
              85.39733984375,
              27.721281640625
            ],
            [
              85.397427734375,
              27.721281640625
            ],
            [
              85.397427734375,
              27.7213109375
            ],
            [
              85.39745703125,
              27.7213109375
            ],
            [
              85.39745703125,
              27.721340234375
            ],
            [
              85.39748632812501,
              27.721340234375
            ],
            [
              85.39748632812501,
              27.721398828125
            ],
            [
              85.39745703125,
              27.721398828125
            ],
            [
              85.39745703125,
              27.721428125
            ],
            [
              85.397427734375,
              27.721428125
            ],
            [
              85.397427734375,
              27.721457421875
            ],
            [
              85.3973984375,
              27.721457421875
            ],
            [
              85.3973984375,
              27.72148671875
            ],
            [
              85.397369140625,
              27.72148671875
            ],
            [
              85.397369140625,
              27.721516015625
            ],
            [
              85.397310546875,
              27.721516015625
            ],
            [
              85.397310546875,
              27.721545312499998
            ],
            [
              85.39725195312501,
              27.721545312499998
            ],
            [
              85.39725195312501,
              27.721574609375
            ],
            [
              85.39710546875,
              27.721574609375
            ],
            [
              85.39710546875,
              27.72160390625
            ],
            [
              85.397076171875,
              27.72160390625
            ],
            [
              85.397076171875,
              27.721574609375
            ],
            [
              85.396958984375,
              27.721574609375
            ],
            [
              85.396958984375,
              27.721633203125
            ],
            [
              85.3969296875,
              27.721633203125
            ],
            [
              85.3969296875,
              27.72172109375
            ],
            [
              85.396900390625,
              27.72172109375
            ],
            [
              85.396900390625,
              27.7217796875
            ],
            [
              85.39687109375001,
              27.7217796875
            ],
            [
              85.39687109375001,
              27.721808984375
            ],
            [
              85.39684179687501,
              27.721808984375
            ],
            [
              85.39684179687501,
              27.72183828125
            ],
            [
              85.39681250000001,
              27.72183828125
            ],
            [
              85.39681250000001,
              27.721867578125
            ],
            [
              85.3966953125,
              27.721867578125
            ],
            [
              85.3966953125,
              27.721896875
            ],
            [
              85.396607421875,
              27.721896875
            ]
          ]
        ]
      },
      "properties": {
        "building_id": 59,
        "damage_tier": "no-damage",
        "confidence": 0.489
      }
    },
    {
      "type": "Feature",
      "geometry": {
        "type": "Polygon",
        "coordinates": [
          [
            [
              85.396724609375,
              27.72119375
            ],
            [
              85.396724609375,
              27.721164453125
            ],
            [
              85.396607421875,
              27.721164453125
            ],
            [
              85.396607421875,
              27.721105859375
            ],
            [
              85.39663671875,
              27.721105859375
            ],
            [
              85.39663671875,
              27.7210765625
            ],
            [
              85.3966953125,
              27.7210765625
            ],
            [
              85.3966953125,
              27.721047265625
            ],
            [
              85.396724609375,
              27.721047265625
            ],
            [
              85.396724609375,
              27.72101796875
            ],
            [
              85.39687109375001,
              27.72101796875
            ],
            [
              85.39687109375001,
              27.721105859375
            ],
            [
              85.396900390625,
              27.721105859375
            ],
            [
              85.396900390625,
              27.72113515625
            ],
            [
              85.39687109375001,
              27.72113515625
            ],
            [
              85.39687109375001,
              27.721164453125
            ],
            [
              85.39678320312501,
              27.721164453125
            ],
            [
              85.39678320312501,
              27.72119375
            ],
            [
              85.396724609375,
              27.72119375
            ]
          ]
        ]
      },
      "properties": {
        "building_id": 64,
        "damage_tier": "no-damage",
        "confidence": 0.531
      }
    },
    {
      "type": "Feature",
      "geometry": {
        "type": "Polygon",
        "coordinates": [
          [
            [
              85.395640625,
              27.721047265625
            ],
            [
              85.395640625,
              27.72101796875
            ],
            [
              85.39558203125,
              27.72101796875
            ],
            [
              85.39558203125,
              27.720871484375
            ],
            [
              85.395611328125,
              27.720871484375
            ],
            [
              85.395611328125,
              27.720812890624998
            ],
            [
              85.395640625,
              27.720812890624998
            ],
            [
              85.395640625,
              27.72078359375
            ],
            [
              85.39572851562501,
              27.72078359375
            ],
            [
              85.39572851562501,
              27.720812890624998
            ],
            [
              85.39575781250001,
              27.720812890624998
            ],
            [
              85.39575781250001,
              27.7208421875
            ],
            [
              85.39578710937501,
              27.7208421875
            ],
            [
              85.39578710937501,
              27.720871484375
            ],
            [
              85.39581640625,
              27.720871484375
            ],
            [
              85.39581640625,
              27.720930078125
            ],
            [
              85.39578710937501,
              27.720930078125
            ],
            [
              85.39578710937501,
              27.72101796875
            ],
            [
              85.39575781250001,
              27.72101796875
            ],
            [
              85.39575781250001,
              27.721047265625
            ],
            [
              85.395640625,
              27.721047265625
            ]
          ]
        ]
      },
      "properties": {
        "building_id": 65,
        "damage_tier": "destroyed",
        "confidence": 0.731
      }
    },
    {
      "type": "Feature",
      "geometry": {
        "type": "Polygon",
        "coordinates": [
          [
            [
              85.397779296875,
              27.7197875
            ],
            [
              85.397779296875,
              27.719758203125
            ],
            [
              85.39769140625,
              27.719758203125
            ],
            [
              85.39769140625,
              27.719699609375
            ],
            [
              85.39786718750001,
              27.719699609375
            ],
            [
              85.39786718750001,
              27.719758203125
            ],
            [
              85.397837890625,
              27.719758203125
            ],
            [
              85.397837890625,
              27.7197875
            ],
            [
              85.397779296875,
              27.7197875
            ]
          ]
        ]
      },
      "properties": {
        "building_id": 72,
        "damage_tier": "no-damage",
        "confidence": 0.56
      }
    },
    {
      "type": "Feature",
      "geometry": {
        "type": "Polygon",
        "coordinates": [
          [
            [
              85.399244140625,
              27.720344140625
            ],
            [
              85.399244140625,
              27.72031484375
            ],
            [
              85.399185546875,
              27.72031484375
            ],
            [
              85.399185546875,
              27.720226953125
            ],
            [
              85.39915625,
              27.720226953125
            ],
            [
              85.39915625,
              27.72019765625
            ],
            [
              85.399126953125,
              27.72019765625
            ],
            [
              85.399126953125,
              27.7201390625
            ],
            [
              85.39909765625,
              27.7201390625
            ],
            [
              85.39909765625,
              27.720109765625
            ],
            [
              85.39895117187501,
              27.720109765625
            ],
            [
              85.39895117187501,
              27.720080468749998
            ],
            [
              85.39898046875001,
              27.720080468749998
            ],
            [
              85.39898046875001,
              27.720051171875
            ],
            [
              85.39909765625,
              27.720051171875
            ],
            [
              85.39909765625,
              27.720021875
            ],
            [
              85.399126953125,
              27.720021875
            ],
            [
              85.399126953125,
              27.719992578124998
            ],
            [
              85.39915625,
              27.719992578124998
            ],
            [
              85.39915625,
              27.719933984375
            ],
            [
              85.399126953125,
              27.719933984375
            ],
            [
              85.399126953125,
              27.719875390625
            ],
            [
              85.39909765625,
              27.719875390625
            ],
            [
              85.39909765625,
              27.71984609375
            ],
            [
              85.39921484375,
              27.71984609375
            ],
            [
              85.39921484375,
              27.719816796875
            ],
            [
              85.399302734375,
              27.719816796875
            ],
            [
              85.399302734375,
              27.7197875
            ],
            [
              85.39933203125001,
              27.7197875
            ],
            [
              85.39933203125001,
              27.719758203125
            ],
            [
              85.39939062500001,
              27.719758203125
            ],
            [
              85.39939062500001,
              27.71972890625
            ],
            [
              85.39944921875001,
              27.71972890625
            ],
            [
              85.39944921875001,
              27.719699609375
            ],
            [
              85.3995078125,
              27.719699609375
            ],
            [
              85.3995078125,
              27.7196703125
            ],
            [
              85.399537109375,
              27.7196703125
            ],
            [
              85.399537109375,
              27.719641015625
            ],
            [
              85.399595703125,
              27.719641015625
            ],
            [
              85.399595703125,
              27.719699609375
            ],
            [
              85.399625,
              27.719699609375
            ],
            [
              85.399625,
              27.71972890625
            ],
            [
              85.399654296875,
              27.71972890625
            ],
            [
              85.399654296875,
              27.719875390625
            ],
            [
              85.399625,
              27.719875390625
            ],
            [
              85.399625,
              27.7199046875
            ],
            [
              85.39956640625,
              27.7199046875
            ],
            [
              85.39956640625,
              27.719933984375
            ],
            [
              85.39941992187501,
              27.719933984375
            ],
            [
              85.39941992187501,
              27.71996328125
            ],
            [
              85.39939062500001,
              27.71996328125
            ],
            [
              85.39939062500001,
              27.719992578124998
            ],
            [
              85.39941992187501,
              27.719992578124998
            ],
            [
              85.39941992187501,
              27.720109765625
            ],
            [
              85.39944921875001,
              27.720109765625
            ],
            [
              85.39944921875001,
              27.720226953125
            ],
            [
              85.39941992187501,
              27.720226953125
            ],
            [
              85.39941992187501,
              27.72025625
            ],
            [
              85.39939062500001,
              27.72025625
            ],
            [
              85.39939062500001,
              27.72031484375
            ],
            [
              85.39936132812501,
              27.72031484375
            ],
            [
              85.39936132812501,
              27.720344140625
            ],
            [
              85.399244140625,
              27.720344140625
            ]
          ]
        ]
      },
      "properties": {
        "building_id": 73,
        "damage_tier": "no-damage",
        "confidence": 0.857
      }
    },
    {
      "type": "Feature",
      "geometry": {
        "type": "Polygon",
        "coordinates": [
          [
            [
              85.39859960937501,
              27.719875390625
            ],
            [
              85.39859960937501,
              27.71984609375
            ],
            [
              85.3985703125,
              27.71984609375
            ],
            [
              85.3985703125,
              27.719816796875
            ],
            [
              85.398541015625,
              27.719816796875
            ],
            [
              85.398541015625,
              27.719699609375
            ],
            [
              85.39859960937501,
              27.719699609375
            ],
            [
              85.39859960937501,
              27.7196703125
            ],
            [
              85.39868750000001,
              27.7196703125
            ],
            [
              85.39868750000001,
              27.719641015625
            ],
            [
              85.39871679687501,
              27.719641015625
            ],
            [
              85.39871679687501,
              27.71961171875
            ],
            [
              85.398775390625,
              27.71961171875
            ],
            [
              85.398775390625,
              27.719641015625
            ],
            [
              85.3988046875,
              27.719641015625
            ],
            [
              85.3988046875,
              27.7196703125
            ],
            [
              85.398833984375,
              27.7196703125
            ],
            [
              85.398833984375,
              27.719699609375
            ],
            [
              85.398892578125,
              27.719699609375
            ],
            [
              85.398892578125,
              27.719758203125
            ],
            [
              85.398833984375,
              27.719758203125
            ],
            [
              85.398833984375,
              27.7197875
            ],
            [
              85.3988046875,
              27.7197875
            ],
            [
              85.3988046875,
              27.719816796875
            ],
            [
              85.398775390625,
              27.719816796875
            ],
            [
              85.398775390625,
              27.71984609375
            ],
            [
              85.39871679687501,
              27.71984609375
            ],
            [
              85.39871679687501,
              27.719875390625
            ],
            [
              85.39859960937501,
              27.719875390625
            ]
          ]
        ]
      },
      "properties": {
        "building_id": 74,
        "damage_tier": "no-damage",
        "confidence": 0.88
      }
    },
    {
      "type": "Feature",
      "geometry": {
        "type": "Polygon",
        "coordinates": [
          [
            [
              85.3981015625,
              27.71984609375
            ],
            [
              85.3981015625,
              27.719816796875
            ],
            [
              85.398072265625,
              27.719816796875
            ],
            [
              85.398072265625,
              27.719758203125
            ],
            [
              85.39804296875,
              27.719758203125
            ],
            [
              85.39804296875,
              27.71972890625
            ],
            [
              85.398072265625,
              27.71972890625
            ],
            [
              85.398072265625,
              27.719699609375
            ],
            [
              85.3981015625,
              27.719699609375
            ],
            [
              85.3981015625,
              27.7196703125
            ],
            [
              85.398130859375,
              27.7196703125
            ],
            [
              85.398130859375,
              27.719641015625
            ],
            [
              85.39816015625,
              27.719641015625
            ],
            [
              85.39816015625,
              27.71961171875
            ],
            [
              85.39824804687501,
              27.71961171875
            ],
            [
              85.39824804687501,
              27.719582421875
            ],
            [
              85.39827734375001,
              27.719582421875
            ],
            [
              85.39827734375001,
              27.71961171875
            ],
            [
              85.39830664062501,
              27.71961171875
            ],
            [
              85.39830664062501,
              27.7196703125
            ],
            [
              85.39833593750001,
              27.7196703125
            ],
            [
              85.39833593750001,
              27.719699609375
            ],
            [
              85.398365234375,
              27.719699609375
            ],
            [
              85.398365234375,
              27.719758203125
            ],
            [
              85.39833593750001,
              27.719758203125
            ],
            [
              85.39833593750001,
              27.7197875
            ],
            [
              85.39830664062501,
              27.7197875
            ],
            [
              85.39830664062501,
              27.71984609375
            ],
            [
              85.3981015625,
              27.71984609375
            ]
          ]
        ]
      },
      "properties": {
        "building_id": 75,
        "damage_tier": "no-damage",
        "confidence": 0.792
      }
    },
    {
      "type": "Feature",
      "geometry": {
        "type": "Polygon",
        "coordinates": [
          [
            [
              85.39874609375,
              27.719553125
            ],
            [
              85.39874609375,
              27.71949453125
            ],
            [
              85.3988046875,
              27.71949453125
            ],
            [
              85.3988046875,
              27.719523828125
            ],
            [
              85.398775390625,
              27.719523828125
            ],
            [
              85.398775390625,
              27.719553125
            ],
            [
              85.39874609375,
              27.719553125
            ]
          ]
        ]
      },
      "properties": {
        "building_id": 76,
        "damage_tier": "no-damage",
        "confidence": 0.854
      }
    },
    {
      "type": "Feature",
      "geometry": {
        "type": "Polygon",
        "coordinates": [
          [
            [
              85.398365234375,
              27.719406640625
            ],
            [
              85.398365234375,
              27.71937734375
            ],
            [
              85.398453125,
              27.71937734375
            ],
            [
              85.398453125,
              27.719406640625
            ],
            [
              85.398365234375,
              27.719406640625
            ]
          ]
        ]
      },
      "properties": {
        "building_id": 78,
        "damage_tier": "no-damage",
        "confidence": 0.749
      }
    },
    {
      "type": "Feature",
      "geometry": {
        "type": "Polygon",
        "coordinates": [
          [
            [
              85.39426367187501,
              27.719758203125
            ],
            [
              85.39426367187501,
              27.71972890625
            ],
            [
              85.394146484375,
              27.71972890625
            ],
            [
              85.394146484375,
              27.7196703125
            ],
            [
              85.3941171875,
              27.7196703125
            ],
            [
              85.3941171875,
              27.71961171875
            ],
            [
              85.394087890625,
              27.71961171875
            ],
            [
              85.394087890625,
              27.719523828125
            ],
            [
              85.3941171875,
              27.719523828125
            ],
            [
              85.3941171875,
              27.719406640625
            ],
            [
              85.394087890625,
              27.719406640625
            ],
            [
              85.394087890625,
              27.71937734375
            ],
            [
              85.394146484375,
              27.71937734375
            ],
            [
              85.394146484375,
              27.719348046874998
            ],
            [
              85.39420507812501,
              27.719348046874998
            ],
            [
              85.39420507812501,
              27.71937734375
            ],
            [
              85.39423437500001,
              27.71937734375
            ],
            [
              85.39423437500001,
              27.71949453125
            ],
            [
              85.39426367187501,
              27.71949453125
            ],
            [
              85.39426367187501,
              27.719553125
            ],
            [
              85.39429296875001,
              27.719553125
            ],
            [
              85.39429296875001,
              27.719582421875
            ],
            [
              85.39432226562501,
              27.719582421875
            ],
            [
              85.39432226562501,
              27.7196703125
            ],
            [
              85.3943515625,
              27.7196703125
            ],
            [
              85.3943515625,
              27.71972890625
            ],
            [
              85.39432226562501,
              27.71972890625
            ],
            [
              85.39432226562501,
              27.719758203125
            ],
            [
              85.39426367187501,
              27.719758203125
            ]
          ]
        ]
      },
      "properties": {
        "building_id": 79,
        "damage_tier": "destroyed",
        "confidence": 0.766
      }
    },
    {
      "type": "Feature",
      "geometry": {
        "type": "Polygon",
        "coordinates": [
          [
            [
              85.400357421875,
              27.71937734375
            ],
            [
              85.400357421875,
              27.719230859375
            ],
            [
              85.40038671875,
              27.719230859375
            ],
            [
              85.40038671875,
              27.7192015625
            ],
            [
              85.40041601562501,
              27.7192015625
            ],
            [
              85.40041601562501,
              27.71937734375
            ],
            [
              85.400357421875,
              27.71937734375
            ]
          ]
        ]
      },
      "properties": {
        "building_id": 81,
        "damage_tier": "no-damage",
        "confidence": 0.666
      }
    },
    {
      "type": "Feature",
      "geometry": {
        "type": "Polygon",
        "coordinates": [
          [
            [
              85.399537109375,
              27.719553125
            ],
            [
              85.399537109375,
              27.71949453125
            ],
            [
              85.399478515625,
              27.71949453125
            ],
            [
              85.399478515625,
              27.719465234375
            ],
            [
              85.39939062500001,
              27.719465234375
            ],
            [
              85.39939062500001,
              27.71949453125
            ],
            [
              85.399185546875,
              27.71949453125
            ],
            [
              85.399185546875,
              27.719523828125
            ],
            [
              85.398921875,
              27.719523828125
            ],
            [
              85.398921875,
              27.719465234375
            ],
            [
              85.39906835937501,
              27.719465234375
            ],
            [
              85.39906835937501,
              27.7194359375
            ],
            [
              85.39921484375,
              27.7194359375
            ],
            [
              85.39921484375,
              27.719406640625
            ],
            [
              85.399244140625,
              27.719406640625
            ],
            [
              85.399244140625,
              27.71937734375
            ],
            [
              85.3992734375,
              27.71937734375
            ],
            [
              85.3992734375,
              27.719348046874998
            ],
            [
              85.399302734375,
              27.719348046874998
            ],
            [
              85.399302734375,
              27.71931875
            ],
            [
              85.39944921875001,
              27.71931875
            ],
            [
              85.39944921875001,
              27.719289453125
            ],
            [
              85.3995078125,
              27.719289453125
            ],
            [
              85.3995078125,
              27.719230859375
            ],
            [
              85.399478515625,
              27.719230859375
            ],
            [
              85.399478515625,
              27.71914296875
            ],
            [
              85.39944921875001,
              27.71914296875
            ],
            [
              85.39944921875001,
              27.719084375
            ],
            [
              85.399478515625,
              27.719084375
            ],
            [
              85.399478515625,
              27.71902578125
            ],
            [
              85.3995078125,
              27.71902578125
            ],
            [
              85.3995078125,
              27.718996484375
            ],
            [
              85.399537109375,
              27.718996484375
            ],
            [
              85.399537109375,
              27.7189671875
            ],
            [
              85.39956640625,
              27.7189671875
            ],
            [
              85.39956640625,
              27.718937890625
            ],
            [
              85.399595703125,
              27.718937890625
            ],
            [
              85.399595703125,
              27.71890859375
            ],
            [
              85.399625,
              27.71890859375
            ],
            [
              85.399625,
              27.718879296875
            ],
            [
              85.399654296875,
              27.718879296875
            ],
            [
              85.399654296875,
              27.71885
            ],
            [
              85.39968359375001,
              27.71885
            ],
            [
              85.39968359375001,
              27.718820703125
            ],
            [
              85.39971289062501,
              27.718820703125
            ],
            [
              85.39971289062501,
              27.71879140625
            ],
            [
              85.39977148437501,
              27.71879140625
            ],
            [
              85.39977148437501,
              27.718762109375
            ],
            [
              85.399859375,
              27.718762109375
            ],
            [
              85.399859375,
              27.71879140625
            ],
            [
              85.399888671875,
              27.71879140625
            ],
            [
              85.399888671875,
              27.718820703125
            ],
            [
              85.3999765625,
              27.718820703125
            ],
            [
              85.3999765625,
              27.71885
            ],
            [
              85.40009375000001,
              27.71885
            ],
            [
              85.40009375000001,
              27.718879296875
            ],
            [
              85.400328125,
              27.718879296875
            ],
            [
              85.400328125,
              27.71890859375
            ],
            [
              85.40041601562501,
              27.71890859375
            ],
            [
              85.40041601562501,
              27.718879296875
            ],
            [
              85.40050390625001,
              27.718879296875
            ],
            [
              85.40050390625001,
              27.71885
            ],
            [
              85.4005625,
              27.71885
            ],
            [
              85.4005625,
              27.718879296875
            ],
            [
              85.400650390625,
              27.718879296875
            ],
            [
              85.400650390625,
              27.71890859375
            ],
            [
              85.4006796875,
              27.71890859375
            ],
            [
              85.4006796875,
              27.718937890625
            ],
            [
              85.400650390625,
              27.718937890625
            ],
            [
              85.400650390625,
              27.7189671875
            ],
            [
              85.40062109375,
              27.7189671875
            ],
            [
              85.40062109375,
              27.71902578125
            ],
            [
              85.400591796875,
              27.71902578125
            ],
            [
              85.400591796875,
              27.719055078125
            ],
            [
              85.4005625,
              27.719055078125
            ],
            [
              85.4005625,
              27.719084375
            ],
            [
              85.40053320312501,
              27.719084375
            ],
            [
              85.40053320312501,
              27.719113671875
            ],
            [
              85.40038671875,
              27.719113671875
            ],
            [
              85.40038671875,
              27.719084375
            ],
            [
              85.400357421875,
              27.719084375
            ],
            [
              85.400357421875,
              27.719055078125
            ],
            [
              85.400298828125,
              27.719055078125
            ],
            [
              85.400298828125,
              27.71902578125
            ],
            [
              85.400240234375,
              27.71902578125
            ],
            [
              85.400240234375,
              27.719055078125
            ],
            [
              85.40018164062501,
              27.719055078125
            ],
            [
              85.40018164062501,
              27.719084375
            ],
            [
              85.40015234375001,
              27.719084375
            ],
            [
              85.40015234375001,
              27.719113671875
            ],
            [
              85.40012304687501,
              27.719113671875
            ],
            [
              85.40012304687501,
              27.719406640625
            ],
            [
              85.40006445312501,
              27.719406640625
            ],
            [
              85.40006445312501,
              27.7194359375
            ],
            [
              85.40003515625,
              27.7194359375
            ],
            [
              85.40003515625,
              27.719465234375
            ],
            [
              85.39991796875,
              27.719465234375
            ],
            [
              85.39991796875,
              27.7194359375
            ],
            [
              85.399888671875,
              27.7194359375
            ],
            [
              85.399888671875,
              27.719406640625
            ],
            [
              85.399859375,
              27.719406640625
            ],
            [
              85.399859375,
              27.71937734375
            ],
            [
              85.399830078125,
              27.71937734375
            ],
            [
              85.399830078125,
              27.719348046874998
            ],
            [
              85.39980078125001,
              27.719348046874998
            ],
            [
              85.39980078125001,
              27.71931875
            ],
            [
              85.39977148437501,
              27.71931875
            ],
            [
              85.39977148437501,
              27.719348046874998
            ],
            [
              85.39974218750001,
              27.719348046874998
            ],
            [
              85.39974218750001,
              27.71937734375
            ],
            [
              85.39971289062501,
              27.71937734375
            ],
            [
              85.39971289062501,
              27.719406640625
            ],
            [
              85.399654296875,
              27.719406640625
            ],
            [
              85.399654296875,
              27.7194359375
            ],
            [
              85.399625,
              27.7194359375
            ],
            [
              85.399625,
              27.719465234375
            ],
            [
              85.399595703125,
              27.719465234375
            ],
            [
              85.399595703125,
              27.719553125
            ],
            [
              85.399537109375,
              27.719553125
            ]
          ]
        ]
      },
      "properties": {
        "building_id": 85,
        "damage_tier": "no-damage",
        "confidence": 0.588
      }
    },
    {
      "type": "Feature",
      "geometry": {
        "type": "Polygon",
        "coordinates": [
          [
            [
              85.39476171875,
              27.71867421875
            ],
            [
              85.39476171875,
              27.718615624999998
            ],
            [
              85.394732421875,
              27.718615624999998
            ],
            [
              85.394732421875,
              27.718469140625
            ],
            [
              85.39476171875,
              27.718469140625
            ],
            [
              85.39476171875,
              27.71843984375
            ],
            [
              85.39487890625,
              27.71843984375
            ],
            [
              85.39487890625,
              27.7184984375
            ],
            [
              85.394908203125,
              27.7184984375
            ],
            [
              85.394908203125,
              27.718586328125
            ],
            [
              85.39487890625,
              27.718586328125
            ],
            [
              85.39487890625,
              27.718644921875
            ],
            [
              85.394849609375,
              27.718644921875
            ],
            [
              85.394849609375,
              27.71867421875
            ],
            [
              85.39476171875,
              27.71867421875
            ]
          ]
        ]
      },
      "properties": {
        "building_id": 86,
        "damage_tier": "destroyed",
        "confidence": 0.728
      }
    },
    {
      "type": "Feature",
      "geometry": {
        "type": "Polygon",
        "coordinates": [
          [
            [
              85.39713476562501,
              27.71562734375
            ],
            [
              85.39713476562501,
              27.715598046874998
            ],
            [
              85.39710546875,
              27.715598046874998
            ],
            [
              85.39710546875,
              27.71556875
            ],
            [
              85.397076171875,
              27.71556875
            ],
            [
              85.397076171875,
              27.715422265625
            ],
            [
              85.39710546875,
              27.715422265625
            ],
            [
              85.39710546875,
              27.71539296875
            ],
            [
              85.39725195312501,
              27.71539296875
            ],
            [
              85.39725195312501,
              27.7154515625
            ],
            [
              85.39728125,
              27.7154515625
            ],
            [
              85.39728125,
              27.715539453125
            ],
            [
              85.39725195312501,
              27.715539453125
            ],
            [
              85.39725195312501,
              27.715598046874998
            ],
            [
              85.39722265625001,
              27.715598046874998
            ],
            [
              85.39722265625001,
              27.71562734375
            ],
            [
              85.39713476562501,
              27.71562734375
            ]
          ]
        ]
      },
      "properties": {
        "building_id": 100,
        "damage_tier": "destroyed",
        "confidence": 0.649
      }
    },
    {
      "type": "Feature",
      "geometry": {
        "type": "Polygon",
        "coordinates": [
          [
            [
              85.40152929687501,
              27.710148828125
            ],
            [
              85.40152929687501,
              27.710090234375
            ],
            [
              85.40155859375001,
              27.710090234375
            ],
            [
              85.40155859375001,
              27.7100609375
            ],
            [
              85.40167578125,
              27.7100609375
            ],
            [
              85.40167578125,
              27.710090234375
            ],
            [
              85.401705078125,
              27.710090234375
            ],
            [
              85.401705078125,
              27.710148828125
            ],
            [
              85.40152929687501,
              27.710148828125
            ]
          ]
        ]
      },
      "properties": {
        "building_id": 128,
        "damage_tier": "no-damage",
        "confidence": 0.314
      }
    },
    {
      "type": "Feature",
      "geometry": {
        "type": "Polygon",
        "coordinates": [
          [
            [
              85.39613867187501,
              27.708039453125
            ],
            [
              85.39613867187501,
              27.708010156249998
            ],
            [
              85.3962265625,
              27.708010156249998
            ],
            [
              85.3962265625,
              27.708039453125
            ],
            [
              85.39613867187501,
              27.708039453125
            ]
          ]
        ]
      },
      "properties": {
        "building_id": 132,
        "damage_tier": "no-damage",
        "confidence": 0.572
      }
    }
  ]
}