{
  "type": "FeatureCollection",
  "features": [
    {
      "type": "Feature",
      "geometry": {
        "type": "Polygon",
        "coordinates": [
          [
            [
              88.15132499999999,
              27.912192187499997
            ],
            [
              88.15132499999999,
              27.912153125
            ],
            [
              88.151246875,
              27.912153125
            ],
            [
              88.151246875,
              27.9121140625
            ],
            [
              88.15120781249999,
              27.9121140625
            ],
            [
              88.15120781249999,
              27.912074999999998
            ],
            [
              88.15116875,
              27.912074999999998
            ],
            [
              88.15116875,
              27.912035937499997
            ],
            [
              88.15112968749999,
              27.912035937499997
            ],
            [
              88.15112968749999,
              27.911996875
            ],
            [
              88.151090625,
              27.911996875
            ],
            [
              88.151090625,
              27.9119578125
            ],
            [
              88.15105156249999,
              27.9119578125
            ],
            [
              88.15105156249999,
              27.911879687499997
            ],
            [
              88.1510125,
              27.911879687499997
            ],
            [
              88.1510125,
              27.91129375
            ],
            [
              88.15105156249999,
              27.91129375
            ],
            [
              88.15105156249999,
              27.9111765625
            ],
            [
              88.151090625,
              27.9111765625
            ],
            [
              88.151090625,
              27.9111375
            ],
            [
              88.15112968749999,
              27.9111375
            ],
            [
              88.15112968749999,
              27.911098437499998
            ],
            [
              88.15116875,
              27.911098437499998
            ],
            [
              88.15116875,
              27.9108640625
            ],
            [
              88.151246875,
              27.9108640625
            ],
            [
              88.151246875,
              27.910825
            ],
            [
              88.15148124999999,
              27.910825
            ],
            [
              88.15148124999999,
              27.9107859375
            ],
            [
              88.151715625,
              27.9107859375
            ],
            [
              88.151715625,
              27.910746874999997
            ],
            [
              88.15183281249999,
              27.910746874999997
            ],
            [
              88.15183281249999,
              27.9107078125
            ],
            [
              88.151871875,
              27.9107078125
            ],
            [
              88.151871875,
              27.91066875
            ],
            [
              88.1520671875,
              27.91066875
            ],
            [
              88.1520671875,
              27.9107078125
            ],
            [
              88.1521453125,
              27.9107078125
            ],
            [
              88.1521453125,
              27.910942187499998
            ],
            [
              88.15218437499999,
              27.910942187499998
            ],
            [
              88.15218437499999,
              27.91098125
            ],
            [
              88.15226249999999,
              27.91098125
            ],
            [
              88.15226249999999,
              27.910942187499998
            ],
            [
              88.15230156249999,
              27.910942187499998
            ],
            [
              88.15230156249999,
              27.9108640625
            ],
            [
              88.15237968749999,
              27.9108640625
            ],
            [
              88.15237968749999,
              27.910903124999997
            ],
            [
              88.15241875,
              27.910903124999997
            ],
            [
              88.15241875,
              27.910942187499998
            ],
            [
              88.15245781249999,
              27.910942187499998
            ],
            [
              88.15245781249999,
              27.9110203125
            ],
            [
              88.152496875,
              27.9110203125
            ],
            [
              88.152496875,
              27.911059374999997
            ],
            [
              88.15253593749999,
              27.911059374999997
            ],
            [
              88.15253593749999,
              27.9111375
            ],
            [
              88.15257499999998,
              27.9111375
            ],
            [
              88.15257499999998,
              27.9113328125
            ],
            [
              88.15253593749999,
              27.9113328125
            ],
            [
              88.15253593749999,
              27.91145
            ],
            [
              88.152496875,
              27.91145
            ],
            [
              88.152496875,
              27.91160625
            ],
            [
              88.15245781249999,
              27.91160625
            ],
            [
              88.15245781249999,
              27.911684374999997
            ],
            [
              88.15241875,
              27.911684374999997
            ],
            [
              88.15241875,
              27.911723437499997
            ],
            [
              88.1521453125,
              27.911723437499997
            ],
            [
              88.1521453125,
              27.9117625
            ],
            [
              88.1520671875,
              27.9117625
            ],
            [
              88.1520671875,
              27.9118015625
            ],
            [
              88.1519890625,
              27.9118015625
            ],
            [
              88.1519890625,
              27.911840625
            ],
            [
              88.15194999999999,
              27.911840625
            ],
            [
              88.15194999999999,
              27.911879687499997
            ],
            [
              88.15191093749999,
              27.911879687499997
            ],
            [
              88.15191093749999,
              27.911918749999998
            ],
            [
              88.15183281249999,
              27.911918749999998
            ],
            [
              88.15183281249999,
              27.9119578125
            ],
            [
              88.15179375,
              27.9119578125
            ],
            [
              88.15179375,
              27.911996875
            ],
            [
              88.151715625,
              27.911996875
            ],
            [
              88.151715625,
              27.912035937499997
            ],
            [
              88.15167656249999,
              27.912035937499997
            ],
            [
              88.15167656249999,
              27.9121140625
            ],
            [
              88.15163749999999,
              27.9121140625
            ],
            [
              88.15163749999999,
              27.912153125
            ],
            [
              88.15159843749998,
              27.912153125
            ],
            [
              88.15159843749998,
              27.912192187499997
            ],
            [
              88.15132499999999,
              27.912192187499997
            ]
          ]
        ]
      },
      "properties": {
        "building_id": 0,
        "damage_tier": "major-damage",
        "confidence": 0.468
      }
    },
    {
      "type": "Feature",
      "geometry": {
        "type": "Polygon",
        "coordinates": [
          [
            [
              88.154996875,
              27.891723437499998
            ],
            [
              88.154996875,
              27.891684374999997
            ],
            [
              88.15495781249999,
              27.891684374999997
            ],
            [
              88.15495781249999,
              27.891528124999997
            ],
            [
              88.154996875,
              27.891528124999997
            ],
            [
              88.154996875,
              27.891410937499998
            ],
            [
              88.155075,
              27.891410937499998
            ],
            [
              88.155075,
              27.89145
            ],
            [
              88.15515312499998,
              27.89145
            ],
            [
              88.15515312499998,
              27.891723437499998
            ],
            [
              88.154996875,
              27.891723437499998
            ]
          ]
        ]
      },
      "properties": {
        "building_id": 1,
        "damage_tier": "destroyed",
        "confidence": 0.772
      }
    },
    {
      "type": "Feature",
      "geometry": {
        "type": "Polygon",
        "coordinates": [
          [
            [
              88.154996875,
              27.89129375
            ],
            [
              88.154996875,
              27.8912546875
            ],
            [
              88.15495781249999,
              27.8912546875
            ],
            [
              88.15495781249999,
              27.8910984375
            ],
            [
              88.154996875,
              27.8910984375
            ],
            [
              88.154996875,
              27.8911765625
            ],
            [
              88.15503593749999,
              27.8911765625
            ],
            [
              88.15503593749999,
              27.89129375
            ],
            [
              88.154996875,
              27.89129375
            ]
          ]
        ]
      },
      "properties": {
        "building_id": 2,
        "damage_tier": "destroyed",
        "confidence": 0.8
      }
    },
    {
      "type": "Feature",
      "geometry": {
        "type": "Polygon",
        "coordinates": [
          [
            [
              88.15183281249999,
              27.890746874999998
            ],
            [
              88.15183281249999,
              27.8907078125
            ],
            [
              88.15175468749999,
              27.8907078125
            ],
            [
              88.15175468749999,
              27.89066875
            ],
            [
              88.151715625,
              27.89066875
            ],
            [
              88.151715625,
              27.8906296875
            ],
            [
              88.15163749999999,
              27.8906296875
            ],
            [
              88.15163749999999,
              27.890590624999998
            ],
            [
              88.15159843749998,
              27.890590624999998
            ],
            [
              88.15159843749998,
              27.890278125
            ],
            [
              88.15167656249999,
              27.890278125
            ],
            [
              88.15167656249999,
              27.890239062499997
            ],
            [
              88.151715625,
              27.890239062499997
            ],
            [
              88.151715625,
              27.890278125
            ],
            [
              88.15175468749999,
              27.890278125
            ],
            [
              88.15175468749999,
              27.89035625
            ],
            [
              88.15183281249999,
              27.89035625
            ],
            [
              88.15183281249999,
              27.890395312499997
            ],
            [
              88.15191093749999,
              27.890395312499997
            ],
            [
              88.15191093749999,
              27.890434374999998
            ],
            [
              88.15194999999999,
              27.890434374999998
            ],
            [
              88.15194999999999,
              27.8904734375
            ],
            [
              88.1519890625,
              27.8904734375
            ],
            [
              88.1519890625,
              27.8905125
            ],
            [
              88.15202812499999,
              27.8905125
            ],
            [
              88.15202812499999,
              27.890551562499997
            ],
            [
              88.15218437499999,
              27.890551562499997
            ],
            [
              88.15218437499999,
              27.890590624999998
            ],
            [
              88.1522234375,
              27.890590624999998
            ],
            [
              88.1522234375,
              27.8906296875
            ],
            [
              88.15218437499999,
              27.8906296875
            ],
            [
              88.15218437499999,
              27.89066875
            ],
            [
              88.1521453125,
              27.89066875
            ],
            [
              88.1521453125,
              27.8907078125
            ],
            [
              88.1520671875,
              27.8907078125
            ],
            [
              88.1520671875,
              27.890746874999998
            ],
            [
              88.15183281249999,
              27.890746874999998
            ]
          ]
        ]
      },
      "properties": {
        "building_id": 3,
        "damage_tier": "destroyed",
        "confidence": 0.896
      }
    },
    {
      "type": "Feature",
      "geometry": {
        "type": "Polygon",
        "coordinates": [
          [
            [
              88.15636406249999,
              27.892348437499997
            ],
            [
              88.15636406249999,
              27.892309375
            ],
            [
              88.15620781249999,
              27.892309375
            ],
            [
              88.15620781249999,
              27.8922703125
            ],
            [
              88.15612968749998,
              27.8922703125
            ],
            [
              88.15612968749998,
              27.89223125
            ],
            [
              88.15609062499999,
              27.89223125
            ],
            [
              88.15609062499999,
              27.8922703125
            ],
            [
              88.1557,
              27.8922703125
            ],
            [
              88.1557,
              27.892309375
            ],
            [
              88.15558281249999,
              27.892309375
            ],
            [
              88.15558281249999,
              27.8922703125
            ],
            [
              88.15554374999999,
              27.8922703125
            ],
            [
              88.15554374999999,
              27.89223125
            ],
            [
              88.15550468749998,
              27.89223125
            ],
            [
              88.15550468749998,
              27.892075
            ],
            [
              88.15554374999999,
              27.892075
            ],
            [
              88.15554374999999,
              27.8919578125
            ],
            [
              88.15558281249999,
              27.8919578125
            ],
            [
              88.15558281249999,
              27.8918015625
            ],
            [
              88.155621875,
              27.8918015625
            ],
            [
              88.155621875,
              27.8917625
            ],
            [
              88.15566093749999,
              27.8917625
            ],
            [
              88.15566093749999,
              27.891684374999997
            ],
            [
              88.1557,
              27.891684374999997
            ],
            [
              88.1557,
              27.89160625
            ],
            [
              88.15573906249999,
              27.89160625
            ],
            [
              88.15573906249999,
              27.891528124999997
            ],
            [
              88.155778125,
              27.891528124999997
            ],
            [
              88.155778125,
              27.891410937499998
            ],
            [
              88.15581718749999,
              27.891410937499998
            ],
            [
              88.15581718749999,
              27.8913328125
            ],
            [
              88.15585624999999,
              27.8913328125
            ],
            [
              88.15585624999999,
              27.891215624999997
            ],
            [
              88.1558953125,
              27.891215624999997
            ],
            [
              88.1558953125,
              27.8911375
            ],
            [
              88.15593437499999,
              27.8911375
            ],
            [
              88.15593437499999,
              27.8910203125
            ],
            [
              88.1559734375,
              27.8910203125
            ],
            [
              88.1559734375,
              27.890825
            ],
            [
              88.15601249999999,
              27.890825
            ],
            [
              88.15601249999999,
              27.8907078125
            ],
            [
              88.1560515625,
              27.8907078125
            ],
            [
              88.1560515625,
              27.89066875
            ],
            [
              88.15609062499999,
              27.89066875
            ],
            [
              88.15609062499999,
              27.8906296875
            ],
            [
              88.15612968749998,
              27.8906296875
            ],
            [
              88.15612968749998,
              27.8905125
            ],
            [
              88.15616874999999,
              27.8905125
            ],
            [
              88.15616874999999,
              27.890278125
            ],
            [
              88.15612968749998,
              27.890278125
            ],
            [
              88.15612968749998,
              27.8901609375
            ],
            [
              88.15609062499999,
              27.8901609375
            ],
            [
              88.15609062499999,
              27.890082812499998
            ],
            [
              88.15612968749998,
              27.890082812499998
            ],
            [
              88.15612968749998,
              27.8900046875
            ],
            [
              88.15616874999999,
              27.8900046875
            ],
            [
              88.15616874999999,
              27.889965625
            ],
            [
              88.156246875,
              27.889965625
            ],
            [
              88.156246875,
              27.889926562499998
            ],
            [
              88.15644218749999,
              27.889926562499998
            ],
            [
              88.15644218749999,
              27.889965625
            ],
            [
              88.15655937499999,
              27.889965625
            ],
            [
              88.15655937499999,
              27.8900046875
            ],
            [
              88.15663749999999,
              27.8900046875
            ],
            [
              88.15663749999999,
              27.89004375
            ],
            [
              88.1566765625,
              27.89004375
            ],
            [
              88.1566765625,
              27.890082812499998
            ],
            [
              88.15675468749998,
              27.890082812499998
            ],
            [
              88.15675468749998,
              27.890121875
            ],
            [
              88.15683281249999,
              27.890121875
            ],
            [
              88.15683281249999,
              27.8901609375
            ],
            [
              88.15691093749999,
              27.8901609375
            ],
            [
              88.15691093749999,
              27.8902
            ],
            [
              88.15695,
              27.8902
            ],
            [
              88.15695,
              27.890239062499997
            ],
            [
              88.15698906249999,
              27.890239062499997
            ],
            [
              88.15698906249999,
              27.890278125
            ],
            [
              88.157028125,
              27.890278125
            ],
            [
              88.157028125,
              27.8905125
            ],
            [
              88.15706718749999,
              27.8905125
            ],
            [
              88.15706718749999,
              27.8906296875
            ],
            [
              88.15710624999998,
              27.8906296875
            ],
            [
              88.15710624999998,
              27.8907078125
            ],
            [
              88.15714531249999,
              27.8907078125
            ],
            [
              88.15714531249999,
              27.890746874999998
            ],
            [
              88.15718437499999,
              27.890746874999998
            ],
            [
              88.15718437499999,
              27.8907078125
            ],
            [
              88.1572234375,
              27.8907078125
            ],
            [
              88.1572234375,
              27.890551562499997
            ],
            [
              88.15726249999999,
              27.890551562499997
            ],
            [
              88.15726249999999,
              27.8905125
            ],
            [
              88.1573015625,
              27.8905125
            ],
            [
              88.1573015625,
              27.890434374999998
            ],
            [
              88.1573796875,
              27.890434374999998
            ],
            [
              88.1573796875,
              27.8904734375
            ],
            [
              88.15741874999999,
              27.8904734375
            ],
            [
              88.15741874999999,
              27.8905125
            ],
            [
              88.15745781249998,
              27.8905125
            ],
            [
              88.15745781249998,
              27.890551562499997
            ],
            [
              88.15753593749999,
              27.890551562499997
            ],
            [
              88.15753593749999,
              27.890590624999998
            ],
            [
              88.157575,
              27.890590624999998
            ],
            [
              88.157575,
              27.89066875
            ],
            [
              88.15753593749999,
              27.89066875
            ],
            [
              88.15753593749999,
              27.890746874999998
            ],
            [
              88.157575,
              27.890746874999998
            ],
            [
              88.157575,
              27.8907859375
            ],
            [
              88.15761406249999,
              27.8907859375
            ],
            [
              88.15761406249999,
              27.890825
            ],
            [
              88.157653125,
              27.890825
            ],
            [
              88.157653125,
              27.8908640625
            ],
            [
              88.15769218749999,
              27.8908640625
            ],
            [
              88.15769218749999,
              27.8909421875
            ],
            [
              88.15773124999998,
              27.8909421875
            ],
            [
              88.15773124999998,
              27.89098125
            ],
            [
              88.15777031249999,
              27.89098125
            ],
            [
              88.15777031249999,
              27.8910203125
            ],
            [
              88.15780937499999,
              27.8910203125
            ],
            [
              88.15780937499999,
              27.8910984375
            ],
            [
              88.15777031249999,
              27.8910984375
            ],
            [
              88.15777031249999,
              27.8911375
            ],
            [
              88.15773124999998,
              27.8911375
            ],
            [
              88.15773124999998,
              27.8911765625
            ],
            [
              88.15769218749999,
              27.8911765625
            ],
            [
              88.15769218749999,
              27.891215624999997
            ],
            [
              88.157653125,
              27.891215624999997
            ],
            [
              88.157653125,
              27.8912546875
            ],
            [
              88.157575,
              27.8912546875
            ],
            [
              88.157575,
              27.89129375
            ],
            [
              88.15749687499999,
              27.89129375
            ],
            [
              88.15749687499999,
              27.8913328125
            ],
            [
              88.1573796875,
              27.8913328125
            ],
            [
              88.1573796875,
              27.891371874999997
            ],
            [
              88.1573015625,
              27.891371874999997
            ],
            [
              88.1573015625,
              27.8913328125
            ],
            [
              88.1572234375,
              27.8913328125
            ],
            [
              88.1572234375,
              27.89129375
            ],
            [
              88.15710624999998,
              27.89129375
            ],
            [
              88.15710624999998,
              27.8913328125
            ],
            [
              88.15706718749999,
              27.8913328125
            ],
            [
              88.15706718749999,
              27.891567187499998
            ],
            [
              88.157028125,
              27.891567187499998
            ],
            [
              88.157028125,
              27.891684374999997
            ],
            [
              88.15698906249999,
              27.891684374999997
            ],
            [
              88.15698906249999,
              27.891723437499998
            ],
            [
              88.15691093749999,
              27.891723437499998
            ],
            [
              88.15691093749999,
              27.8917625
            ],
            [
              88.15679374999999,
              27.8917625
            ],
            [
              88.15679374999999,
              27.8918015625
            ],
            [
              88.15671562499999,
              27.8918015625
            ],
            [
              88.15671562499999,
              27.891840625
            ],
            [
              88.1566765625,
              27.891840625
            ],
            [
              88.1566765625,
              27.89191875
            ],
            [
              88.15663749999999,
              27.89191875
            ],
            [
              88.15663749999999,
              27.8919578125
            ],
            [
              88.1565984375,
              27.8919578125
            ],
            [
              88.1565984375,
              27.892035937499998
            ],
            [
              88.15663749999999,
              27.892035937499998
            ],
            [
              88.15663749999999,
              27.892192187499997
            ],
            [
              88.1565984375,
              27.892192187499997
            ],
            [
              88.1565984375,
              27.89223125
            ],
            [
              88.15655937499999,
              27.89223125
            ],
            [
              88.15655937499999,
              27.8922703125
            ],
            [
              88.15652031249999,
              27.8922703125
            ],
            [
              88.15652031249999,
              27.892309375
            ],
            [
              88.156403125,
              27.892309375
            ],
            [
              88.156403125,
              27.892348437499997
            ],
            [
              88.15636406249999,
              27.892348437499997
            ]
          ]
        ]
      },
      "properties": {
        "building_id": 4,
        "damage_tier": "destroyed",
        "confidence": 0.77
      }
    },
    {
      "type": "Feature",
      "geometry": {
        "type": "Polygon",
        "coordinates": [
          [
            [
              88.15413749999999,
              27.891567187499998
            ],
            [
              88.15413749999999,
              27.891528124999997
            ],
            [
              88.1539421875,
              27.891528124999997
            ],
            [
              88.1539421875,
              27.8914890625
            ],
            [
              88.15386406249999,
              27.8914890625
            ],
            [
              88.15386406249999,
              27.891528124999997
            ],
            [
              88.15355156249998,
              27.891528124999997
            ],
            [
              88.15355156249998,
              27.8914890625
            ],
            [
              88.15343437499999,
              27.8914890625
            ],
            [
              88.15343437499999,
              27.89145
            ],
            [
              88.15327812499999,
              27.89145
            ],
            [
              88.15327812499999,
              27.891410937499998
            ],
            [
              88.1532,
              27.891410937499998
            ],
            [
              88.1532,
              27.891371874999997
            ],
            [
              88.15316093749999,
              27.891371874999997
            ],
            [
              88.15316093749999,
              27.8913328125
            ],
            [
              88.15308281249999,
              27.8913328125
            ],
            [
              88.15308281249999,
              27.89129375
            ],
            [
              88.15304375,
              27.89129375
            ],
            [
              88.15304375,
              27.8912546875
            ],
            [
              88.15300468749999,
              27.8912546875
            ],
            [
              88.15300468749999,
              27.891215624999997
            ],
            [
              88.152965625,
              27.891215624999997
            ],
            [
              88.152965625,
              27.8909421875
            ],
            [
              88.15292656249999,
              27.8909421875
            ],
            [
              88.15292656249999,
              27.890903124999998
            ],
            [
              88.152965625,
              27.890903124999998
            ],
            [
              88.152965625,
              27.89066875
            ],
            [
              88.15300468749999,
              27.89066875
            ],
            [
              88.15300468749999,
              27.890590624999998
            ],
            [
              88.152965625,
              27.890590624999998
            ],
            [
              88.152965625,
              27.8905125
            ],
            [
              88.15288749999999,
              27.8905125
            ],
            [
              88.15288749999999,
              27.8904734375
            ],
            [
              88.1528484375,
              27.8904734375
            ],
            [
              88.1528484375,
              27.890395312499997
            ],
            [
              88.15280937499999,
              27.890395312499997
            ],
            [
              88.15280937499999,
              27.890121875
            ],
            [
              88.1528484375,
              27.890121875
            ],
            [
              88.1528484375,
              27.8900046875
            ],
            [
              88.15288749999999,
              27.8900046875
            ],
            [
              88.15288749999999,
              27.8898875
            ],
            [
              88.15292656249999,
              27.8898875
            ],
            [
              88.15292656249999,
              27.889809375
            ],
            [
              88.152965625,
              27.889809375
            ],
            [
              88.152965625,
              27.889770312499998
            ],
            [
              88.15304375,
              27.889770312499998
            ],
            [
              88.15304375,
              27.88973125
            ],
            [
              88.15308281249999,
              27.88973125
            ],
            [
              88.15308281249999,
              27.8896921875
            ],
            [
              88.153121875,
              27.8896921875
            ],
            [
              88.153121875,
              27.889653125
            ],
            [
              88.1534734375,
              27.889653125
            ],
            [
              88.1534734375,
              27.88973125
            ],
            [
              88.15355156249998,
              27.88973125
            ],
            [
              88.15355156249998,
              27.889770312499998
            ],
            [
              88.15359062499999,
              27.889770312499998
            ],
            [
              88.15359062499999,
              27.889809375
            ],
            [
              88.15366875,
              27.889809375
            ],
            [
              88.15366875,
              27.8898484375
            ],
            [
              88.15370781249999,
              27.8898484375
            ],
            [
              88.15370781249999,
              27.8898875
            ],
            [
              88.15378593749999,
              27.8898875
            ],
            [
              88.15378593749999,
              27.889926562499998
            ],
            [
              88.153825,
              27.889926562499998
            ],
            [
              88.153825,
              27.8900046875
            ],
            [
              88.15386406249999,
              27.8900046875
            ],
            [
              88.15386406249999,
              27.89004375
            ],
            [
              88.15390312499999,
              27.89004375
            ],
            [
              88.15390312499999,
              27.890082812499998
            ],
            [
              88.1539421875,
              27.890082812499998
            ],
            [
              88.1539421875,
              27.8901609375
            ],
            [
              88.15398124999999,
              27.8901609375
            ],
            [
              88.15398124999999,
              27.8902
            ],
            [
              88.1540203125,
              27.8902
            ],
            [
              88.1540203125,
              27.890239062499997
            ],
            [
              88.15405937499999,
              27.890239062499997
            ],
            [
              88.15405937499999,
              27.890278125
            ],
            [
              88.1540984375,
              27.890278125
            ],
            [
              88.1540984375,
              27.8903171875
            ],
            [
              88.15417656249998,
              27.8903171875
            ],
            [
              88.15417656249998,
              27.89035625
            ],
            [
              88.15421562499999,
              27.89035625
            ],
            [
              88.15421562499999,
              27.890395312499997
            ],
            [
              88.15425468749999,
              27.890395312499997
            ],
            [
              88.15425468749999,
              27.890434374999998
            ],
            [
              88.15429375,
              27.890434374999998
            ],
            [
              88.15429375,
              27.890590624999998
            ],
            [
              88.15433281249999,
              27.890590624999998
            ],
            [
              88.15433281249999,
              27.89066875
            ],
            [
              88.154371875,
              27.89066875
            ],
            [
              88.154371875,
              27.890746874999998
            ],
            [
              88.15441093749999,
              27.890746874999998
            ],
            [
              88.15441093749999,
              27.8908640625
            ],
            [
              88.15445,
              27.8908640625
            ],
            [
              88.15445,
              27.8911765625
            ],
            [
              88.15441093749999,
              27.8911765625
            ],
            [
              88.15441093749999,
              27.89129375
            ],
            [
              88.154371875,
              27.89129375
            ],
            [
              88.154371875,
              27.8913328125
            ],
            [
              88.15433281249999,
              27.8913328125
            ],
            [
              88.15433281249999,
              27.891528124999997
            ],
            [
              88.15429375,
              27.891528124999997
            ],
            [
              88.15429375,
              27.891567187499998
            ],
            [
              88.15413749999999,
              27.891567187499998
            ]
          ]
        ]
      },
      "properties": {
        "building_id": 5,
        "damage_tier": "destroyed",
        "confidence": 0.628
      }
    },
    {
      "type": "Feature",
      "geometry": {
        "type": "Polygon",
        "coordinates": [
          [
            [
              88.138278125,
              27.8893796875
            ],
            [
              88.138278125,
              27.8893015625
            ],
            [
              88.1383171875,
              27.8893015625
            ],
            [
              88.1383171875,
              27.8893796875
            ],
            [
              88.138278125,
              27.8893796875
            ]
          ]
        ]
      },
      "properties": {
        "building_id": 6,
        "damage_tier": "destroyed",
        "confidence": 0.528
      }
    },
    {
      "type": "Feature",
      "geometry": {
        "type": "Polygon",
        "coordinates": [
          [
            [
              88.13558281249999,
              27.889574999999997
            ],
            [
              88.13558281249999,
              27.8895359375
            ],
            [
              88.135465625,
              27.8895359375
            ],
            [
              88.135465625,
              27.8893015625
            ],
            [
              88.13554375,
              27.8893015625
            ],
            [
              88.13554375,
              27.889262499999997
            ],
            [
              88.135621875,
              27.889262499999997
            ],
            [
              88.135621875,
              27.8892234375
            ],
            [
              88.1357,
              27.8892234375
            ],
            [
              88.1357,
              27.889184375
            ],
            [
              88.13593437499999,
              27.889184375
            ],
            [
              88.13593437499999,
              27.8892234375
            ],
            [
              88.13601249999999,
              27.8892234375
            ],
            [
              88.13601249999999,
              27.889262499999997
            ],
            [
              88.13612968749999,
              27.889262499999997
            ],
            [
              88.13612968749999,
              27.8893015625
            ],
            [
              88.13620781249999,
              27.8893015625
            ],
            [
              88.13620781249999,
              27.889340625
            ],
            [
              88.13616875,
              27.889340625
            ],
            [
              88.13616875,
              27.8893796875
            ],
            [
              88.1360515625,
              27.8893796875
            ],
            [
              88.1360515625,
              27.889418749999997
            ],
            [
              88.1359734375,
              27.889418749999997
            ],
            [
              88.1359734375,
              27.889457812499998
            ],
            [
              88.1358953125,
              27.889457812499998
            ],
            [
              88.1358953125,
              27.889496875
            ],
            [
              88.13585624999999,
              27.889496875
            ],
            [
              88.13585624999999,
              27.8895359375
            ],
            [
              88.1358171875,
              27.8895359375
            ],
            [
              88.1358171875,
              27.889574999999997
            ],
            [
              88.13558281249999,
              27.889574999999997
            ]
          ]
        ]
      },
      "properties": {
        "building_id": 7,
        "damage_tier": "destroyed",
        "confidence": 0.436
      }
    },
    {
      "type": "Feature",
      "geometry": {
        "type": "Polygon",
        "coordinates": [
          [
            [
              88.1510125,
              27.8892234375
            ],
            [
              88.1510125,
              27.889184375
            ],
            [
              88.15093437499999,
              27.889184375
            ],
            [
              88.15093437499999,
              27.889028125
            ],
            [
              88.1508953125,
              27.889028125
            ],
            [
              88.1508953125,
              27.8889890625
            ],
            [
              88.15093437499999,
              27.8889890625
            ],
            [
              88.15093437499999,
              27.8888328125
            ],
            [
              88.1510125,
              27.8888328125
            ],
            [
              88.1510125,
              27.888793749999998
            ],
            [
              88.15132499999999,
              27.888793749999998
            ],
            [
              88.15132499999999,
              27.8887546875
            ],
            [
              88.1514421875,
              27.8887546875
            ],
            [
              88.1514421875,
              27.888715625
            ],
            [
              88.15148124999999,
              27.888715625
            ],
            [
              88.15148124999999,
              27.8886765625
            ],
            [
              88.15163749999999,
              27.8886765625
            ],
            [
              88.15163749999999,
              27.888871875
            ],
            [
              88.15159843749998,
              27.888871875
            ],
            [
              88.15159843749998,
              27.8889109375
            ],
            [
              88.1515203125,
              27.8889109375
            ],
            [
              88.1515203125,
              27.888949999999998
            ],
            [
              88.1514421875,
              27.888949999999998
            ],
            [
              88.1514421875,
              27.8889890625
            ],
            [
              88.15140312499999,
              27.8889890625
            ],
            [
              88.15140312499999,
              27.889028125
            ],
            [
              88.1513640625,
              27.889028125
            ],
            [
              88.1513640625,
              27.8890671875
            ],
            [
              88.15132499999999,
              27.8890671875
            ],
            [
              88.15132499999999,
              27.889106249999998
            ],
            [
              88.15128593749999,
              27.889106249999998
            ],
            [
              88.15128593749999,
              27.8891453125
            ],
            [
              88.151246875,
              27.8891453125
            ],
            [
              88.151246875,
              27.889184375
            ],
            [
              88.15116875,
              27.889184375
            ],
            [
              88.15116875,
              27.8892234375
            ],
            [
              88.1510125,
              27.8892234375
            ]
          ]
        ]
      },
      "properties": {
        "building_id": 8,
        "damage_tier": "destroyed",
        "confidence": 0.921
      }
    },
    {
      "type": "Feature",
      "geometry": {
        "type": "Polygon",
        "coordinates": [
          [
            [
              88.1360515625,
              27.8880125
            ],
            [
              88.1360515625,
              27.887973437499998
            ],
            [
              88.1358953125,
              27.887973437499998
            ],
            [
              88.1358953125,
              27.887934375
            ],
            [
              88.13601249999999,
              27.887934375
            ],
            [
              88.13601249999999,
              27.8878953125
            ],
            [
              88.136246875,
              27.8878953125
            ],
            [
              88.136246875,
              27.887973437499998
            ],
            [
              88.136090625,
              27.887973437499998
            ],
            [
              88.136090625,
              27.8880125
            ],
            [
              88.1360515625,
              27.8880125
            ]
          ]
        ]
      },
      "properties": {
        "building_id": 9,
        "damage_tier": "no-damage",
        "confidence": 0.486
      }
    },
    {
      "type": "Feature",
      "geometry": {
        "type": "Polygon",
        "coordinates": [
          [
            [
              88.16292656249999,
              27.887934375
            ],
            [
              88.16292656249999,
              27.8878953125
            ],
            [
              88.16296562499998,
              27.8878953125
            ],
            [
              88.16296562499998,
              27.887934375
            ],
            [
              88.16292656249999,
              27.887934375
            ]
          ]
        ]
      },
      "properties": {
        "building_id": 10,
        "damage_tier": "no-damage",
        "confidence": 0.741
      }
    },
    {
      "type": "Feature",
      "geometry": {
        "type": "Polygon",
        "coordinates": [
          [
            [
              88.1533953125,
              27.888285937499997
            ],
            [
              88.1533953125,
              27.888246875
            ],
            [
              88.15323906249999,
              27.888246875
            ],
            [
              88.15323906249999,
              27.8882078125
            ],
            [
              88.15327812499999,
              27.8882078125
            ],
            [
              88.15327812499999,
              27.88816875
            ],
            [
              88.15335624999999,
              27.88816875
            ],
            [
              88.15335624999999,
              27.888129687499998
            ],
            [
              88.1533953125,
              27.888129687499998
            ],
            [
              88.1533953125,
              27.8880515625
            ],
            [
              88.15335624999999,
              27.8880515625
            ],
            [
              88.15335624999999,
              27.8880125
            ],
            [
              88.15327812499999,
              27.8880125
            ],
            [
              88.15327812499999,
              27.887973437499998
            ],
            [
              88.15323906249999,
              27.887973437499998
            ],
            [
              88.15323906249999,
              27.8878953125
            ],
            [
              88.1533953125,
              27.8878953125
            ],
            [
              88.1533953125,
              27.88785625
            ],
            [
              88.15351249999999,
              27.88785625
            ],
            [
              88.15351249999999,
              27.8878953125
            ],
            [
              88.15378593749999,
              27.8878953125
            ],
            [
              88.15378593749999,
              27.88785625
            ],
            [
              88.15390312499999,
              27.88785625
            ],
            [
              88.15390312499999,
              27.887817187499998
            ],
            [
              88.1539421875,
              27.887817187499998
            ],
            [
              88.1539421875,
              27.88785625
            ],
            [
              88.1540984375,
              27.88785625
            ],
            [
              88.1540984375,
              27.887934375
            ],
            [
              88.15413749999999,
              27.887934375
            ],
            [
              88.15413749999999,
              27.888246875
            ],
            [
              88.15405937499999,
              27.888246875
            ],
            [
              88.15405937499999,
              27.888285937499997
            ],
            [
              88.1540203125,
              27.888285937499997
            ],
            [
              88.1540203125,
              27.888246875
            ],
            [
              88.15390312499999,
              27.888246875
            ],
            [
              88.15390312499999,
              27.8882078125
            ],
            [
              88.15386406249999,
              27.8882078125
            ],
            [
              88.15386406249999,
              27.88816875
            ],
            [
              88.153825,
              27.88816875
            ],
            [
              88.153825,
              27.888129687499998
            ],
            [
              88.15378593749999,
              27.888129687499998
            ],
            [
              88.15378593749999,
              27.8880515625
            ],
            [
              88.153746875,
              27.8880515625
            ],
            [
              88.153746875,
              27.8880125
            ],
            [
              88.15366875,
              27.8880125
            ],
            [
              88.15366875,
              27.8880515625
            ],
            [
              88.15362968749999,
              27.8880515625
            ],
            [
              88.15362968749999,
              27.888129687499998
            ],
            [
              88.15359062499999,
              27.888129687499998
            ],
            [
              88.15359062499999,
              27.888246875
            ],
            [
              88.15343437499999,
              27.888246875
            ],
            [
              88.15343437499999,
              27.888285937499997
            ],
            [
              88.1533953125,
              27.888285937499997
            ]
          ]
        ]
      },
      "properties": {
        "building_id": 11,
        "damage_tier": "destroyed",
        "confidence": 0.567
      }
    },
    {
      "type": "Feature",
      "geometry": {
        "type": "Polygon",
        "coordinates": [
          [
            [
              88.15159843749998,
              27.888285937499997
            ],
            [
              88.15159843749998,
              27.888246875
            ],
            [
              88.1515203125,
              27.888246875
            ],
            [
              88.1515203125,
              27.8882078125
            ],
            [
              88.15155937499999,
              27.8882078125
            ],
            [
              88.15155937499999,
              27.88816875
            ],
            [
              88.15159843749998,
              27.88816875
            ],
            [
              88.15159843749998,
              27.888129687499998
            ],
            [
              88.15167656249999,
              27.888129687499998
            ],
            [
              88.15167656249999,
              27.888090625
            ],
            [
              88.15163749999999,
              27.888090625
            ],
            [
              88.15163749999999,
              27.8880515625
            ],
            [
              88.1515203125,
              27.8880515625
            ],
            [
              88.1515203125,
              27.8880125
            ],
            [
              88.15140312499999,
              27.8880125
            ],
            [
              88.15140312499999,
              27.887973437499998
            ],
            [
              88.1513640625,
              27.887973437499998
            ],
            [
              88.1513640625,
              27.8878953125
            ],
            [
              88.1514421875,
              27.8878953125
            ],
            [
              88.1514421875,
              27.88785625
            ],
            [
              88.15159843749998,
              27.88785625
            ],
            [
              88.15159843749998,
              27.887817187499998
            ],
            [
              88.15183281249999,
              27.887817187499998
            ],
            [
              88.15183281249999,
              27.887778125
            ],
            [
              88.151871875,
              27.887778125
            ],
            [
              88.151871875,
              27.887817187499998
            ],
            [
              88.15194999999999,
              27.887817187499998
            ],
            [
              88.15194999999999,
              27.88785625
            ],
            [
              88.1519890625,
              27.88785625
            ],
            [
              88.1519890625,
              27.8878953125
            ],
            [
              88.1520671875,
              27.8878953125
            ],
            [
              88.1520671875,
              27.887973437499998
            ],
            [
              88.15202812499999,
              27.887973437499998
            ],
            [
              88.15202812499999,
              27.8880125
            ],
            [
              88.1519890625,
              27.8880125
            ],
            [
              88.1519890625,
              27.8880515625
            ],
            [
              88.15194999999999,
              27.8880515625
            ],
            [
              88.15194999999999,
              27.888129687499998
            ],
            [
              88.15191093749999,
              27.888129687499998
            ],
            [
              88.15191093749999,
              27.888285937499997
            ],
            [
              88.15159843749998,
              27.888285937499997
            ]
          ]
        ]
      },
      "properties": {
        "building_id": 12,
        "damage_tier": "destroyed",
        "confidence": 0.645
      }
    }
  ]
}