{
  "type": "FeatureCollection",
  "features": [
    {
      "type": "Feature",
      "geometry": {
        "type": "Polygon",
        "coordinates": [
          [
            [
              0.04853515625,
              0.009375000000000001
            ],
            [
              0.04853515625,
              0.00927734375
            ],
            [
              0.04843750000000001,
              0.00927734375
            ],
            [
              0.04843750000000001,
              0.009082031249999997
            ],
            [
              0.04853515625,
              0.009082031249999997
            ],
            [
              0.04853515625,
              0.008886718750000001
            ],
            [
              0.0486328125,
              0.008886718750000001
            ],
            [
              0.0486328125,
              0.008984375000000003
            ],
            [
              0.048730468750000006,
              0.008984375000000003
            ],
            [
              0.048730468750000006,
              0.009082031249999997
            ],
            [
              0.048828125,
              0.009082031249999997
            ],
            [
              0.048828125,
              0.00927734375
            ],
            [
              0.048730468750000006,
              0.00927734375
            ],
            [
              0.048730468750000006,
              0.009375000000000001
            ],
            [
              0.04853515625,
              0.009375000000000001
            ]
          ]
        ]
      },
      "properties": {
        "building_id": 0,
        "damage_tier": "destroyed",
        "confidence": 0.997
      }
    },
    {
      "type": "Feature",
      "geometry": {
        "type": "Polygon",
        "coordinates": [
          [
            [
              -0.02255859375,
              0.006054687500000003
            ],
            [
              -0.02255859375,
              0.005957031250000001
            ],
            [
              -0.02275390625,
              0.005957031250000001
            ],
            [
              -0.02275390625,
              0.005859375
            ],
            [
              -0.022851562500000002,
              0.005859375
            ],
            [
              -0.022851562500000002,
              0.005761718749999999
            ],
            [
              -0.023046875,
              0.005761718749999999
            ],
            [
              -0.023046875,
              0.005664062499999997
            ],
            [
              -0.02353515625,
              0.005664062499999997
            ],
            [
              -0.02353515625,
              0.005566406250000003
            ],
            [
              -0.02392578125,
              0.005566406250000003
            ],
            [
              -0.02392578125,
              0.005468750000000001
            ],
            [
              -0.02421875,
              0.005468750000000001
            ],
            [
              -0.02421875,
              0.00537109375
            ],
            [
              -0.0244140625,
              0.00537109375
            ],
            [
              -0.0244140625,
              0.005273437499999999
            ],
            [
              -0.02451171875,
              0.005273437499999999
            ],
            [
              -0.02451171875,
              0.005078125000000003
            ],
            [
              -0.024609375000000003,
              0.005078125000000003
            ],
            [
              -0.024609375000000003,
              0.004785156249999999
            ],
            [
              -0.02451171875,
              0.004785156249999999
            ],
            [
              -0.02451171875,
              0.004687499999999997
            ],
            [
              -0.0244140625,
              0.004687499999999997
            ],
            [
              -0.0244140625,
              0.004589843750000003
            ],
            [
              -0.02421875,
              0.004589843750000003
            ],
            [
              -0.02421875,
              0.004492187500000001
            ],
            [
              -0.023828125000000002,
              0.004492187500000001
            ],
            [
              -0.023828125000000002,
              0.004589843750000003
            ],
            [
              -0.023632812500000003,
              0.004589843750000003
            ],
            [
              -0.023632812500000003,
              0.004687499999999997
            ],
            [
              -0.0232421875,
              0.004687499999999997
            ],
            [
              -0.0232421875,
              0.004785156249999999
            ],
            [
              -0.02294921875,
              0.004785156249999999
            ],
            [
              -0.02294921875,
              0.0048828125
            ],
            [
              -0.02275390625,
              0.0048828125
            ],
            [
              -0.02275390625,
              0.004785156249999999
            ],
            [
              -0.022265625,
              0.004785156249999999
            ],
            [
              -0.022265625,
              0.0048828125
            ],
            [
              -0.022167968750000003,
              0.0048828125
            ],
            [
              -0.022167968750000003,
              0.004980468750000001
            ],
            [
              -0.0220703125,
              0.004980468750000001
            ],
            [
              -0.0220703125,
              0.005175781249999997
            ],
            [
              -0.02197265625,
              0.005175781249999997
            ],
            [
              -0.02197265625,
              0.005273437499999999
            ],
            [
              -0.021679687500000003,
              0.005273437499999999
            ],
            [
              -0.021679687500000003,
              0.005664062499999997
            ],
            [
              -0.02177734375,
              0.005664062499999997
            ],
            [
              -0.02177734375,
              0.005468750000000001
            ],
            [
              -0.021875000000000002,
              0.005468750000000001
            ],
            [
              -0.021875000000000002,
              0.00537109375
            ],
            [
              -0.0220703125,
              0.00537109375
            ],
            [
              -0.0220703125,
              0.005468750000000001
            ],
            [
              -0.022167968750000003,
              0.005468750000000001
            ],
            [
              -0.022167968750000003,
              0.005664062499999997
            ],
            [
              -0.022265625,
              0.005664062499999997
            ],
            [
              -0.022265625,
              0.005859375
            ],
            [
              -0.022363281250000002,
              0.005859375
            ],
            [
              -0.022363281250000002,
              0.006054687500000003
            ],
            [
              -0.02255859375,
              0.006054687500000003
            ]
          ]
        ]
      },
      "properties": {
        "building_id": 1,
        "damage_tier": "destroyed",
        "confidence": 0.995
      }
    },
    {
      "type": "Feature",
      "geometry": {
        "type": "Polygon",
        "coordinates": [
          [
            [
              -0.028515625000000003,
              0.005078125000000003
            ],
            [
              -0.028515625000000003,
              0.004980468750000001
            ],
            [
              -0.02861328125,
              0.004980468750000001
            ],
            [
              -0.02861328125,
              0.004785156249999999
            ],
            [
              -0.028515625000000003,
              0.004785156249999999
            ],
            [
              -0.028515625000000003,
              0.004687499999999997
            ],
            [
              -0.02841796875,
              0.004687499999999997
            ],
            [
              -0.02841796875,
              0.004492187500000001
            ],
            [
              -0.0283203125,
              0.004492187500000001
            ],
            [
              -0.0283203125,
              0.004589843750000003
            ],
            [
              -0.028222656250000002,
              0.004589843750000003
            ],
            [
              -0.028222656250000002,
              0.004785156249999999
            ],
            [
              -0.028125,
              0.004785156249999999
            ],
            [
              -0.028125,
              0.004980468750000001
            ],
            [
              -0.028222656250000002,
              0.004980468750000001
            ],
            [
              -0.028222656250000002,
              0.005078125000000003
            ],
            [
              -0.028515625000000003,
              0.005078125000000003
            ]
          ]
        ]
      },
      "properties": {
        "building_id": 2,
        "damage_tier": "destroyed",
        "confidence": 0.993
      }
    },
    {
      "type": "Feature",
      "geometry": {
        "type": "Polygon",
        "coordinates": [
          [
            [
              0.03759765625,
              0.0037109374999999972
            ],
            [
              0.03759765625,
              0.0036132812500000028
            ],
            [
              0.03740234375,
              0.0036132812500000028
            ],
            [
              0.03740234375,
              0.0035156250000000014
            ],
            [
              0.03720703125000001,
              0.0035156250000000014
            ],
            [
              0.03720703125000001,
              0.00341796875
            ],
            [
              0.037109375,
              0.00341796875
            ],
            [
              0.037109375,
              0.0033203124999999986
            ],
            [
              0.037011718750000006,
              0.0033203124999999986
            ],
            [
              0.037011718750000006,
              0.0031250000000000028
            ],
            [
              0.0369140625,
              0.0031250000000000028
            ],
            [
              0.0369140625,
              0.0029296875
            ],
            [
              0.037011718750000006,
              0.0029296875
            ],
            [
              0.037011718750000006,
              0.0028320312499999986
            ],
            [
              0.037109375,
              0.0028320312499999986
            ],
            [
              0.037109375,
              0.0027343749999999972
            ],
            [
              0.0373046875,
              0.0027343749999999972
            ],
            [
              0.0373046875,
              0.0026367187500000028
            ],
            [
              0.037500000000000006,
              0.0026367187500000028
            ],
            [
              0.037500000000000006,
              0.0027343749999999972
            ],
            [
              0.03769531250000001,
              0.0027343749999999972
            ],
            [
              0.03769531250000001,
              0.0028320312499999986
            ],
            [
              0.037890625,
              0.0028320312499999986
            ],
            [
              0.037890625,
              0.0030273437500000014
            ],
            [
              0.037988281250000006,
              0.0030273437500000014
            ],
            [
              0.037988281250000006,
              0.00341796875
            ],
            [
              0.037890625,
              0.00341796875
            ],
            [
              0.037890625,
              0.0036132812500000028
            ],
            [
              0.03779296875,
              0.0036132812500000028
            ],
            [
              0.03779296875,
              0.0037109374999999972
            ],
            [
              0.03759765625,
              0.0037109374999999972
            ]
          ]
        ]
      },
      "properties": {
        "building_id": 3,
        "damage_tier": "destroyed",
        "confidence": 0.997
      }
    },
    {
      "type": "Feature",
      "geometry": {
        "type": "Polygon",
        "coordinates": [
          [
            [
              0.03720703125000001,
              0.00244140625
            ],
            [
              0.03720703125000001,
              0.0023437499999999986
            ],
            [
              0.037011718750000006,
              0.0023437499999999986
            ],
            [
              0.037011718750000006,
              0.0022460937499999972
            ],
            [
              0.03671875000000001,
              0.0022460937499999972
            ],
            [
              0.03671875000000001,
              0.0021484375000000028
            ],
            [
              0.03662109375,
              0.0021484375000000028
            ],
            [
              0.03662109375,
              0.0020507812500000014
            ],
            [
              0.03681640625,
              0.0020507812500000014
            ],
            [
              0.03681640625,
              0.001953125
            ],
            [
              0.0373046875,
              0.001953125
            ],
            [
              0.0373046875,
              0.0020507812500000014
            ],
            [
              0.037988281250000006,
              0.0020507812500000014
            ],
            [
              0.037988281250000006,
              0.0021484375000000028
            ],
            [
              0.0380859375,
              0.0021484375000000028
            ],
            [
              0.0380859375,
              0.0022460937499999972
            ],
            [
              0.037988281250000006,
              0.0022460937499999972
            ],
            [
              0.037988281250000006,
              0.0023437499999999986
            ],
            [
              0.03779296875,
              0.0023437499999999986
            ],
            [
              0.03779296875,
              0.00244140625
            ],
            [
              0.03720703125000001,
              0.00244140625
            ]
          ]
        ]
      },
      "properties": {
        "building_id": 4,
        "damage_tier": "destroyed",
        "confidence": 0.998
      }
    },
    {
      "type": "Feature",
      "geometry": {
        "type": "Polygon",
        "coordinates": [
          [
            [
              -0.012792968750000001,
              -0.0302734375
            ],
            [
              -0.012792968750000001,
              -0.030468750000000003
            ],
            [
              -0.012597656249999999,
              -0.030468750000000003
            ],
            [
              -0.012597656249999999,
              -0.0302734375
            ],
            [
              -0.012792968750000001,
              -0.0302734375
            ]
          ]
        ]
      },
      "properties": {
        "building_id": 5,
        "damage_tier": "destroyed",
        "confidence": 0.98
      }
    }
  ]
}