{
  "type": "FeatureCollection",
  "features": [
    {
      "type": "Feature",
      "geometry": {
        "type": "Polygon",
        "coordinates": [
          [
            [
              -0.022851562500000002,
              -9.765625000000139e-05
            ],
            [
              -0.022851562500000002,
              -0.00019531250000000278
            ],
            [
              -0.022656250000000003,
              -0.00019531250000000278
            ],
            [
              -0.022656250000000003,
              -0.0002929687499999972
            ],
            [
              -0.022265625,
              -0.0002929687499999972
            ],
            [
              -0.022265625,
              -0.00019531250000000278
            ],
            [
              -0.022363281250000002,
              -0.00019531250000000278
            ],
            [
              -0.022363281250000002,
              -9.765625000000139e-05
            ],
            [
              -0.022851562500000002,
              -9.765625000000139e-05
            ]
          ]
        ]
      },
      "properties": {
        "building_id": 0,
        "damage_tier": "destroyed",
        "confidence": 0.489
      }
    },
    {
      "type": "Feature",
      "geometry": {
        "type": "Polygon",
        "coordinates": [
          [
            [
              -0.022167968750000003,
              -0.0003906249999999986
            ],
            [
              -0.022167968750000003,
              -0.0005859375000000014
            ],
            [
              -0.0212890625,
              -0.0005859375000000014
            ],
            [
              -0.0212890625,
              -0.00048828125
            ],
            [
              -0.021875000000000002,
              -0.00048828125
            ],
            [
              -0.021875000000000002,
              -0.0003906249999999986
            ],
            [
              -0.022167968750000003,
              -0.0003906249999999986
            ]
          ]
        ]
      },
      "properties": {
        "building_id": 1,
        "damage_tier": "major-damage",
        "confidence": 0.372
      }
    },
    {
      "type": "Feature",
      "geometry": {
        "type": "Polygon",
        "coordinates": [
          [
            [
              -0.013476562500000004,
              -0.03720703125000001
            ],
            [
              -0.013476562500000004,
              -0.0373046875
            ],
            [
              -0.013671875,
              -0.0373046875
            ],
            [
              -0.013671875,
              -0.03740234375
            ],
            [
              -0.013574218749999999,
              -0.03740234375
            ],
            [
              -0.013574218749999999,
              -0.037500000000000006
            ],
            [
              -0.013476562500000004,
              -0.037500000000000006
            ],
            [
              -0.013476562500000004,
              -0.03759765625
            ],
            [
              -0.013378906250000003,
              -0.03759765625
            ],
            [
              -0.013378906250000003,
              -0.03769531250000001
            ],
            [
              -0.01318359375,
              -0.03769531250000001
            ],
            [
              -0.01318359375,
              -0.03779296875
            ],
            [
              -0.012597656249999999,
              -0.03779296875
            ],
            [
              -0.012597656249999999,
              -0.03769531250000001
            ],
            [
              -0.012402343750000003,
              -0.03769531250000001
            ],
            [
              -0.012402343750000003,
              -0.03759765625
            ],
            [
              -0.012304687500000001,
              -0.03759765625
            ],
            [
              -0.012304687500000001,
              -0.03740234375
            ],
            [
              -0.01220703125,
              -0.03740234375
            ],
            [
              -0.01220703125,
              -0.0373046875
            ],
            [
              -0.012402343750000003,
              -0.0373046875
            ],
            [
              -0.012402343750000003,
              -0.03720703125000001
            ],
            [
              -0.013476562500000004,
              -0.03720703125000001
            ]
          ]
        ]
      },
      "properties": {
        "building_id": 2,
        "damage_tier": "destroyed",
        "confidence": 0.773
      }
    }
  ]
}