{
  "type": "FeatureCollection",
  "features": [
    {
      "type": "Feature",
      "geometry": {
        "type": "Polygon",
        "coordinates": [[[-95.9370, 41.2540], [-95.9362, 41.2540], [-95.9362, 41.2548], [-95.9370, 41.2548], [-95.9370, 41.2540]]]
      },
      "properties": { "building_id": 0, "damage_tier": "no-damage", "confidence": 0.89 }
    },
    {
      "type": "Feature",
      "geometry": {
        "type": "Polygon",
        "coordinates": [[[-95.9350, 41.2550], [-95.9342, 41.2550], [-95.9342, 41.2557], [-95.9350, 41.2557], [-95.9350, 41.2550]]]
      },
      "properties": { "building_id": 1, "damage_tier": "no-damage", "confidence": 0.95 }
    },
    {
      "type": "Feature",
      "geometry": {
        "type": "Polygon",
        "coordinates": [[[-95.9380, 41.2560], [-95.9373, 41.2560], [-95.9373, 41.2567], [-95.9380, 41.2567], [-95.9380, 41.2560]]]
      },
      "properties": { "building_id": 2, "damage_tier": "minor-damage", "confidence": 0.72 }
    },
    {
      "type": "Feature",
      "geometry": {
        "type": "Polygon",
        "coordinates": [[[-95.9340, 41.2570], [-95.9332, 41.2570], [-95.9332, 41.2578], [-95.9340, 41.2578], [-95.9340, 41.2570]]]
      },
      "properties": { "building_id": 3, "damage_tier": "major-damage", "confidence": 0.81 }
    },
    {
      "type": "Feature",
      "geometry": {
        "type": "Polygon",
        "coordinates": [[[-95.9360, 41.2580], [-95.9352, 41.2580], [-95.9352, 41.2588], [-95.9360, 41.2588], [-95.9360, 41.2580]]]
      },
      "properties": { "building_id": 4, "damage_tier": "destroyed", "confidence": 0.88 }
    }
  ]
}
