{
  "type": "FeatureCollection",
  "features": [
    {
      "type": "Feature",
      "geometry": {
        "type": "Polygon",
        "coordinates": [
          [
            [
              88.1177828125,
              27.939417187500002
            ],
            [
              88.1177828125,
              27.939378125
            ],
            [
              88.11754843749999,
              27.939378125
            ],
            [
              88.11754843749999,
              27.9393390625
            ],
            [
              88.1175875,
              27.9393390625
            ],
            [
              88.1175875,
              27.939300000000003
            ],
            [
              88.117665625,
              27.939300000000003
            ],
            [
              88.117665625,
              27.939260937500002
            ],
            [
              88.11782187499999,
              27.939260937500002
            ],
            [
              88.11782187499999,
              27.939300000000003
            ],
            [
              88.1180171875,
              27.939300000000003
            ],
            [
              88.1180171875,
              27.9393390625
            ],
            [
              88.11817343749999,
              27.9393390625
            ],
            [
              88.11817343749999,
              27.939378125
            ],
            [
              88.11805625,
              27.939378125
            ],
            [
              88.11805625,
              27.939417187500002
            ],
            [
              88.1177828125,
              27.939417187500002
            ]
          ]
        ]
      },
      "properties": {
        "building_id": 0,
        "damage_tier": "destroyed",
        "confidence": 0.945
      }
    },
    {
      "type": "Feature",
      "geometry": {
        "type": "Polygon",
        "coordinates": [
          [
            [
              88.12047812499999,
              27.9379328125
            ],
            [
              88.12047812499999,
              27.937854687500003
            ],
            [
              88.12039999999999,
              27.937854687500003
            ],
            [
              88.12039999999999,
              27.937815625000002
            ],
            [
              88.120321875,
              27.937815625000002
            ],
            [
              88.120321875,
              27.9377375
            ],
            [
              88.1202828125,
              27.9377375
            ],
            [
              88.1202828125,
              27.9376984375
            ],
            [
              88.12024375,
              27.9376984375
            ],
            [
              88.12024375,
              27.937659375000003
            ],
            [
              88.120165625,
              27.937659375000003
            ],
            [
              88.120165625,
              27.93758125
            ],
            [
              88.12012656249999,
              27.93758125
            ],
            [
              88.12012656249999,
              27.9375421875
            ],
            [
              88.1200875,
              27.9375421875
            ],
            [
              88.1200875,
              27.937503125000003
            ],
            [
              88.120009375,
              27.937503125000003
            ],
            [
              88.120009375,
              27.9373859375
            ],
            [
              88.1199703125,
              27.9373859375
            ],
            [
              88.1199703125,
              27.937346875000003
            ],
            [
              88.120165625,
              27.937346875000003
            ],
            [
              88.120165625,
              27.9373859375
            ],
            [
              88.12024375,
              27.9373859375
            ],
            [
              88.12024375,
              27.937425
            ],
            [
              88.1202828125,
              27.937425
            ],
            [
              88.1202828125,
              27.937464062500002
            ],
            [
              88.120321875,
              27.937464062500002
            ],
            [
              88.120321875,
              27.937503125000003
            ],
            [
              88.12039999999999,
              27.937503125000003
            ],
            [
              88.12039999999999,
              27.9375421875
            ],
            [
              88.1204390625,
              27.9375421875
            ],
            [
              88.1204390625,
              27.9376203125
            ],
            [
              88.12047812499999,
              27.9376203125
            ],
            [
              88.12047812499999,
              27.937659375000003
            ],
            [
              88.1205171875,
              27.937659375000003
            ],
            [
              88.1205171875,
              27.9376984375
            ],
            [
              88.12055624999999,
              27.9376984375
            ],
            [
              88.12055624999999,
              27.9377375
            ],
            [
              88.1205953125,
              27.9377375
            ],
            [
              88.1205953125,
              27.937854687500003
            ],
            [
              88.12055624999999,
              27.937854687500003
            ],
            [
              88.12055624999999,
              27.93789375
            ],
            [
              88.1205171875,
              27.93789375
            ],
            [
              88.1205171875,
              27.9379328125
            ],
            [
              88.12047812499999,
              27.9379328125
            ]
          ]
        ]
      },
      "properties": {
        "building_id": 1,
        "damage_tier": "destroyed",
        "confidence": 0.923
      }
    },
    {
      "type": "Feature",
      "geometry": {
        "type": "Polygon",
        "coordinates": [
          [
            [
              88.1301265625,
              27.939612500000003
            ],
            [
              88.1301265625,
              27.9395734375
            ],
            [
              88.129228125,
              27.9395734375
            ],
            [
              88.129228125,
              27.939534375
            ],
            [
              88.1274703125,
              27.939534375
            ],
            [
              88.1274703125,
              27.9394953125
            ],
            [
              88.12731406249999,
              27.9394953125
            ],
            [
              88.12731406249999,
              27.939534375
            ],
            [
              88.1270796875,
              27.939534375
            ],
            [
              88.1270796875,
              27.9394953125
            ],
            [
              88.1263765625,
              27.9394953125
            ],
            [
              88.1263765625,
              27.939534375
            ],
            [
              88.12446249999999,
              27.939534375
            ],
            [
              88.12446249999999,
              27.9394953125
            ],
            [
              88.12305624999999,
              27.9394953125
            ],
            [
              88.12305624999999,
              27.939456250000003
            ],
            [
              88.12278281249999,
              27.939456250000003
            ],
            [
              88.12278281249999,
              27.939417187500002
            ],
            [
              88.1226265625,
              27.939417187500002
            ],
            [
              88.1226265625,
              27.939378125
            ],
            [
              88.1225875,
              27.939378125
            ],
            [
              88.1225875,
              27.939300000000003
            ],
            [
              88.1226265625,
              27.939300000000003
            ],
            [
              88.1226265625,
              27.939260937500002
            ],
            [
              88.122665625,
              27.939260937500002
            ],
            [
              88.122665625,
              27.939221875
            ],
            [
              88.12270468749999,
              27.939221875
            ],
            [
              88.12270468749999,
              27.939143750000003
            ],
            [
              88.12274375,
              27.939143750000003
            ],
            [
              88.12274375,
              27.939065625
            ],
            [
              88.1228609375,
              27.939065625
            ],
            [
              88.1228609375,
              27.9390265625
            ],
            [
              88.12305624999999,
              27.9390265625
            ],
            [
              88.12305624999999,
              27.938987500000003
            ],
            [
              88.123446875,
              27.938987500000003
            ],
            [
              88.123446875,
              27.938948437500002
            ],
            [
              88.12395468749999,
              27.938948437500002
            ],
            [
              88.12395468749999,
              27.938909375
            ],
            [
              88.124775,
              27.938909375
            ],
            [
              88.124775,
              27.938948437500002
            ],
            [
              88.12508749999999,
              27.938948437500002
            ],
            [
              88.12508749999999,
              27.938987500000003
            ],
            [
              88.1262984375,
              27.938987500000003
            ],
            [
              88.1262984375,
              27.9390265625
            ],
            [
              88.12696249999999,
              27.9390265625
            ],
            [
              88.12696249999999,
              27.938987500000003
            ],
            [
              88.12723593749999,
              27.938987500000003
            ],
            [
              88.12723593749999,
              27.938948437500002
            ],
            [
              88.12821249999999,
              27.938948437500002
            ],
            [
              88.12821249999999,
              27.938987500000003
            ],
            [
              88.12836874999999,
              27.938987500000003
            ],
            [
              88.12836874999999,
              27.938948437500002
            ],
            [
              88.1287203125,
              27.938948437500002
            ],
            [
              88.1287203125,
              27.938909375
            ],
            [
              88.12883749999999,
              27.938909375
            ],
            [
              88.12883749999999,
              27.938831250000003
            ],
            [
              88.1287984375,
              27.938831250000003
            ],
            [
              88.1287984375,
              27.9387140625
            ],
            [
              88.1288765625,
              27.9387140625
            ],
            [
              88.1288765625,
              27.938675
            ],
            [
              88.12891562499999,
              27.938675
            ],
            [
              88.12891562499999,
              27.938635937500003
            ],
            [
              88.1289546875,
              27.938635937500003
            ],
            [
              88.1289546875,
              27.938596875
            ],
            [
              88.1290328125,
              27.938596875
            ],
            [
              88.1290328125,
              27.9385578125
            ],
            [
              88.12915,
              27.9385578125
            ],
            [
              88.12915,
              27.93851875
            ],
            [
              88.129228125,
              27.93851875
            ],
            [
              88.129228125,
              27.938479687500003
            ],
            [
              88.12930625,
              27.938479687500003
            ],
            [
              88.12930625,
              27.938440625000002
            ],
            [
              88.12934531249999,
              27.938440625000002
            ],
            [
              88.12934531249999,
              27.9384015625
            ],
            [
              88.1294234375,
              27.9384015625
            ],
            [
              88.1294234375,
              27.9383625
            ],
            [
              88.1295015625,
              27.9383625
            ],
            [
              88.1295015625,
              27.938323437500003
            ],
            [
              88.12954062499999,
              27.938323437500003
            ],
            [
              88.12954062499999,
              27.938284375000002
            ],
            [
              88.1295796875,
              27.938284375000002
            ],
            [
              88.1295796875,
              27.9382453125
            ],
            [
              88.12961874999999,
              27.9382453125
            ],
            [
              88.12961874999999,
              27.93820625
            ],
            [
              88.1296578125,
              27.93820625
            ],
            [
              88.1296578125,
              27.938167187500003
            ],
            [
              88.129696875,
              27.938167187500003
            ],
            [
              88.129696875,
              27.938128125000002
            ],
            [
              88.12981406249999,
              27.938128125000002
            ],
            [
              88.12981406249999,
              27.9380890625
            ],
            [
              88.12989218749999,
              27.9380890625
            ],
            [
              88.12989218749999,
              27.938010937500003
            ],
            [
              88.12993125,
              27.938010937500003
            ],
            [
              88.12993125,
              27.937971875000002
            ],
            [
              88.12997031249999,
              27.937971875000002
            ],
            [
              88.12997031249999,
              27.93789375
            ],
            [
              88.130009375,
              27.93789375
            ],
            [
              88.130009375,
              27.937815625000002
            ],
            [
              88.1300484375,
              27.937815625000002
            ],
            [
              88.1300484375,
              27.9376984375
            ],
            [
              88.13008749999999,
              27.9376984375
            ],
            [
              88.13008749999999,
              27.937464062500002
            ],
            [
              88.1301265625,
              27.937464062500002
            ],
            [
              88.1301265625,
              27.93726875
            ],
            [
              88.13016562499999,
              27.93726875
            ],
            [
              88.13016562499999,
              27.937425
            ],
            [
              88.1302046875,
              27.937425
            ],
            [
              88.1302046875,
              27.937854687500003
            ],
            [
              88.13024374999999,
              27.937854687500003
            ],
            [
              88.13024374999999,
              27.938128125000002
            ],
            [
              88.1302828125,
              27.938128125000002
            ],
            [
              88.1302828125,
              27.938323437500003
            ],
            [
              88.13032187499999,
              27.938323437500003
            ],
            [
              88.13032187499999,
              27.938440625000002
            ],
            [
              88.1304,
              27.938440625000002
            ],
            [
              88.1304,
              27.9395734375
            ],
            [
              88.1302828125,
              27.9395734375
            ],
            [
              88.1302828125,
              27.939612500000003
            ],
            [
              88.1301265625,
              27.939612500000003
            ]
          ]
        ]
      },
      "properties": {
        "building_id": 2,
        "damage_tier": "destroyed",
        "confidence": 0.674
      }
    },
    {
      "type": "Feature",
      "geometry": {
        "type": "Polygon",
        "coordinates": [
          [
            [
              88.1179390625,
              27.937034375000003
            ],
            [
              88.1179390625,
              27.936995312500002
            ],
            [
              88.1180171875,
              27.936995312500002
            ],
            [
              88.1180171875,
              27.937034375000003
            ],
            [
              88.1179390625,
              27.937034375000003
            ]
          ]
        ]
      },
      "properties": {
        "building_id": 3,
        "damage_tier": "destroyed",
        "confidence": 0.946
      }
    },
    {
      "type": "Feature",
      "geometry": {
        "type": "Polygon",
        "coordinates": [
          [
            [
              88.11782187499999,
              27.9369171875
            ],
            [
              88.11782187499999,
              27.936878125000003
            ],
            [
              88.1178609375,
              27.936878125000003
            ],
            [
              88.1178609375,
              27.9369171875
            ],
            [
              88.11782187499999,
              27.9369171875
            ]
          ]
        ]
      },
      "properties": {
        "building_id": 4,
        "damage_tier": "destroyed",
        "confidence": 0.94
      }
    },
    {
      "type": "Feature",
      "geometry": {
        "type": "Polygon",
        "coordinates": [
          [
            [
              88.1074703125,
              27.939456250000003
            ],
            [
              88.1074703125,
              27.939417187500002
            ],
            [
              88.10743125,
              27.939417187500002
            ],
            [
              88.10743125,
              27.939378125
            ],
            [
              88.1073921875,
              27.939378125
            ],
            [
              88.1073921875,
              27.939300000000003
            ],
            [
              88.10743125,
              27.939300000000003
            ],
            [
              88.10743125,
              27.939104687500002
            ],
            [
              88.1074703125,
              27.939104687500002
            ],
            [
              88.1074703125,
              27.9390265625
            ],
            [
              88.10750937499999,
              27.9390265625
            ],
            [
              88.10750937499999,
              27.938948437500002
            ],
            [
              88.1075484375,
              27.938948437500002
            ],
            [
              88.1075484375,
              27.938792187500002
            ],
            [
              88.1075875,
              27.938792187500002
            ],
            [
              88.1075875,
              27.938167187500003
            ],
            [
              88.1075484375,
              27.938167187500003
            ],
            [
              88.1075484375,
              27.93805
            ],
            [
              88.10750937499999,
              27.93805
            ],
            [
              88.10750937499999,
              27.937971875000002
            ],
            [
              88.1074703125,
              27.937971875000002
            ],
            [
              88.1074703125,
              27.937815625000002
            ],
            [
              88.10743125,
              27.937815625000002
            ],
            [
              88.10743125,
              27.937659375000003
            ],
            [
              88.1073921875,
              27.937659375000003
            ],
            [
              88.1073921875,
              27.93758125
            ],
            [
              88.107353125,
              27.93758125
            ],
            [
              88.107353125,
              27.937503125000003
            ],
            [
              88.1073140625,
              27.937503125000003
            ],
            [
              88.1073140625,
              27.937425
            ],
            [
              88.107275,
              27.937425
            ],
            [
              88.107275,
              27.937307812500002
            ],
            [
              88.1072359375,
              27.937307812500002
            ],
            [
              88.1072359375,
              27.93726875
            ],
            [
              88.107196875,
              27.93726875
            ],
            [
              88.107196875,
              27.937190625000003
            ],
            [
              88.1071578125,
              27.937190625000003
            ],
            [
              88.1071578125,
              27.9371125
            ],
            [
              88.10711875,
              27.9371125
            ],
            [
              88.10711875,
              27.936995312500002
            ],
            [
              88.1070796875,
              27.936995312500002
            ],
            [
              88.1070796875,
              27.9369171875
            ],
            [
              88.107040625,
              27.9369171875
            ],
            [
              88.107040625,
              27.936878125000003
            ],
            [
              88.1070015625,
              27.936878125000003
            ],
            [
              88.1070015625,
              27.9367609375
            ],
            [
              88.1069625,
              27.9367609375
            ],
            [
              88.1069625,
              27.93664375
            ],
            [
              88.1069234375,
              27.93664375
            ],
            [
              88.1069234375,
              27.936565625
            ],
            [
              88.10688437499999,
              27.936565625
            ],
            [
              88.10688437499999,
              27.936487500000002
            ],
            [
              88.1068453125,
              27.936487500000002
            ],
            [
              88.1068453125,
              27.936331250000002
            ],
            [
              88.10680625,
              27.936331250000002
            ],
            [
              88.10680625,
              27.9361359375
            ],
            [
              88.1067671875,
              27.9361359375
            ],
            [
              88.1067671875,
              27.936018750000002
            ],
            [
              88.106728125,
              27.936018750000002
            ],
            [
              88.106728125,
              27.935940625
            ],
            [
              88.1066890625,
              27.935940625
            ],
            [
              88.1066890625,
              27.9358234375
            ],
            [
              88.10665,
              27.9358234375
            ],
            [
              88.10665,
              27.935706250000003
            ],
            [
              88.1066109375,
              27.935706250000003
            ],
            [
              88.1066109375,
              27.935628125
            ],
            [
              88.106571875,
              27.935628125
            ],
            [
              88.106571875,
              27.935550000000003
            ],
            [
              88.10653281249999,
              27.935550000000003
            ],
            [
              88.10653281249999,
              27.935471875
            ],
            [
              88.10649375,
              27.935471875
            ],
            [
              88.10649375,
              27.935354687500002
            ],
            [
              88.1064546875,
              27.935354687500002
            ],
            [
              88.1064546875,
              27.935237500000003
            ],
            [
              88.106415625,
              27.935237500000003
            ],
            [
              88.106415625,
              27.9351203125
            ],
            [
              88.1063765625,
              27.9351203125
            ],
            [
              88.1063765625,
              27.934925000000003
            ],
            [
              88.1063375,
              27.934925000000003
            ],
            [
              88.1063375,
              27.934729687500003
            ],
            [
              88.1062984375,
              27.934729687500003
            ],
            [
              88.1062984375,
              27.934573437500003
            ],
            [
              88.106259375,
              27.934573437500003
            ],
            [
              88.106259375,
              27.934378125000002
            ],
            [
              88.1062203125,
              27.934378125000002
            ],
            [
              88.1062203125,
              27.9340265625
            ],
            [
              88.10618125,
              27.9340265625
            ],
            [
              88.10618125,
              27.9337140625
            ],
            [
              88.1061421875,
              27.9337140625
            ],
            [
              88.1061421875,
              27.933245312500002
            ],
            [
              88.106103125,
              27.933245312500002
            ],
            [
              88.106103125,
              27.933089062500002
            ],
            [
              88.1061421875,
              27.933089062500002
            ],
            [
              88.1061421875,
              27.932932812500002
            ],
            [
              88.10618125,
              27.932932812500002
            ],
            [
              88.10618125,
              27.932776562500003
            ],
            [
              88.1062203125,
              27.932776562500003
            ],
            [
              88.1062203125,
              27.932620312500003
            ],
            [
              88.106259375,
              27.932620312500003
            ],
            [
              88.106259375,
              27.932581250000002
            ],
            [
              88.1062984375,
              27.932581250000002
            ],
            [
              88.1062984375,
              27.932659375
            ],
            [
              88.1063375,
              27.932659375
            ],
            [
              88.1063375,
              27.932815625000003
            ],
            [
              88.1063765625,
              27.932815625000003
            ],
            [
              88.1063765625,
              27.9328546875
            ],
            [
              88.106415625,
              27.9328546875
            ],
            [
              88.106415625,
              27.93289375
            ],
            [
              88.10649375,
              27.93289375
            ],
            [
              88.10649375,
              27.932932812500002
            ],
            [
              88.106571875,
              27.932932812500002
            ],
            [
              88.106571875,
              27.932971875000003
            ],
            [
              88.1066109375,
              27.932971875000003
            ],
            [
              88.1066109375,
              27.9330109375
            ],
            [
              88.10665,
              27.9330109375
            ],
            [
              88.10665,
              27.93305
            ],
            [
              88.1066890625,
              27.93305
            ],
            [
              88.1066890625,
              27.933089062500002
            ],
            [
              88.106728125,
              27.933089062500002
            ],
            [
              88.106728125,
              27.933128125000003
            ],
            [
              88.10680625,
              27.933128125000003
            ],
            [
              88.10680625,
              27.9331671875
            ],
            [
              88.1068453125,
              27.9331671875
            ],
            [
              88.1068453125,
              27.93320625
            ],
            [
              88.10688437499999,
              27.93320625
            ],
            [
              88.10688437499999,
              27.933245312500002
            ],
            [
              88.1069625,
              27.933245312500002
            ],
            [
              88.1069625,
              27.933284375000003
            ],
            [
              88.1070015625,
              27.933284375000003
            ],
            [
              88.1070015625,
              27.9333234375
            ],
            [
              88.1070796875,
              27.9333234375
            ],
            [
              88.1070796875,
              27.9333625
            ],
            [
              88.10711875,
              27.9333625
            ],
            [
              88.10711875,
              27.933401562500002
            ],
            [
              88.1071578125,
              27.933401562500002
            ],
            [
              88.1071578125,
              27.933440625000003
            ],
            [
              88.107196875,
              27.933440625000003
            ],
            [
              88.107196875,
              27.9334796875
            ],
            [
              88.1072359375,
              27.9334796875
            ],
            [
              88.1072359375,
              27.933401562500002
            ],
            [
              88.107275,
              27.933401562500002
            ],
            [
              88.107275,
              27.9333625
            ],
            [
              88.1073140625,
              27.9333625
            ],
            [
              88.1073140625,
              27.9333234375
            ],
            [
              88.107353125,
              27.9333234375
            ],
            [
              88.107353125,
              27.9333625
            ],
            [
              88.1073921875,
              27.9333625
            ],
            [
              88.1073921875,
              27.933401562500002
            ],
            [
              88.10743125,
              27.933401562500002
            ],
            [
              88.10743125,
              27.933557812500002
            ],
            [
              88.1073921875,
              27.933557812500002
            ],
            [
              88.1073921875,
              27.933753125000003
            ],
            [
              88.10743125,
              27.933753125000003
            ],
            [
              88.10743125,
              27.9337921875
            ],
            [
              88.10750937499999,
              27.9337921875
            ],
            [
              88.10750937499999,
              27.93383125
            ],
            [
              88.1075484375,
              27.93383125
            ],
            [
              88.1075484375,
              27.9338703125
            ],
            [
              88.1075875,
              27.9338703125
            ],
            [
              88.1075875,
              27.933909375000002
            ],
            [
              88.107665625,
              27.933909375000002
            ],
            [
              88.107665625,
              27.933948437500003
            ],
            [
              88.10774375,
              27.933948437500003
            ],
            [
              88.10774375,
              27.9339875
            ],
            [
              88.107821875,
              27.9339875
            ],
            [
              88.107821875,
              27.9340265625
            ],
            [
              88.10786093749999,
              27.9340265625
            ],
            [
              88.10786093749999,
              27.934065625000002
            ],
            [
              88.1079,
              27.934065625000002
            ],
            [
              88.1079,
              27.9341828125
            ],
            [
              88.1079390625,
              27.9341828125
            ],
            [
              88.1079390625,
              27.9343
            ],
            [
              88.107978125,
              27.9343
            ],
            [
              88.107978125,
              27.934378125000002
            ],
            [
              88.1080171875,
              27.934378125000002
            ],
            [
              88.1080171875,
              27.93445625
            ],
            [
              88.10805625,
              27.93445625
            ],
            [
              88.10805625,
              27.9344953125
            ],
            [
              88.1080953125,
              27.9344953125
            ],
            [
              88.1080953125,
              27.934573437500003
            ],
            [
              88.108134375,
              27.934573437500003
            ],
            [
              88.108134375,
              27.9346515625
            ],
            [
              88.1081734375,
              27.9346515625
            ],
            [
              88.1081734375,
              27.93476875
            ],
            [
              88.1082125,
              27.93476875
            ],
            [
              88.1082125,
              27.934846875
            ],
            [
              88.1082515625,
              27.934846875
            ],
            [
              88.1082515625,
              27.934925000000003
            ],
            [
              88.108290625,
              27.934925000000003
            ],
            [
              88.108290625,
              27.935042187500002
            ],
            [
              88.1083296875,
              27.935042187500002
            ],
            [
              88.1083296875,
              27.9351203125
            ],
            [
              88.10836875,
              27.9351203125
            ],
            [
              88.10836875,
              27.935198437500002
            ],
            [
              88.1084078125,
              27.935198437500002
            ],
            [
              88.1084078125,
              27.935237500000003
            ],
            [
              88.108446875,
              27.935237500000003
            ],
            [
              88.108446875,
              27.935315625
            ],
            [
              88.10848593749999,
              27.935315625
            ],
            [
              88.10848593749999,
              27.935354687500002
            ],
            [
              88.108525,
              27.935354687500002
            ],
            [
              88.108525,
              27.9354328125
            ],
            [
              88.1085640625,
              27.9354328125
            ],
            [
              88.1085640625,
              27.935471875
            ],
            [
              88.108603125,
              27.935471875
            ],
            [
              88.108603125,
              27.935550000000003
            ],
            [
              88.1086421875,
              27.935550000000003
            ],
            [
              88.1086421875,
              27.935628125
            ],
            [
              88.10868125,
              27.935628125
            ],
            [
              88.10868125,
              27.9356671875
            ],
            [
              88.1087203125,
              27.9356671875
            ],
            [
              88.1087203125,
              27.935706250000003
            ],
            [
              88.108759375,
              27.935706250000003
            ],
            [
              88.108759375,
              27.935784375
            ],
            [
              88.1087984375,
              27.935784375
            ],
            [
              88.1087984375,
              27.9358234375
            ],
            [
              88.10883749999999,
              27.9358234375
            ],
            [
              88.10883749999999,
              27.935862500000002
            ],
            [
              88.1088765625,
              27.935862500000002
            ],
            [
              88.1088765625,
              27.935940625
            ],
            [
              88.108915625,
              27.935940625
            ],
            [
              88.108915625,
              27.9359796875
            ],
            [
              88.1089546875,
              27.9359796875
            ],
            [
              88.1089546875,
              27.936018750000002
            ],
            [
              88.10899375,
              27.936018750000002
            ],
            [
              88.10899375,
              27.936096875
            ],
            [
              88.1090328125,
              27.936096875
            ],
            [
              88.1090328125,
              27.936175000000002
            ],
            [
              88.109071875,
              27.936175000000002
            ],
            [
              88.109071875,
              27.936253125
            ],
            [
              88.10911093749999,
              27.936253125
            ],
            [
              88.10911093749999,
              27.9362921875
            ],
            [
              88.10915,
              27.9362921875
            ],
            [
              88.10915,
              27.936370312500003
            ],
            [
              88.1091890625,
              27.936370312500003
            ],
            [
              88.1091890625,
              27.936409375
            ],
            [
              88.109228125,
              27.936409375
            ],
            [
              88.109228125,
              27.9364484375
            ],
            [
              88.10930625,
              27.9364484375
            ],
            [
              88.10930625,
              27.936487500000002
            ],
            [
              88.109384375,
              27.936487500000002
            ],
            [
              88.109384375,
              27.936526562500003
            ],
            [
              88.1094234375,
              27.936526562500003
            ],
            [
              88.1094234375,
              27.936565625
            ],
            [
              88.10946249999999,
              27.936565625
            ],
            [
              88.10946249999999,
              27.9366046875
            ],
            [
              88.1095015625,
              27.9366046875
            ],
            [
              88.1095015625,
              27.93664375
            ],
            [
              88.109540625,
              27.93664375
            ],
            [
              88.109540625,
              27.936682812500003
            ],
            [
              88.1095796875,
              27.936682812500003
            ],
            [
              88.1095796875,
              27.936721875
            ],
            [
              88.10961875,
              27.936721875
            ],
            [
              88.10961875,
              27.9367609375
            ],
            [
              88.1096578125,
              27.9367609375
            ],
            [
              88.1096578125,
              27.9368
            ],
            [
              88.109696875,
              27.9368
            ],
            [
              88.109696875,
              27.936839062500002
            ],
            [
              88.1097359375,
              27.936839062500002
            ],
            [
              88.1097359375,
              27.936878125000003
            ],
            [
              88.109775,
              27.936878125000003
            ],
            [
              88.109775,
              27.9369171875
            ],
            [
              88.10981406249999,
              27.9369171875
            ],
            [
              88.10981406249999,
              27.93695625
            ],
            [
              88.1098921875,
              27.93695625
            ],
            [
              88.1098921875,
              27.936995312500002
            ],
            [
              88.10993125,
              27.936995312500002
            ],
            [
              88.10993125,
              27.937034375000003
            ],
            [
              88.1099703125,
              27.937034375000003
            ],
            [
              88.1099703125,
              27.9370734375
            ],
            [
              88.110009375,
              27.9370734375
            ],
            [
              88.110009375,
              27.9371125
            ],
            [
              88.11008749999999,
              27.9371125
            ],
            [
              88.11008749999999,
              27.937151562500002
            ],
            [
              88.1101265625,
              27.937151562500002
            ],
            [
              88.1101265625,
              27.937190625000003
            ],
            [
              88.110165625,
              27.937190625000003
            ],
            [
              88.110165625,
              27.9372296875
            ],
            [
              88.11024375,
              27.9372296875
            ],
            [
              88.11024375,
              27.93726875
            ],
            [
              88.1102828125,
              27.93726875
            ],
            [
              88.1102828125,
              27.937307812500002
            ],
            [
              88.110321875,
              27.937307812500002
            ],
            [
              88.110321875,
              27.937346875000003
            ],
            [
              88.1103609375,
              27.937346875000003
            ],
            [
              88.1103609375,
              27.9373859375
            ],
            [
              88.1104,
              27.9373859375
            ],
            [
              88.1104,
              27.937425
            ],
            [
              88.11043906249999,
              27.937425
            ],
            [
              88.11043906249999,
              27.937503125000003
            ],
            [
              88.110478125,
              27.937503125000003
            ],
            [
              88.110478125,
              27.9375421875
            ],
            [
              88.1105171875,
              27.9375421875
            ],
            [
              88.1105171875,
              27.93758125
            ],
            [
              88.11055625,
              27.93758125
            ],
            [
              88.11055625,
              27.9376203125
            ],
            [
              88.1105953125,
              27.9376203125
            ],
            [
              88.1105953125,
              27.937815625000002
            ],
            [
              88.110634375,
              27.937815625000002
            ],
            [
              88.110634375,
              27.937854687500003
            ],
            [
              88.1107515625,
              27.937854687500003
            ],
            [
              88.1107515625,
              27.93789375
            ],
            [
              88.11086875,
              27.93789375
            ],
            [
              88.11086875,
              27.9379328125
            ],
            [
              88.110946875,
              27.9379328125
            ],
            [
              88.110946875,
              27.937971875000002
            ],
            [
              88.1109859375,
              27.937971875000002
            ],
            [
              88.1109859375,
              27.93805
            ],
            [
              88.111025,
              27.93805
            ],
            [
              88.111025,
              27.938128125000002
            ],
            [
              88.11106406249999,
              27.938128125000002
            ],
            [
              88.11106406249999,
              27.93820625
            ],
            [
              88.111103125,
              27.93820625
            ],
            [
              88.111103125,
              27.938284375000002
            ],
            [
              88.1111421875,
              27.938284375000002
            ],
            [
              88.1111421875,
              27.9383625
            ],
            [
              88.11118125,
              27.9383625
            ],
            [
              88.11118125,
              27.938596875
            ],
            [
              88.1111421875,
              27.938596875
            ],
            [
              88.1111421875,
              27.938635937500003
            ],
            [
              88.11118125,
              27.938635937500003
            ],
            [
              88.11118125,
              27.938948437500002
            ],
            [
              88.1111421875,
              27.938948437500002
            ],
            [
              88.1111421875,
              27.9390265625
            ],
            [
              88.111103125,
              27.9390265625
            ],
            [
              88.111103125,
              27.939065625
            ],
            [
              88.11106406249999,
              27.939065625
            ],
            [
              88.11106406249999,
              27.939104687500002
            ],
            [
              88.1109859375,
              27.939104687500002
            ],
            [
              88.1109859375,
              27.939143750000003
            ],
            [
              88.1109078125,
              27.939143750000003
            ],
            [
              88.1109078125,
              27.9391828125
            ],
            [
              88.11086875,
              27.9391828125
            ],
            [
              88.11086875,
              27.939221875
            ],
            [
              88.1108296875,
              27.939221875
            ],
            [
              88.1108296875,
              27.939260937500002
            ],
            [
              88.11079062499999,
              27.939260937500002
            ],
            [
              88.11079062499999,
              27.939300000000003
            ],
            [
              88.1107515625,
              27.939300000000003
            ],
            [
              88.1107515625,
              27.9393390625
            ],
            [
              88.1106734375,
              27.9393390625
            ],
            [
              88.1106734375,
              27.939378125
            ],
            [
              88.1103609375,
              27.939378125
            ],
            [
              88.1103609375,
              27.939417187500002
            ],
            [
              88.1081734375,
              27.939417187500002
            ],
            [
              88.1081734375,
              27.939456250000003
            ],
            [
              88.1074703125,
              27.939456250000003
            ]
          ]
        ]
      },
      "properties": {
        "building_id": 5,
        "damage_tier": "destroyed",
        "confidence": 0.998
      }
    }
  ]
}