{
  "type": "FeatureCollection",
  "features": [
    {
      "type": "Feature",
      "geometry": {
        "type": "Polygon",
        "coordinates": [
          [
            [
              0.00330078125,
              -0.0032421874999999994
            ],
            [
              0.00330078125,
              -0.003251953124999999
            ],
            [
              0.003291015625,
              -0.003251953124999999
            ],
            [
              0.003291015625,
              -0.0032617187500000007
            ],
            [
              0.0032812500000000003,
              -0.0032617187500000007
            ],
            [
              0.0032812500000000003,
              -0.0032812500000000003
            ],
            [
              0.0032714843750000005,
              -0.0032812500000000003
            ],
            [
              0.0032714843750000005,
              -0.0033105468749999997
            ],
            [
              0.0032617187500000007,
              -0.0033105468749999997
            ],
            [
              0.0032617187500000007,
              -0.003339843750000001
            ],
            [
              0.003251953124999999,
              -0.003339843750000001
            ],
            [
              0.003251953124999999,
              -0.00337890625
            ],
            [
              0.0032421874999999994,
              -0.00337890625
            ],
            [
              0.0032421874999999994,
              -0.00345703125
            ],
            [
              0.003251953124999999,
              -0.00345703125
            ],
            [
              0.003251953124999999,
              -0.0034765624999999996
            ],
            [
              0.0032617187500000007,
              -0.0034765624999999996
            ],
            [
              0.0032617187500000007,
              -0.0034863281249999994
            ],
            [
              0.0033105468749999997,
              -0.0034863281249999994
            ],
            [
              0.0033105468749999997,
              -0.003496093750000001
            ],
            [
              0.0033593750000000004,
              -0.003496093750000001
            ],
            [
              0.0033593750000000004,
              -0.0035058593750000007
            ],
            [
              0.0033984374999999995,
              -0.0035058593750000007
            ],
            [
              0.0033984374999999995,
              -0.0035156250000000005
            ],
            [
              0.0034472656250000002,
              -0.0035156250000000005
            ],
            [
              0.0034472656250000002,
              -0.0035058593750000007
            ],
            [
              0.003544921875,
              -0.0035058593750000007
            ],
            [
              0.003544921875,
              -0.0034765624999999996
            ],
            [
              0.0035546874999999997,
              -0.0034765624999999996
            ],
            [
              0.0035546874999999997,
              -0.0034375000000000005
            ],
            [
              0.003544921875,
              -0.0034375000000000005
            ],
            [
              0.003544921875,
              -0.003369140625
            ],
            [
              0.00353515625,
              -0.003369140625
            ],
            [
              0.00353515625,
              -0.0033300781249999993
            ],
            [
              0.0035253906250000003,
              -0.0033300781249999993
            ],
            [
              0.0035253906250000003,
              -0.00330078125
            ],
            [
              0.0035156250000000005,
              -0.00330078125
            ],
            [
              0.0035156250000000005,
              -0.003291015625
            ],
            [
              0.0035058593750000007,
              -0.003291015625
            ],
            [
              0.0035058593750000007,
              -0.0032812500000000003
            ],
            [
              0.0034765624999999996,
              -0.0032812500000000003
            ],
            [
              0.0034765624999999996,
              -0.0032714843750000005
            ],
            [
              0.0034472656250000002,
              -0.0032714843750000005
            ],
            [
              0.0034472656250000002,
              -0.0032617187500000007
            ],
            [
              0.003417968750000001,
              -0.0032617187500000007
            ],
            [
              0.003417968750000001,
              -0.003251953124999999
            ],
            [
              0.00337890625,
              -0.003251953124999999
            ],
            [
              0.00337890625,
              -0.0032421874999999994
            ],
            [
              0.00330078125,
              -0.0032421874999999994
            ]
          ]
        ]
      },
      "properties": {
        "building_id": 0,
        "damage_tier": "no-damage",
        "confidence": 0.785
      }
    },
    {
      "type": "Feature",
      "geometry": {
        "type": "Polygon",
        "coordinates": [
          [
            [
              -0.004951171875,
              -0.0042480468750000005
            ],
            [
              -0.004951171875,
              -0.0042578125
            ],
            [
              -0.0049609375,
              -0.0042578125
            ],
            [
              -0.0049609375,
              -0.004267578125
            ],
            [
              -0.004970703125,
              -0.004267578125
            ],
            [
              -0.004970703125,
              -0.004306640624999999
            ],
            [
              -0.0049804687500000005,
              -0.004306640624999999
            ],
            [
              -0.0049804687500000005,
              -0.004326171875000001
            ],
            [
              -0.004970703125,
              -0.004326171875000001
            ],
            [
              -0.004970703125,
              -0.004365234375
            ],
            [
              -0.0049609375,
              -0.004365234375
            ],
            [
              -0.0049609375,
              -0.004384765624999999
            ],
            [
              -0.004951171875,
              -0.004384765624999999
            ],
            [
              -0.004951171875,
              -0.004404296875000001
            ],
            [
              -0.0049609375,
              -0.004404296875000001
            ],
            [
              -0.0049609375,
              -0.0044140625000000005
            ],
            [
              -0.004970703125,
              -0.0044140625000000005
            ],
            [
              -0.004970703125,
              -0.00443359375
            ],
            [
              -0.0049804687500000005,
              -0.00443359375
            ],
            [
              -0.0049804687500000005,
              -0.004443359375
            ],
            [
              -0.005,
              -0.004443359375
            ],
            [
              -0.005,
              -0.004521484375
            ],
            [
              -0.0049804687500000005,
              -0.004521484375
            ],
            [
              -0.0049804687500000005,
              -0.00453125
            ],
            [
              -0.004970703125,
              -0.00453125
            ],
            [
              -0.004970703125,
              -0.004550781249999999
            ],
            [
              -0.0049609375,
              -0.004550781249999999
            ],
            [
              -0.0049609375,
              -0.004560546875000001
            ],
            [
              -0.004951171875,
              -0.004560546875000001
            ],
            [
              -0.004951171875,
              -0.004580078125
            ],
            [
              -0.004931640625,
              -0.004580078125
            ],
            [
              -0.004931640625,
              -0.004570312500000001
            ],
            [
              -0.004921875,
              -0.004570312500000001
            ],
            [
              -0.004921875,
              -0.004560546875000001
            ],
            [
              -0.004892578125,
              -0.004560546875000001
            ],
            [
              -0.004892578125,
              -0.004550781249999999
            ],
            [
              -0.0048828125,
              -0.004550781249999999
            ],
            [
              -0.0048828125,
              -0.0045410156249999995
            ],
            [
              -0.00486328125,
              -0.0045410156249999995
            ],
            [
              -0.00486328125,
              -0.00453125
            ],
            [
              -0.004853515625,
              -0.00453125
            ],
            [
              -0.004853515625,
              -0.004521484375
            ],
            [
              -0.00484375,
              -0.004521484375
            ],
            [
              -0.00484375,
              -0.004482421875000001
            ],
            [
              -0.004833984375,
              -0.004482421875000001
            ],
            [
              -0.004833984375,
              -0.004394531250000001
            ],
            [
              -0.00484375,
              -0.004394531250000001
            ],
            [
              -0.00484375,
              -0.004384765624999999
            ],
            [
              -0.0049023437500000005,
              -0.004384765624999999
            ],
            [
              -0.0049023437500000005,
              -0.0043749999999999995
            ],
            [
              -0.004912109375,
              -0.0043749999999999995
            ],
            [
              -0.004912109375,
              -0.004345703125
            ],
            [
              -0.0049023437500000005,
              -0.004345703125
            ],
            [
              -0.0049023437500000005,
              -0.0042968749999999995
            ],
            [
              -0.004912109375,
              -0.0042968749999999995
            ],
            [
              -0.004912109375,
              -0.00427734375
            ],
            [
              -0.004921875,
              -0.00427734375
            ],
            [
              -0.004921875,
              -0.0042578125
            ],
            [
              -0.004931640625,
              -0.0042578125
            ],
            [
              -0.004931640625,
              -0.0042480468750000005
            ],
            [
              -0.004951171875,
              -0.0042480468750000005
            ]
          ]
        ]
      },
      "properties": {
        "building_id": 1,
        "damage_tier": "no-damage",
        "confidence": 0.763
      }
    },
    {
      "type": "Feature",
      "geometry": {
        "type": "Polygon",
        "coordinates": [
          [
            [
              -0.004951171875,
              -0.004609375
            ],
            [
              -0.004951171875,
              -0.0046191406249999995
            ],
            [
              -0.0049609375,
              -0.0046191406249999995
            ],
            [
              -0.0049609375,
              -0.004638671875000001
            ],
            [
              -0.004970703125,
              -0.004638671875000001
            ],
            [
              -0.004970703125,
              -0.0046582031250000005
            ],
            [
              -0.0049804687500000005,
              -0.0046582031250000005
            ],
            [
              -0.0049804687500000005,
              -0.00466796875
            ],
            [
              -0.005,
              -0.00466796875
            ],
            [
              -0.005,
              -0.004853515625
            ],
            [
              -0.0049609375,
              -0.004853515625
            ],
            [
              -0.0049609375,
              -0.0048632812499999995
            ],
            [
              -0.004931640625,
              -0.0048632812499999995
            ],
            [
              -0.004931640625,
              -0.00484375
            ],
            [
              -0.004921875,
              -0.00484375
            ],
            [
              -0.004921875,
              -0.00482421875
            ],
            [
              -0.004912109375,
              -0.00482421875
            ],
            [
              -0.004912109375,
              -0.004804687500000001
            ],
            [
              -0.0049023437500000005,
              -0.004804687500000001
            ],
            [
              -0.0049023437500000005,
              -0.004794921874999999
            ],
            [
              -0.004892578125,
              -0.004794921874999999
            ],
            [
              -0.004892578125,
              -0.004707031249999999
            ],
            [
              -0.0049023437500000005,
              -0.004707031249999999
            ],
            [
              -0.0049023437500000005,
              -0.004677734375
            ],
            [
              -0.004912109375,
              -0.004677734375
            ],
            [
              -0.004912109375,
              -0.0046582031250000005
            ],
            [
              -0.004921875,
              -0.0046582031250000005
            ],
            [
              -0.004921875,
              -0.004638671875000001
            ],
            [
              -0.004931640625,
              -0.004638671875000001
            ],
            [
              -0.004931640625,
              -0.0046191406249999995
            ],
            [
              -0.0049414062500000005,
              -0.0046191406249999995
            ],
            [
              -0.0049414062500000005,
              -0.004609375
            ],
            [
              -0.004951171875,
              -0.004609375
            ]
          ]
        ]
      },
      "properties": {
        "building_id": 2,
        "damage_tier": "no-damage",
        "confidence": 0.787
      }
    },
    {
      "type": "Feature",
      "geometry": {
        "type": "Polygon",
        "coordinates": [
          [
            [
              -0.0032812500000000003,
              -0.004404296875000001
            ],
            [
              -0.0032812500000000003,
              -0.0044140625000000005
            ],
            [
              -0.0034765625,
              -0.0044140625000000005
            ],
            [
              -0.0034765625,
              -0.004423828125
            ],
            [
              -0.0034863281250000003,
              -0.004423828125
            ],
            [
              -0.0034863281250000003,
              -0.00443359375
            ],
            [
              -0.003505859375,
              -0.00443359375
            ],
            [
              -0.003505859375,
              -0.004453125
            ],
            [
              -0.003515625,
              -0.004453125
            ],
            [
              -0.003515625,
              -0.004472656250000001
            ],
            [
              -0.0035253906250000003,
              -0.004472656250000001
            ],
            [
              -0.0035253906250000003,
              -0.00451171875
            ],
            [
              -0.00353515625,
              -0.00451171875
            ],
            [
              -0.00353515625,
              -0.004550781249999999
            ],
            [
              -0.003544921875,
              -0.004550781249999999
            ],
            [
              -0.003544921875,
              -0.004599609375
            ],
            [
              -0.0035546875,
              -0.004599609375
            ],
            [
              -0.0035546875,
              -0.004648437500000001
            ],
            [
              -0.0035644531250000003,
              -0.004648437500000001
            ],
            [
              -0.0035644531250000003,
              -0.004697265625
            ],
            [
              -0.00357421875,
              -0.004697265625
            ],
            [
              -0.00357421875,
              -0.0047363281250000005
            ],
            [
              -0.003583984375,
              -0.0047363281250000005
            ],
            [
              -0.003583984375,
              -0.004804687500000001
            ],
            [
              -0.00357421875,
              -0.004804687500000001
            ],
            [
              -0.00357421875,
              -0.004833984375
            ],
            [
              -0.0035644531250000003,
              -0.004833984375
            ],
            [
              -0.0035644531250000003,
              -0.00484375
            ],
            [
              -0.003544921875,
              -0.00484375
            ],
            [
              -0.003544921875,
              -0.004853515625
            ],
            [
              -0.003515625,
              -0.004853515625
            ],
            [
              -0.003515625,
              -0.00484375
            ],
            [
              -0.00345703125,
              -0.00484375
            ],
            [
              -0.00345703125,
              -0.004853515625
            ],
            [
              -0.0034375,
              -0.004853515625
            ],
            [
              -0.0034375,
              -0.00484375
            ],
            [
              -0.00341796875,
              -0.00484375
            ],
            [
              -0.00341796875,
              -0.004853515625
            ],
            [
              -0.00337890625,
              -0.004853515625
            ],
            [
              -0.00337890625,
              -0.0048632812499999995
            ],
            [
              -0.003369140625,
              -0.0048632812499999995
            ],
            [
              -0.003369140625,
              -0.004892578125000001
            ],
            [
              -0.0033593750000000004,
              -0.004892578125000001
            ],
            [
              -0.0033593750000000004,
              -0.0049023437500000005
            ],
            [
              -0.003369140625,
              -0.0049023437500000005
            ],
            [
              -0.003369140625,
              -0.004912109375
            ],
            [
              -0.00337890625,
              -0.004912109375
            ],
            [
              -0.00337890625,
              -0.004921875
            ],
            [
              -0.0033886718749999998,
              -0.004921875
            ],
            [
              -0.0033886718749999998,
              -0.004951171874999999
            ],
            [
              -0.00337890625,
              -0.004951171874999999
            ],
            [
              -0.00337890625,
              -0.004960937500000001
            ],
            [
              -0.0033593750000000004,
              -0.004960937500000001
            ],
            [
              -0.0033593750000000004,
              -0.004970703125000001
            ],
            [
              -0.00330078125,
              -0.004970703125000001
            ],
            [
              -0.00330078125,
              -0.004960937500000001
            ],
            [
              -0.0032812500000000003,
              -0.004960937500000001
            ],
            [
              -0.0032812500000000003,
              -0.004931640625
            ],
            [
              -0.003291015625,
              -0.004931640625
            ],
            [
              -0.003291015625,
              -0.004921875
            ],
            [
              -0.00330078125,
              -0.004921875
            ],
            [
              -0.00330078125,
              -0.004912109375
            ],
            [
              -0.003310546875,
              -0.004912109375
            ],
            [
              -0.003310546875,
              -0.0049023437500000005
            ],
            [
              -0.003291015625,
              -0.0049023437500000005
            ],
            [
              -0.003291015625,
              -0.004892578125000001
            ],
            [
              -0.0030859375,
              -0.004892578125000001
            ],
            [
              -0.0030859375,
              -0.004882812500000001
            ],
            [
              -0.003056640625,
              -0.004882812500000001
            ],
            [
              -0.003056640625,
              -0.004873046874999999
            ],
            [
              -0.003037109375,
              -0.004873046874999999
            ],
            [
              -0.003037109375,
              -0.0048632812499999995
            ],
            [
              -0.00302734375,
              -0.0048632812499999995
            ],
            [
              -0.00302734375,
              -0.004853515625
            ],
            [
              -0.003017578125,
              -0.004853515625
            ],
            [
              -0.003017578125,
              -0.00484375
            ],
            [
              -0.0030078125,
              -0.00484375
            ],
            [
              -0.0030078125,
              -0.004833984375
            ],
            [
              -0.0029980468750000003,
              -0.004833984375
            ],
            [
              -0.0029980468750000003,
              -0.00482421875
            ],
            [
              -0.00298828125,
              -0.00482421875
            ],
            [
              -0.00298828125,
              -0.004814453125000001
            ],
            [
              -0.0029785156250000003,
              -0.004814453125000001
            ],
            [
              -0.0029785156250000003,
              -0.004804687500000001
            ],
            [
              -0.00296875,
              -0.004804687500000001
            ],
            [
              -0.00296875,
              -0.0047851562499999995
            ],
            [
              -0.0029589843750000002,
              -0.0047851562499999995
            ],
            [
              -0.0029589843750000002,
              -0.004765625
            ],
            [
              -0.00294921875,
              -0.004765625
            ],
            [
              -0.00294921875,
              -0.00474609375
            ],
            [
              -0.0029394531250000002,
              -0.00474609375
            ],
            [
              -0.0029394531250000002,
              -0.004697265625
            ],
            [
              -0.00294921875,
              -0.004697265625
            ],
            [
              -0.00294921875,
              -0.004677734375
            ],
            [
              -0.0029589843750000002,
              -0.004677734375
            ],
            [
              -0.0029589843750000002,
              -0.0046582031250000005
            ],
            [
              -0.00296875,
              -0.0046582031250000005
            ],
            [
              -0.00296875,
              -0.004638671875000001
            ],
            [
              -0.0029785156250000003,
              -0.004638671875000001
            ],
            [
              -0.0029785156250000003,
              -0.004628906249999999
            ],
            [
              -0.00298828125,
              -0.004628906249999999
            ],
            [
              -0.00298828125,
              -0.0046191406249999995
            ],
            [
              -0.00302734375,
              -0.0046191406249999995
            ],
            [
              -0.00302734375,
              -0.004609375
            ],
            [
              -0.003037109375,
              -0.004609375
            ],
            [
              -0.003037109375,
              -0.0046191406249999995
            ],
            [
              -0.0030761718750000003,
              -0.0046191406249999995
            ],
            [
              -0.0030761718750000003,
              -0.004609375
            ],
            [
              -0.00310546875,
              -0.004609375
            ],
            [
              -0.00310546875,
              -0.004599609375
            ],
            [
              -0.0031152343750000004,
              -0.004599609375
            ],
            [
              -0.0031152343750000004,
              -0.004580078125
            ],
            [
              -0.003125,
              -0.004580078125
            ],
            [
              -0.003125,
              -0.004462890624999999
            ],
            [
              -0.003134765625,
              -0.004462890624999999
            ],
            [
              -0.003134765625,
              -0.004453125
            ],
            [
              -0.0031445312499999998,
              -0.004453125
            ],
            [
              -0.0031445312499999998,
              -0.004443359375
            ],
            [
              -0.003154296875,
              -0.004443359375
            ],
            [
              -0.003154296875,
              -0.00443359375
            ],
            [
              -0.003173828125,
              -0.00443359375
            ],
            [
              -0.003173828125,
              -0.004423828125
            ],
            [
              -0.003193359375,
              -0.004423828125
            ],
            [
              -0.003193359375,
              -0.0044140625000000005
            ],
            [
              -0.003251953125,
              -0.0044140625000000005
            ],
            [
              -0.003251953125,
              -0.004404296875000001
            ],
            [
              -0.0032812500000000003,
              -0.004404296875000001
            ]
          ]
        ]
      },
      "properties": {
        "building_id": 3,
        "damage_tier": "no-damage",
        "confidence": 0.856
      }
    }
  ]
}