{
  "type": "FeatureCollection",
  "features": [
    {
      "type": "Feature",
      "geometry": {
        "type": "Polygon",
        "coordinates": [
          [
            [
              0.009863281250000001,
              -0.018457031250000006
            ],
            [
              0.009863281250000001,
              -0.0185546875
            ],
            [
              0.009570312499999997,
              -0.0185546875
            ],
            [
              0.009570312499999997,
              -0.018652343749999994
            ],
            [
              0.009472656250000003,
              -0.018652343749999994
            ],
            [
              0.009472656250000003,
              -0.018750000000000003
            ],
            [
              0.009375000000000001,
              -0.018750000000000003
            ],
            [
              0.009375000000000001,
              -0.018945312500000006
            ],
            [
              0.00927734375,
              -0.018945312500000006
            ],
            [
              0.00927734375,
              -0.019140624999999994
            ],
            [
              0.009375000000000001,
              -0.019140624999999994
            ],
            [
              0.009375000000000001,
              -0.019433593750000006
            ],
            [
              0.009570312499999997,
              -0.019433593750000006
            ],
            [
              0.009570312499999997,
              -0.01953125
            ],
            [
              0.009863281250000001,
              -0.01953125
            ],
            [
              0.009863281250000001,
              -0.019628906249999994
            ],
            [
              0.010058593749999997,
              -0.019628906249999994
            ],
            [
              0.010058593749999997,
              -0.019726562500000003
            ],
            [
              0.01025390625,
              -0.019726562500000003
            ],
            [
              0.01025390625,
              -0.019824218749999997
            ],
            [
              0.01123046875,
              -0.019824218749999997
            ],
            [
              0.01123046875,
              -0.019921875000000006
            ],
            [
              0.011328125000000001,
              -0.019921875000000006
            ],
            [
              0.011328125000000001,
              -0.020117187499999994
            ],
            [
              0.011425781250000003,
              -0.020117187499999994
            ],
            [
              0.011425781250000003,
              -0.020214843750000003
            ],
            [
              0.011621093749999999,
              -0.020214843750000003
            ],
            [
              0.011621093749999999,
              -0.020312499999999997
            ],
            [
              0.011816406250000001,
              -0.020312499999999997
            ],
            [
              0.011816406250000001,
              -0.020410156250000006
            ],
            [
              0.012109374999999999,
              -0.020410156250000006
            ],
            [
              0.012109374999999999,
              -0.020312499999999997
            ],
            [
              0.012402343750000003,
              -0.020312499999999997
            ],
            [
              0.012402343750000003,
              -0.020214843750000003
            ],
            [
              0.0126953125,
              -0.020214843750000003
            ],
            [
              0.0126953125,
              -0.020117187499999994
            ],
            [
              0.012890625000000003,
              -0.020117187499999994
            ],
            [
              0.012890625000000003,
              -0.019921875000000006
            ],
            [
              0.012988281249999997,
              -0.019921875000000006
            ],
            [
              0.012988281249999997,
              -0.019824218749999997
            ],
            [
              0.013085937500000006,
              -0.019824218749999997
            ],
            [
              0.013085937500000006,
              -0.01953125
            ],
            [
              0.012988281249999997,
              -0.01953125
            ],
            [
              0.012988281249999997,
              -0.019433593750000006
            ],
            [
              0.012890625000000003,
              -0.019433593750000006
            ],
            [
              0.012890625000000003,
              -0.019238281250000003
            ],
            [
              0.012792968749999994,
              -0.019238281250000003
            ],
            [
              0.012792968749999994,
              -0.018945312500000006
            ],
            [
              0.012597656250000006,
              -0.018945312500000006
            ],
            [
              0.012597656250000006,
              -0.018847656249999997
            ],
            [
              0.012402343750000003,
              -0.018847656249999997
            ],
            [
              0.012402343750000003,
              -0.018750000000000003
            ],
            [
              0.01220703125,
              -0.018750000000000003
            ],
            [
              0.01220703125,
              -0.018652343749999994
            ],
            [
              0.011621093749999999,
              -0.018652343749999994
            ],
            [
              0.011621093749999999,
              -0.018750000000000003
            ],
            [
              0.011425781250000003,
              -0.018750000000000003
            ],
            [
              0.011425781250000003,
              -0.018847656249999997
            ],
            [
              0.011328125000000001,
              -0.018847656249999997
            ],
            [
              0.011328125000000001,
              -0.019140624999999994
            ],
            [
              0.01123046875,
              -0.019140624999999994
            ],
            [
              0.01123046875,
              -0.019433593750000006
            ],
            [
              0.010937500000000003,
              -0.019433593750000006
            ],
            [
              0.010937500000000003,
              -0.019335937499999997
            ],
            [
              0.010839843750000001,
              -0.019335937499999997
            ],
            [
              0.010839843750000001,
              -0.019238281250000003
            ],
            [
              0.010644531249999999,
              -0.019238281250000003
            ],
            [
              0.010644531249999999,
              -0.019140624999999994
            ],
            [
              0.010449218750000003,
              -0.019140624999999994
            ],
            [
              0.010449218750000003,
              -0.01904296875
            ],
            [
              0.01025390625,
              -0.01904296875
            ],
            [
              0.01025390625,
              -0.0185546875
            ],
            [
              0.010058593749999997,
              -0.0185546875
            ],
            [
              0.010058593749999997,
              -0.018457031250000006
            ],
            [
              0.009863281250000001,
              -0.018457031250000006
            ]
          ]
        ]
      },
      "properties": {
        "building_id": 0,
        "damage_tier": "destroyed",
        "confidence": 0.875
      }
    }
  ]
}