{
  "type": "FeatureCollection",
  "features": [
    {
      "type": "Feature",
      "geometry": {
        "type": "Polygon",
        "coordinates": [
          [
            [
              85.444929296875,
              27.76255625
            ],
            [
              85.444929296875,
              27.762526953125
            ],
            [
              85.44489999999999,
              27.762526953125
            ],
            [
              85.44489999999999,
              27.762468359375
            ],
            [
              85.444929296875,
              27.762468359375
            ],
            [
              85.444929296875,
              27.7624390625
            ],
            [
              85.4450171875,
              27.7624390625
            ],
            [
              85.4450171875,
              27.762468359375
            ],
            [
              85.44507578125,
              27.762468359375
            ],
            [
              85.44507578125,
              27.762526953125
            ],
            [
              85.4450171875,
              27.762526953125
            ],
            [
              85.4450171875,
              27.76255625
            ],
            [
              85.444929296875,
              27.76255625
            ]
          ]
        ]
      },
      "properties": {
        "building_id": 0,
        "damage_tier": "no-damage",
        "confidence": 0.891
      }
    },
    {
      "type": "Feature",
      "geometry": {
        "type": "Polygon",
        "coordinates": [
          [
            [
              85.44366953125,
              27.76156015625
            ],
            [
              85.44366953125,
              27.7615015625
            ],
            [
              85.443640234375,
              27.7615015625
            ],
            [
              85.443640234375,
              27.761472265625002
            ],
            [
              85.4436109375,
              27.761472265625002
            ],
            [
              85.4436109375,
              27.761413671875
            ],
            [
              85.443640234375,
              27.761413671875
            ],
            [
              85.443640234375,
              27.761384375000002
            ],
            [
              85.443698828125,
              27.761384375000002
            ],
            [
              85.443698828125,
              27.761413671875
            ],
            [
              85.44378671874999,
              27.761413671875
            ],
            [
              85.44378671874999,
              27.76144296875
            ],
            [
              85.443816015625,
              27.76144296875
            ],
            [
              85.443816015625,
              27.761472265625002
            ],
            [
              85.44378671874999,
              27.761472265625002
            ],
            [
              85.44378671874999,
              27.76156015625
            ],
            [
              85.44366953125,
              27.76156015625
            ]
          ]
        ]
      },
      "properties": {
        "building_id": 1,
        "damage_tier": "no-damage",
        "confidence": 0.509
      }
    },
    {
      "type": "Feature",
      "geometry": {
        "type": "Polygon",
        "coordinates": [
          [
            [
              85.46581796875,
              27.762468359375
            ],
            [
              85.46581796875,
              27.7624390625
            ],
            [
              85.465759375,
              27.7624390625
            ],
            [
              85.465759375,
              27.762409765625
            ],
            [
              85.46570078124999,
              27.762409765625
            ],
            [
              85.46570078124999,
              27.76238046875
            ],
            [
              85.465671484375,
              27.76238046875
            ],
            [
              85.465671484375,
              27.762351171875
            ],
            [
              85.4656421875,
              27.762351171875
            ],
            [
              85.4656421875,
              27.762321875
            ],
            [
              85.465612890625,
              27.762321875
            ],
            [
              85.465612890625,
              27.762292578125
            ],
            [
              85.46558359375,
              27.762292578125
            ],
            [
              85.46558359375,
              27.76226328125
            ],
            [
              85.465554296875,
              27.76226328125
            ],
            [
              85.465554296875,
              27.762175390625
            ],
            [
              85.465525,
              27.762175390625
            ],
            [
              85.465525,
              27.762116796875002
            ],
            [
              85.465495703125,
              27.762116796875002
            ],
            [
              85.465495703125,
              27.762058203125
            ],
            [
              85.46546640625,
              27.762058203125
            ],
            [
              85.46546640625,
              27.762028906250002
            ],
            [
              85.4654078125,
              27.762028906250002
            ],
            [
              85.4654078125,
              27.761999609375
            ],
            [
              85.46537851562499,
              27.761999609375
            ],
            [
              85.46537851562499,
              27.7619703125
            ],
            [
              85.465319921875,
              27.7619703125
            ],
            [
              85.465319921875,
              27.761941015625002
            ],
            [
              85.465261328125,
              27.761941015625002
            ],
            [
              85.465261328125,
              27.76191171875
            ],
            [
              85.46523203125,
              27.76191171875
            ],
            [
              85.46523203125,
              27.761823828125
            ],
            [
              85.465202734375,
              27.761823828125
            ],
            [
              85.465202734375,
              27.761589453125
            ],
            [
              85.4651734375,
              27.761589453125
            ],
            [
              85.4651734375,
              27.761530859375
            ],
            [
              85.465144140625,
              27.761530859375
            ],
            [
              85.465144140625,
              27.7615015625
            ],
            [
              85.46511484375,
              27.7615015625
            ],
            [
              85.46511484375,
              27.761472265625002
            ],
            [
              85.464909765625,
              27.761472265625002
            ],
            [
              85.464909765625,
              27.7615015625
            ],
            [
              85.46488046875,
              27.7615015625
            ],
            [
              85.46488046875,
              27.761472265625002
            ],
            [
              85.464821875,
              27.761472265625002
            ],
            [
              85.464821875,
              27.76144296875
            ],
            [
              85.46476328125,
              27.76144296875
            ],
            [
              85.46476328125,
              27.761413671875
            ],
            [
              85.464733984375,
              27.761413671875
            ],
            [
              85.464733984375,
              27.761384375000002
            ],
            [
              85.4647046875,
              27.761384375000002
            ],
            [
              85.4647046875,
              27.761237890625
            ],
            [
              85.464733984375,
              27.761237890625
            ],
            [
              85.464733984375,
              27.761179296875
            ],
            [
              85.464792578125,
              27.761179296875
            ],
            [
              85.464792578125,
              27.76115
            ],
            [
              85.464851171875,
              27.76115
            ],
            [
              85.464851171875,
              27.761120703125002
            ],
            [
              85.4649390625,
              27.761120703125002
            ],
            [
              85.4649390625,
              27.76115
            ],
            [
              85.465026953125,
              27.76115
            ],
            [
              85.465026953125,
              27.761179296875
            ],
            [
              85.46505625,
              27.761179296875
            ],
            [
              85.46505625,
              27.761208593750002
            ],
            [
              85.46511484375,
              27.761208593750002
            ],
            [
              85.46511484375,
              27.7612671875
            ],
            [
              85.465144140625,
              27.7612671875
            ],
            [
              85.465144140625,
              27.761296484375002
            ],
            [
              85.46523203125,
              27.761296484375002
            ],
            [
              85.46523203125,
              27.76132578125
            ],
            [
              85.465261328125,
              27.76132578125
            ],
            [
              85.465261328125,
              27.761413671875
            ],
            [
              85.465290625,
              27.761413671875
            ],
            [
              85.465290625,
              27.76156015625
            ],
            [
              85.465319921875,
              27.76156015625
            ],
            [
              85.465319921875,
              27.761589453125
            ],
            [
              85.46537851562499,
              27.761589453125
            ],
            [
              85.46537851562499,
              27.76156015625
            ],
            [
              85.4654078125,
              27.76156015625
            ],
            [
              85.4654078125,
              27.761530859375
            ],
            [
              85.465495703125,
              27.761530859375
            ],
            [
              85.465495703125,
              27.7615015625
            ],
            [
              85.465554296875,
              27.7615015625
            ],
            [
              85.465554296875,
              27.761472265625002
            ],
            [
              85.46573007812499,
              27.761472265625002
            ],
            [
              85.46573007812499,
              27.7615015625
            ],
            [
              85.465788671875,
              27.7615015625
            ],
            [
              85.465788671875,
              27.761530859375
            ],
            [
              85.4658765625,
              27.761530859375
            ],
            [
              85.4658765625,
              27.76156015625
            ],
            [
              85.46593515625,
              27.76156015625
            ],
            [
              85.46593515625,
              27.761648046875
            ],
            [
              85.465964453125,
              27.761648046875
            ],
            [
              85.465964453125,
              27.761882421875
            ],
            [
              85.46599375,
              27.761882421875
            ],
            [
              85.46599375,
              27.7619703125
            ],
            [
              85.466023046875,
              27.7619703125
            ],
            [
              85.466023046875,
              27.761999609375
            ],
            [
              85.46605234375,
              27.761999609375
            ],
            [
              85.46605234375,
              27.762028906250002
            ],
            [
              85.46608164062499,
              27.762028906250002
            ],
            [
              85.46608164062499,
              27.761999609375
            ],
            [
              85.46616953125,
              27.761999609375
            ],
            [
              85.46616953125,
              27.761941015625002
            ],
            [
              85.466198828125,
              27.761941015625002
            ],
            [
              85.466198828125,
              27.761882421875
            ],
            [
              85.466228125,
              27.761882421875
            ],
            [
              85.466228125,
              27.761853125000002
            ],
            [
              85.466257421875,
              27.761853125000002
            ],
            [
              85.466257421875,
              27.761823828125
            ],
            [
              85.46628671875,
              27.761823828125
            ],
            [
              85.46628671875,
              27.76179453125
            ],
            [
              85.466374609375,
              27.76179453125
            ],
            [
              85.466374609375,
              27.761765234375
            ],
            [
              85.466491796875,
              27.761765234375
            ],
            [
              85.466491796875,
              27.76179453125
            ],
            [
              85.4665796875,
              27.76179453125
            ],
            [
              85.4665796875,
              27.761853125000002
            ],
            [
              85.466608984375,
              27.761853125000002
            ],
            [
              85.466608984375,
              27.76191171875
            ],
            [
              85.46663828125,
              27.76191171875
            ],
            [
              85.46663828125,
              27.761941015625002
            ],
            [
              85.466667578125,
              27.761941015625002
            ],
            [
              85.466667578125,
              27.761999609375
            ],
            [
              85.466696875,
              27.761999609375
            ],
            [
              85.466696875,
              27.762175390625
            ],
            [
              85.466667578125,
              27.762175390625
            ],
            [
              85.466667578125,
              27.76226328125
            ],
            [
              85.466608984375,
              27.76226328125
            ],
            [
              85.466608984375,
              27.762292578125
            ],
            [
              85.46652109375,
              27.762292578125
            ],
            [
              85.46652109375,
              27.762321875
            ],
            [
              85.46646249999999,
              27.762321875
            ],
            [
              85.46646249999999,
              27.762351171875
            ],
            [
              85.46643320312499,
              27.762351171875
            ],
            [
              85.46643320312499,
              27.76238046875
            ],
            [
              85.466140234375,
              27.76238046875
            ],
            [
              85.466140234375,
              27.762409765625
            ],
            [
              85.46608164062499,
              27.762409765625
            ],
            [
              85.46608164062499,
              27.7624390625
            ],
            [
              85.46599375,
              27.7624390625
            ],
            [
              85.46599375,
              27.762468359375
            ],
            [
              85.46581796875,
              27.762468359375
            ]
          ]
        ]
      },
      "properties": {
        "building_id": 2,
        "damage_tier": "no-damage",
        "confidence": 0.97
      }
    },
    {
      "type": "Feature",
      "geometry": {
        "type": "Polygon",
        "coordinates": [
          [
            [
              85.445163671875,
              27.761648046875
            ],
            [
              85.445163671875,
              27.761589453125
            ],
            [
              85.445134375,
              27.761589453125
            ],
            [
              85.445134375,
              27.7612671875
            ],
            [
              85.445163671875,
              27.7612671875
            ],
            [
              85.445163671875,
              27.76109140625
            ],
            [
              85.445280859375,
              27.76109140625
            ],
            [
              85.445280859375,
              27.761120703125002
            ],
            [
              85.44531015625,
              27.761120703125002
            ],
            [
              85.44531015625,
              27.761179296875
            ],
            [
              85.445339453125,
              27.761179296875
            ],
            [
              85.445339453125,
              27.761296484375002
            ],
            [
              85.44536875,
              27.761296484375002
            ],
            [
              85.44536875,
              27.7615015625
            ],
            [
              85.445339453125,
              27.7615015625
            ],
            [
              85.445339453125,
              27.761589453125
            ],
            [
              85.44531015625,
              27.761589453125
            ],
            [
              85.44531015625,
              27.76161875
            ],
            [
              85.44525156249999,
              27.76161875
            ],
            [
              85.44525156249999,
              27.761648046875
            ],
            [
              85.445163671875,
              27.761648046875
            ]
          ]
        ]
      },
      "properties": {
        "building_id": 3,
        "damage_tier": "no-damage",
        "confidence": 0.987
      }
    },
    {
      "type": "Feature",
      "geometry": {
        "type": "Polygon",
        "coordinates": [
          [
            [
              85.464821875,
              27.760769140625
            ],
            [
              85.464821875,
              27.76068125
            ],
            [
              85.464851171875,
              27.76068125
            ],
            [
              85.464851171875,
              27.760564062500002
            ],
            [
              85.46488046875,
              27.760564062500002
            ],
            [
              85.46488046875,
              27.76050546875
            ],
            [
              85.464909765625,
              27.76050546875
            ],
            [
              85.464909765625,
              27.760564062500002
            ],
            [
              85.4649390625,
              27.760564062500002
            ],
            [
              85.4649390625,
              27.760593359375
            ],
            [
              85.46496835937499,
              27.760593359375
            ],
            [
              85.46496835937499,
              27.76062265625
            ],
            [
              85.46499765624999,
              27.76062265625
            ],
            [
              85.46499765624999,
              27.760739843750002
            ],
            [
              85.46496835937499,
              27.760739843750002
            ],
            [
              85.46496835937499,
              27.760769140625
            ],
            [
              85.464821875,
              27.760769140625
            ]
          ]
        ]
      },
      "properties": {
        "building_id": 4,
        "damage_tier": "no-damage",
        "confidence": 0.948
      }
    },
    {
      "type": "Feature",
      "geometry": {
        "type": "Polygon",
        "coordinates": [
          [
            [
              85.441296484375,
              27.759831640625002
            ],
            [
              85.441296484375,
              27.75968515625
            ],
            [
              85.4412671875,
              27.75968515625
            ],
            [
              85.4412671875,
              27.759655859375002
            ],
            [
              85.44123789062499,
              27.759655859375002
            ],
            [
              85.44123789062499,
              27.7596265625
            ],
            [
              85.44120859374999,
              27.7596265625
            ],
            [
              85.44120859374999,
              27.759538671875
            ],
            [
              85.4412671875,
              27.759538671875
            ],
            [
              85.4412671875,
              27.759509375
            ],
            [
              85.441355078125,
              27.759509375
            ],
            [
              85.441355078125,
              27.759538671875
            ],
            [
              85.441384375,
              27.759538671875
            ],
            [
              85.441384375,
              27.759597265625
            ],
            [
              85.441355078125,
              27.759597265625
            ],
            [
              85.441355078125,
              27.75968515625
            ],
            [
              85.44132578125,
              27.75968515625
            ],
            [
              85.44132578125,
              27.759831640625002
            ],
            [
              85.441296484375,
              27.759831640625002
            ]
          ]
        ]
      },
      "properties": {
        "building_id": 5,
        "damage_tier": "no-damage",
        "confidence": 0.987
      }
    },
    {
      "type": "Feature",
      "geometry": {
        "type": "Polygon",
        "coordinates": [
          [
            [
              85.464792578125,
              27.7603296875
            ],
            [
              85.464792578125,
              27.760300390625
            ],
            [
              85.4647046875,
              27.760300390625
            ],
            [
              85.4647046875,
              27.76027109375
            ],
            [
              85.46464609374999,
              27.76027109375
            ],
            [
              85.46464609374999,
              27.760241796875
            ],
            [
              85.46461679687499,
              27.760241796875
            ],
            [
              85.46461679687499,
              27.7602125
            ],
            [
              85.4645875,
              27.7602125
            ],
            [
              85.4645875,
              27.76015390625
            ],
            [
              85.464558203125,
              27.76015390625
            ],
            [
              85.464558203125,
              27.760124609375
            ],
            [
              85.4645875,
              27.760124609375
            ],
            [
              85.4645875,
              27.7600953125
            ],
            [
              85.46461679687499,
              27.7600953125
            ],
            [
              85.46461679687499,
              27.76003671875
            ],
            [
              85.464733984375,
              27.76003671875
            ],
            [
              85.464733984375,
              27.760007421875002
            ],
            [
              85.46488046875,
              27.760007421875002
            ],
            [
              85.46488046875,
              27.759978125
            ],
            [
              85.4649390625,
              27.759978125
            ],
            [
              85.4649390625,
              27.759919531250002
            ],
            [
              85.46496835937499,
              27.759919531250002
            ],
            [
              85.46496835937499,
              27.759890234375
            ],
            [
              85.4649390625,
              27.759890234375
            ],
            [
              85.4649390625,
              27.7598609375
            ],
            [
              85.464909765625,
              27.7598609375
            ],
            [
              85.464909765625,
              27.759831640625002
            ],
            [
              85.464792578125,
              27.759831640625002
            ],
            [
              85.464792578125,
              27.75980234375
            ],
            [
              85.46461679687499,
              27.75980234375
            ],
            [
              85.46461679687499,
              27.759773046875
            ],
            [
              85.4645875,
              27.759773046875
            ],
            [
              85.4645875,
              27.759743750000002
            ],
            [
              85.464558203125,
              27.759743750000002
            ],
            [
              85.464558203125,
              27.759655859375002
            ],
            [
              85.4645875,
              27.759655859375002
            ],
            [
              85.4645875,
              27.7596265625
            ],
            [
              85.46461679687499,
              27.7596265625
            ],
            [
              85.46461679687499,
              27.759597265625
            ],
            [
              85.46464609374999,
              27.759597265625
            ],
            [
              85.46464609374999,
              27.75956796875
            ],
            [
              85.464675390625,
              27.75956796875
            ],
            [
              85.464675390625,
              27.759480078125
            ],
            [
              85.4647046875,
              27.759480078125
            ],
            [
              85.4647046875,
              27.75933359375
            ],
            [
              85.464733984375,
              27.75933359375
            ],
            [
              85.464733984375,
              27.759304296875
            ],
            [
              85.464792578125,
              27.759304296875
            ],
            [
              85.464792578125,
              27.759275000000002
            ],
            [
              85.464821875,
              27.759275000000002
            ],
            [
              85.464821875,
              27.759245703125
            ],
            [
              85.464851171875,
              27.759245703125
            ],
            [
              85.464851171875,
              27.75921640625
            ],
            [
              85.465026953125,
              27.75921640625
            ],
            [
              85.465026953125,
              27.759245703125
            ],
            [
              85.46505625,
              27.759245703125
            ],
            [
              85.46505625,
              27.759275000000002
            ],
            [
              85.465085546875,
              27.759275000000002
            ],
            [
              85.465085546875,
              27.759304296875
            ],
            [
              85.46511484375,
              27.759304296875
            ],
            [
              85.46511484375,
              27.75933359375
            ],
            [
              85.465144140625,
              27.75933359375
            ],
            [
              85.465144140625,
              27.759362890625
            ],
            [
              85.46511484375,
              27.759362890625
            ],
            [
              85.46511484375,
              27.759597265625
            ],
            [
              85.465144140625,
              27.759597265625
            ],
            [
              85.465144140625,
              27.7596265625
            ],
            [
              85.4651734375,
              27.7596265625
            ],
            [
              85.4651734375,
              27.759655859375002
            ],
            [
              85.46523203125,
              27.759655859375002
            ],
            [
              85.46523203125,
              27.759743750000002
            ],
            [
              85.465202734375,
              27.759743750000002
            ],
            [
              85.465202734375,
              27.759831640625002
            ],
            [
              85.4651734375,
              27.759831640625002
            ],
            [
              85.4651734375,
              27.759919531250002
            ],
            [
              85.465144140625,
              27.759919531250002
            ],
            [
              85.465144140625,
              27.759948828125
            ],
            [
              85.4651734375,
              27.759948828125
            ],
            [
              85.4651734375,
              27.760066015625
            ],
            [
              85.465202734375,
              27.760066015625
            ],
            [
              85.465202734375,
              27.7600953125
            ],
            [
              85.46523203125,
              27.7600953125
            ],
            [
              85.46523203125,
              27.760124609375
            ],
            [
              85.465261328125,
              27.760124609375
            ],
            [
              85.465261328125,
              27.76015390625
            ],
            [
              85.465290625,
              27.76015390625
            ],
            [
              85.465290625,
              27.760183203125
            ],
            [
              85.46523203125,
              27.760183203125
            ],
            [
              85.46523203125,
              27.760241796875
            ],
            [
              85.465202734375,
              27.760241796875
            ],
            [
              85.465202734375,
              27.76027109375
            ],
            [
              85.465144140625,
              27.76027109375
            ],
            [
              85.465144140625,
              27.760300390625
            ],
            [
              85.46496835937499,
              27.760300390625
            ],
            [
              85.46496835937499,
              27.7603296875
            ],
            [
              85.464792578125,
              27.7603296875
            ]
          ]
        ]
      },
      "properties": {
        "building_id": 6,
        "damage_tier": "no-damage",
        "confidence": 0.846
      }
    },
    {
      "type": "Feature",
      "geometry": {
        "type": "Polygon",
        "coordinates": [
          [
            [
              85.441765234375,
              27.759099218750002
            ],
            [
              85.441765234375,
              27.759011328125002
            ],
            [
              85.44179453125,
              27.759011328125002
            ],
            [
              85.44179453125,
              27.759099218750002
            ],
            [
              85.441765234375,
              27.759099218750002
            ]
          ]
        ]
      },
      "properties": {
        "building_id": 7,
        "damage_tier": "no-damage",
        "confidence": 0.978
      }
    },
    {
      "type": "Feature",
      "geometry": {
        "type": "Polygon",
        "coordinates": [
          [
            [
              85.441413671875,
              27.759011328125002
            ],
            [
              85.441413671875,
              27.75898203125
            ],
            [
              85.44132578125,
              27.75898203125
            ],
            [
              85.44132578125,
              27.758952734375
            ],
            [
              85.441296484375,
              27.758952734375
            ],
            [
              85.441296484375,
              27.758894140625
            ],
            [
              85.4412671875,
              27.758894140625
            ],
            [
              85.4412671875,
              27.758835546875
            ],
            [
              85.441296484375,
              27.758835546875
            ],
            [
              85.441296484375,
              27.758776953125
            ],
            [
              85.44132578125,
              27.758776953125
            ],
            [
              85.44132578125,
              27.75874765625
            ],
            [
              85.441355078125,
              27.75874765625
            ],
            [
              85.441355078125,
              27.758776953125
            ],
            [
              85.44144296875,
              27.758776953125
            ],
            [
              85.44144296875,
              27.75880625
            ],
            [
              85.4415015625,
              27.75880625
            ],
            [
              85.4415015625,
              27.758835546875
            ],
            [
              85.44156015624999,
              27.758835546875
            ],
            [
              85.44156015624999,
              27.75898203125
            ],
            [
              85.4415015625,
              27.75898203125
            ],
            [
              85.4415015625,
              27.759011328125002
            ],
            [
              85.441413671875,
              27.759011328125002
            ]
          ]
        ]
      },
      "properties": {
        "building_id": 8,
        "damage_tier": "no-damage",
        "confidence": 0.972
      }
    },
    {
      "type": "Feature",
      "geometry": {
        "type": "Polygon",
        "coordinates": [
          [
            [
              85.456882421875,
              27.75898203125
            ],
            [
              85.456882421875,
              27.758952734375
            ],
            [
              85.456853125,
              27.758952734375
            ],
            [
              85.456853125,
              27.758923437500002
            ],
            [
              85.456823828125,
              27.758923437500002
            ],
            [
              85.456823828125,
              27.758894140625
            ],
            [
              85.456765234375,
              27.758894140625
            ],
            [
              85.456765234375,
              27.758835546875
            ],
            [
              85.45679453125,
              27.758835546875
            ],
            [
              85.45679453125,
              27.75880625
            ],
            [
              85.456823828125,
              27.75880625
            ],
            [
              85.456823828125,
              27.758776953125
            ],
            [
              85.456853125,
              27.758776953125
            ],
            [
              85.456853125,
              27.75874765625
            ],
            [
              85.45691171874999,
              27.75874765625
            ],
            [
              85.45691171874999,
              27.758718359375
            ],
            [
              85.45694101562499,
              27.758718359375
            ],
            [
              85.45694101562499,
              27.7586890625
            ],
            [
              85.45697031249999,
              27.7586890625
            ],
            [
              85.45697031249999,
              27.758659765625
            ],
            [
              85.457058203125,
              27.758659765625
            ],
            [
              85.457058203125,
              27.7586890625
            ],
            [
              85.4570875,
              27.7586890625
            ],
            [
              85.4570875,
              27.758776953125
            ],
            [
              85.457058203125,
              27.758776953125
            ],
            [
              85.457058203125,
              27.75886484375
            ],
            [
              85.45702890625,
              27.75886484375
            ],
            [
              85.45702890625,
              27.758894140625
            ],
            [
              85.456999609375,
              27.758894140625
            ],
            [
              85.456999609375,
              27.758923437500002
            ],
            [
              85.45697031249999,
              27.758923437500002
            ],
            [
              85.45697031249999,
              27.758952734375
            ],
            [
              85.45694101562499,
              27.758952734375
            ],
            [
              85.45694101562499,
              27.75898203125
            ],
            [
              85.456882421875,
              27.75898203125
            ]
          ]
        ]
      },
      "properties": {
        "building_id": 9,
        "damage_tier": "destroyed",
        "confidence": 0.881
      }
    },
    {
      "type": "Feature",
      "geometry": {
        "type": "Polygon",
        "coordinates": [
          [
            [
              85.46698984375,
              27.758718359375
            ],
            [
              85.46698984375,
              27.7586890625
            ],
            [
              85.466901953125,
              27.7586890625
            ],
            [
              85.466901953125,
              27.758659765625
            ],
            [
              85.46684335937499,
              27.758659765625
            ],
            [
              85.46684335937499,
              27.75863046875
            ],
            [
              85.46681406249999,
              27.75863046875
            ],
            [
              85.46681406249999,
              27.758601171875
            ],
            [
              85.466784765625,
              27.758601171875
            ],
            [
              85.466784765625,
              27.758571875
            ],
            [
              85.466696875,
              27.758571875
            ],
            [
              85.466696875,
              27.758542578125
            ],
            [
              85.46646249999999,
              27.758542578125
            ],
            [
              85.46646249999999,
              27.75851328125
            ],
            [
              85.46640390625,
              27.75851328125
            ],
            [
              85.46640390625,
              27.758483984375
            ],
            [
              85.466374609375,
              27.758483984375
            ],
            [
              85.466374609375,
              27.758425390625
            ],
            [
              85.4663453125,
              27.758425390625
            ],
            [
              85.4663453125,
              27.7583375
            ],
            [
              85.466316015625,
              27.7583375
            ],
            [
              85.466316015625,
              27.7582203125
            ],
            [
              85.46628671875,
              27.7582203125
            ],
            [
              85.46628671875,
              27.758015234375
            ],
            [
              85.466316015625,
              27.758015234375
            ],
            [
              85.466316015625,
              27.7579859375
            ],
            [
              85.4663453125,
              27.7579859375
            ],
            [
              85.4663453125,
              27.757956640625
            ],
            [
              85.46640390625,
              27.757956640625
            ],
            [
              85.46640390625,
              27.757898046875
            ],
            [
              85.46643320312499,
              27.757898046875
            ],
            [
              85.46643320312499,
              27.75781015625
            ],
            [
              85.46646249999999,
              27.75781015625
            ],
            [
              85.46646249999999,
              27.7577515625
            ],
            [
              85.466491796875,
              27.7577515625
            ],
            [
              85.466491796875,
              27.75769296875
            ],
            [
              85.46652109375,
              27.75769296875
            ],
            [
              85.46652109375,
              27.757605078125
            ],
            [
              85.466550390625,
              27.757605078125
            ],
            [
              85.466550390625,
              27.75757578125
            ],
            [
              85.4665796875,
              27.75757578125
            ],
            [
              85.4665796875,
              27.757546484375002
            ],
            [
              85.46663828125,
              27.757546484375002
            ],
            [
              85.46663828125,
              27.7575171875
            ],
            [
              85.46687265625,
              27.7575171875
            ],
            [
              85.46687265625,
              27.757546484375002
            ],
            [
              85.466960546875,
              27.757546484375002
            ],
            [
              85.466960546875,
              27.757634375000002
            ],
            [
              85.46693125,
              27.757634375000002
            ],
            [
              85.46693125,
              27.75769296875
            ],
            [
              85.466960546875,
              27.75769296875
            ],
            [
              85.466960546875,
              27.757722265625002
            ],
            [
              85.46698984375,
              27.757722265625002
            ],
            [
              85.46698984375,
              27.7577515625
            ],
            [
              85.4670484375,
              27.7577515625
            ],
            [
              85.4670484375,
              27.757780859375
            ],
            [
              85.467077734375,
              27.757780859375
            ],
            [
              85.467077734375,
              27.75781015625
            ],
            [
              85.46722421875,
              27.75781015625
            ],
            [
              85.46722421875,
              27.757839453125
            ],
            [
              85.4672828125,
              27.757839453125
            ],
            [
              85.4672828125,
              27.75786875
            ],
            [
              85.467312109375,
              27.75786875
            ],
            [
              85.467312109375,
              27.757898046875
            ],
            [
              85.4674,
              27.757898046875
            ],
            [
              85.4674,
              27.758659765625
            ],
            [
              85.46734140625,
              27.758659765625
            ],
            [
              85.46734140625,
              27.7586890625
            ],
            [
              85.4672828125,
              27.7586890625
            ],
            [
              85.4672828125,
              27.758718359375
            ],
            [
              85.46698984375,
              27.758718359375
            ]
          ]
        ]
      },
      "properties": {
        "building_id": 10,
        "damage_tier": "no-damage",
        "confidence": 0.556
      }
    },
    {
      "type": "Feature",
      "geometry": {
        "type": "Polygon",
        "coordinates": [
          [
            [
              85.460280859375,
              27.75464609375
            ],
            [
              85.460280859375,
              27.7545875
            ],
            [
              85.46031015625,
              27.7545875
            ],
            [
              85.46031015625,
              27.754616796875002
            ],
            [
              85.460339453125,
              27.754616796875002
            ],
            [
              85.460339453125,
              27.75464609375
            ],
            [
              85.460280859375,
              27.75464609375
            ]
          ]
        ]
      },
      "properties": {
        "building_id": 11,
        "damage_tier": "no-damage",
        "confidence": 0.992
      }
    },
    {
      "type": "Feature",
      "geometry": {
        "type": "Polygon",
        "coordinates": [
          [
            [
              85.446569921875,
              27.75429453125
            ],
            [
              85.446569921875,
              27.754206640625
            ],
            [
              85.44659921875,
              27.754206640625
            ],
            [
              85.44659921875,
              27.75429453125
            ],
            [
              85.446569921875,
              27.75429453125
            ]
          ]
        ]
      },
      "properties": {
        "building_id": 12,
        "damage_tier": "no-damage",
        "confidence": 0.802
      }
    },
    {
      "type": "Feature",
      "geometry": {
        "type": "Polygon",
        "coordinates": [
          [
            [
              85.44472421875,
              27.7537671875
            ],
            [
              85.44472421875,
              27.753737890625
            ],
            [
              85.444665625,
              27.753737890625
            ],
            [
              85.444665625,
              27.75370859375
            ],
            [
              85.444636328125,
              27.75370859375
            ],
            [
              85.444636328125,
              27.753679296875
            ],
            [
              85.44460703125,
              27.753679296875
            ],
            [
              85.44460703125,
              27.75365
            ],
            [
              85.444577734375,
              27.75365
            ],
            [
              85.444577734375,
              27.753620703125
            ],
            [
              85.4445484375,
              27.753620703125
            ],
            [
              85.4445484375,
              27.753562109375
            ],
            [
              85.44451914062499,
              27.753562109375
            ],
            [
              85.44451914062499,
              27.753386328125
            ],
            [
              85.4445484375,
              27.753386328125
            ],
            [
              85.4445484375,
              27.753327734375
            ],
            [
              85.444577734375,
              27.753327734375
            ],
            [
              85.444577734375,
              27.753269140625
            ],
            [
              85.44460703125,
              27.753269140625
            ],
            [
              85.44460703125,
              27.753239843750002
            ],
            [
              85.444636328125,
              27.753239843750002
            ],
            [
              85.444636328125,
              27.753210546875
            ],
            [
              85.44495859375,
              27.753210546875
            ],
            [
              85.44495859375,
              27.753239843750002
            ],
            [
              85.444987890625,
              27.753239843750002
            ],
            [
              85.444987890625,
              27.753269140625
            ],
            [
              85.4450171875,
              27.753269140625
            ],
            [
              85.4450171875,
              27.7532984375
            ],
            [
              85.445046484375,
              27.7532984375
            ],
            [
              85.445046484375,
              27.753327734375
            ],
            [
              85.44507578125,
              27.753327734375
            ],
            [
              85.44507578125,
              27.75335703125
            ],
            [
              85.445105078125,
              27.75335703125
            ],
            [
              85.445105078125,
              27.753386328125
            ],
            [
              85.445134375,
              27.753386328125
            ],
            [
              85.445134375,
              27.753415625
            ],
            [
              85.445163671875,
              27.753415625
            ],
            [
              85.445163671875,
              27.753444921875
            ],
            [
              85.44519296874999,
              27.753444921875
            ],
            [
              85.44519296874999,
              27.753562109375
            ],
            [
              85.445163671875,
              27.753562109375
            ],
            [
              85.445163671875,
              27.753620703125
            ],
            [
              85.445134375,
              27.753620703125
            ],
            [
              85.445134375,
              27.75365
            ],
            [
              85.445105078125,
              27.75365
            ],
            [
              85.445105078125,
              27.753679296875
            ],
            [
              85.44507578125,
              27.753679296875
            ],
            [
              85.44507578125,
              27.75370859375
            ],
            [
              85.4450171875,
              27.75370859375
            ],
            [
              85.4450171875,
              27.753737890625
            ],
            [
              85.44495859375,
              27.753737890625
            ],
            [
              85.44495859375,
              27.7537671875
            ],
            [
              85.44472421875,
              27.7537671875
            ]
          ]
        ]
      },
      "properties": {
        "building_id": 13,
        "damage_tier": "no-damage",
        "confidence": 0.858
      }
    },
    {
      "type": "Feature",
      "geometry": {
        "type": "Polygon",
        "coordinates": [
          [
            [
              85.445749609375,
              27.753093359375
            ],
            [
              85.445749609375,
              27.753064062500002
            ],
            [
              85.4457203125,
              27.753064062500002
            ],
            [
              85.4457203125,
              27.753034765625
            ],
            [
              85.445691015625,
              27.753034765625
            ],
            [
              85.445691015625,
              27.75300546875
            ],
            [
              85.4457203125,
              27.75300546875
            ],
            [
              85.4457203125,
              27.752976171875
            ],
            [
              85.44577890625,
              27.752976171875
            ],
            [
              85.44577890625,
              27.75300546875
            ],
            [
              85.445808203125,
              27.75300546875
            ],
            [
              85.445808203125,
              27.753064062500002
            ],
            [
              85.44577890625,
              27.753064062500002
            ],
            [
              85.44577890625,
              27.753093359375
            ],
            [
              85.445749609375,
              27.753093359375
            ]
          ]
        ]
      },
      "properties": {
        "building_id": 14,
        "damage_tier": "no-damage",
        "confidence": 0.782
      }
    },
    {
      "type": "Feature",
      "geometry": {
        "type": "Polygon",
        "coordinates": [
          [
            [
              85.442937109375,
              27.752155859375
            ],
            [
              85.442937109375,
              27.7521265625
            ],
            [
              85.4429078125,
              27.7521265625
            ],
            [
              85.4429078125,
              27.752097265625
            ],
            [
              85.44284921875,
              27.752097265625
            ],
            [
              85.44284921875,
              27.75206796875
            ],
            [
              85.44270273437499,
              27.75206796875
            ],
            [
              85.44270273437499,
              27.752097265625
            ],
            [
              85.44261484375,
              27.752097265625
            ],
            [
              85.44261484375,
              27.7521265625
            ],
            [
              85.4420875,
              27.7521265625
            ],
            [
              85.4420875,
              27.752097265625
            ],
            [
              85.44202890625,
              27.752097265625
            ],
            [
              85.44202890625,
              27.75206796875
            ],
            [
              85.441999609375,
              27.75206796875
            ],
            [
              85.441999609375,
              27.752009375
            ],
            [
              85.44197031249999,
              27.752009375
            ],
            [
              85.44197031249999,
              27.75195078125
            ],
            [
              85.44194101562499,
              27.75195078125
            ],
            [
              85.44194101562499,
              27.751921484375
            ],
            [
              85.44197031249999,
              27.751921484375
            ],
            [
              85.44197031249999,
              27.75183359375
            ],
            [
              85.441999609375,
              27.75183359375
            ],
            [
              85.441999609375,
              27.751775000000002
            ],
            [
              85.44202890625,
              27.751775000000002
            ],
            [
              85.44202890625,
              27.75171640625
            ],
            [
              85.442058203125,
              27.75171640625
            ],
            [
              85.442058203125,
              27.751687109375002
            ],
            [
              85.4420875,
              27.751687109375002
            ],
            [
              85.4420875,
              27.7516578125
            ],
            [
              85.442116796875,
              27.7516578125
            ],
            [
              85.442116796875,
              27.751599218750002
            ],
            [
              85.44214609375,
              27.751599218750002
            ],
            [
              85.44214609375,
              27.751569921875
            ],
            [
              85.442175390625,
              27.751569921875
            ],
            [
              85.442175390625,
              27.751540625
            ],
            [
              85.442233984375,
              27.751540625
            ],
            [
              85.442233984375,
              27.751511328125
            ],
            [
              85.44226328124999,
              27.751511328125
            ],
            [
              85.44226328124999,
              27.75148203125
            ],
            [
              85.44229257812499,
              27.75148203125
            ],
            [
              85.44229257812499,
              27.751452734375
            ],
            [
              85.44238046875,
              27.751452734375
            ],
            [
              85.44238046875,
              27.7514234375
            ],
            [
              85.442468359375,
              27.7514234375
            ],
            [
              85.442468359375,
              27.751394140625
            ],
            [
              85.442526953125,
              27.751394140625
            ],
            [
              85.442526953125,
              27.7514234375
            ],
            [
              85.44261484375,
              27.7514234375
            ],
            [
              85.44261484375,
              27.751452734375
            ],
            [
              85.44267343749999,
              27.751452734375
            ],
            [
              85.44267343749999,
              27.75148203125
            ],
            [
              85.44273203125,
              27.75148203125
            ],
            [
              85.44273203125,
              27.751511328125
            ],
            [
              85.442761328125,
              27.751511328125
            ],
            [
              85.442761328125,
              27.751540625
            ],
            [
              85.442819921875,
              27.751540625
            ],
            [
              85.442819921875,
              27.751569921875
            ],
            [
              85.443230078125,
              27.751569921875
            ],
            [
              85.443230078125,
              27.751599218750002
            ],
            [
              85.44331796875,
              27.751599218750002
            ],
            [
              85.44331796875,
              27.751628515625
            ],
            [
              85.443347265625,
              27.751628515625
            ],
            [
              85.443347265625,
              27.7516578125
            ],
            [
              85.44340585937499,
              27.7516578125
            ],
            [
              85.44340585937499,
              27.751687109375002
            ],
            [
              85.44355234375,
              27.751687109375002
            ],
            [
              85.44355234375,
              27.75171640625
            ],
            [
              85.443581640625,
              27.75171640625
            ],
            [
              85.443581640625,
              27.751745703125
            ],
            [
              85.4436109375,
              27.751745703125
            ],
            [
              85.4436109375,
              27.751775000000002
            ],
            [
              85.443640234375,
              27.751775000000002
            ],
            [
              85.443640234375,
              27.751804296875
            ],
            [
              85.44372812499999,
              27.751804296875
            ],
            [
              85.44372812499999,
              27.75183359375
            ],
            [
              85.44378671874999,
              27.75183359375
            ],
            [
              85.44378671874999,
              27.751862890625
            ],
            [
              85.44366953125,
              27.751862890625
            ],
            [
              85.44366953125,
              27.7518921875
            ],
            [
              85.443464453125,
              27.7518921875
            ],
            [
              85.443464453125,
              27.751921484375
            ],
            [
              85.443347265625,
              27.751921484375
            ],
            [
              85.443347265625,
              27.75195078125
            ],
            [
              85.443288671875,
              27.75195078125
            ],
            [
              85.443288671875,
              27.751980078125
            ],
            [
              85.443259375,
              27.751980078125
            ],
            [
              85.443259375,
              27.752038671875
            ],
            [
              85.443230078125,
              27.752038671875
            ],
            [
              85.443230078125,
              27.75206796875
            ],
            [
              85.44320078125,
              27.75206796875
            ],
            [
              85.44320078125,
              27.752097265625
            ],
            [
              85.44308359375,
              27.752097265625
            ],
            [
              85.44308359375,
              27.7521265625
            ],
            [
              85.44305429687499,
              27.7521265625
            ],
            [
              85.44305429687499,
              27.752155859375
            ],
            [
              85.442937109375,
              27.752155859375
            ]
          ]
        ]
      },
      "properties": {
        "building_id": 15,
        "damage_tier": "no-damage",
        "confidence": 0.932
      }
    },
    {
      "type": "Feature",
      "geometry": {
        "type": "Polygon",
        "coordinates": [
          [
            [
              85.448444921875,
              27.751511328125
            ],
            [
              85.448444921875,
              27.75148203125
            ],
            [
              85.448327734375,
              27.75148203125
            ],
            [
              85.448327734375,
              27.7514234375
            ],
            [
              85.4482984375,
              27.7514234375
            ],
            [
              85.4482984375,
              27.751394140625
            ],
            [
              85.448269140625,
              27.751394140625
            ],
            [
              85.448269140625,
              27.75136484375
            ],
            [
              85.4482984375,
              27.75136484375
            ],
            [
              85.4482984375,
              27.751335546875
            ],
            [
              85.44835703125,
              27.751335546875
            ],
            [
              85.44835703125,
              27.75130625
            ],
            [
              85.448415625,
              27.75130625
            ],
            [
              85.448415625,
              27.751276953125
            ],
            [
              85.448444921875,
              27.751276953125
            ],
            [
              85.448444921875,
              27.75124765625
            ],
            [
              85.448562109375,
              27.75124765625
            ],
            [
              85.448562109375,
              27.751276953125
            ],
            [
              85.448620703125,
              27.751276953125
            ],
            [
              85.448620703125,
              27.75124765625
            ],
            [
              85.44865,
              27.75124765625
            ],
            [
              85.44865,
              27.751159765625
            ],
            [
              85.448679296875,
              27.751159765625
            ],
            [
              85.448679296875,
              27.751101171875
            ],
            [
              85.44882578125,
              27.751101171875
            ],
            [
              85.44882578125,
              27.75113046875
            ],
            [
              85.44885507812499,
              27.75113046875
            ],
            [
              85.44885507812499,
              27.751511328125
            ],
            [
              85.448444921875,
              27.751511328125
            ]
          ]
        ]
      },
      "properties": {
        "building_id": 16,
        "damage_tier": "no-damage",
        "confidence": 0.536
      }
    },
    {
      "type": "Feature",
      "geometry": {
        "type": "Polygon",
        "coordinates": [
          [
            [
              85.44153085937499,
              27.751862890625
            ],
            [
              85.44153085937499,
              27.75183359375
            ],
            [
              85.44144296875,
              27.75183359375
            ],
            [
              85.44144296875,
              27.751804296875
            ],
            [
              85.441413671875,
              27.751804296875
            ],
            [
              85.441413671875,
              27.751775000000002
            ],
            [
              85.441355078125,
              27.751775000000002
            ],
            [
              85.441355078125,
              27.751745703125
            ],
            [
              85.441120703125,
              27.751745703125
            ],
            [
              85.441120703125,
              27.75171640625
            ],
            [
              85.44109140625,
              27.75171640625
            ],
            [
              85.44109140625,
              27.751599218750002
            ],
            [
              85.441062109375,
              27.751599218750002
            ],
            [
              85.441062109375,
              27.75148203125
            ],
            [
              85.4410328125,
              27.75148203125
            ],
            [
              85.4410328125,
              27.751452734375
            ],
            [
              85.441003515625,
              27.751452734375
            ],
            [
              85.441003515625,
              27.7514234375
            ],
            [
              85.440944921875,
              27.7514234375
            ],
            [
              85.440944921875,
              27.751452734375
            ],
            [
              85.440915625,
              27.751452734375
            ],
            [
              85.440915625,
              27.75148203125
            ],
            [
              85.440886328125,
              27.75148203125
            ],
            [
              85.440886328125,
              27.751540625
            ],
            [
              85.44085703124999,
              27.751540625
            ],
            [
              85.44085703124999,
              27.751599218750002
            ],
            [
              85.44082773437499,
              27.751599218750002
            ],
            [
              85.44082773437499,
              27.751628515625
            ],
            [
              85.44079843749999,
              27.751628515625
            ],
            [
              85.44079843749999,
              27.7516578125
            ],
            [
              85.440593359375,
              27.7516578125
            ],
            [
              85.440593359375,
              27.751628515625
            ],
            [
              85.4405640625,
              27.751628515625
            ],
            [
              85.4405640625,
              27.751569921875
            ],
            [
              85.440593359375,
              27.751569921875
            ],
            [
              85.440593359375,
              27.751511328125
            ],
            [
              85.44062265625,
              27.751511328125
            ],
            [
              85.44062265625,
              27.75136484375
            ],
            [
              85.440651953125,
              27.75136484375
            ],
            [
              85.440651953125,
              27.751335546875
            ],
            [
              85.440710546875,
              27.751335546875
            ],
            [
              85.440710546875,
              27.751276953125
            ],
            [
              85.44073984375,
              27.751276953125
            ],
            [
              85.44073984375,
              27.75124765625
            ],
            [
              85.44079843749999,
              27.75124765625
            ],
            [
              85.44079843749999,
              27.751218359375
            ],
            [
              85.44082773437499,
              27.751218359375
            ],
            [
              85.44082773437499,
              27.7511890625
            ],
            [
              85.44085703124999,
              27.7511890625
            ],
            [
              85.44085703124999,
              27.751159765625
            ],
            [
              85.440886328125,
              27.751159765625
            ],
            [
              85.440886328125,
              27.75113046875
            ],
            [
              85.440915625,
              27.75113046875
            ],
            [
              85.440915625,
              27.751101171875
            ],
            [
              85.440944921875,
              27.751101171875
            ],
            [
              85.440944921875,
              27.751071875
            ],
            [
              85.441003515625,
              27.751071875
            ],
            [
              85.441003515625,
              27.751042578125
            ],
            [
              85.4410328125,
              27.751042578125
            ],
            [
              85.4410328125,
              27.750983984375
            ],
            [
              85.441062109375,
              27.750983984375
            ],
            [
              85.441062109375,
              27.750925390625
            ],
            [
              85.44109140625,
              27.750925390625
            ],
            [
              85.44109140625,
              27.75089609375
            ],
            [
              85.441120703125,
              27.75089609375
            ],
            [
              85.441120703125,
              27.7508375
            ],
            [
              85.44115,
              27.7508375
            ],
            [
              85.44115,
              27.7507203125
            ],
            [
              85.441120703125,
              27.7507203125
            ],
            [
              85.441120703125,
              27.750632421875
            ],
            [
              85.44117929687499,
              27.750632421875
            ],
            [
              85.44117929687499,
              27.750603125
            ],
            [
              85.44123789062499,
              27.750603125
            ],
            [
              85.44123789062499,
              27.750632421875
            ],
            [
              85.441472265625,
              27.750632421875
            ],
            [
              85.441472265625,
              27.750603125
            ],
            [
              85.44158945312499,
              27.750603125
            ],
            [
              85.44158945312499,
              27.750632421875
            ],
            [
              85.441706640625,
              27.750632421875
            ],
            [
              85.441706640625,
              27.75066171875
            ],
            [
              85.441765234375,
              27.75066171875
            ],
            [
              85.441765234375,
              27.750691015625
            ],
            [
              85.44179453125,
              27.750691015625
            ],
            [
              85.44179453125,
              27.750749609375
            ],
            [
              85.441823828125,
              27.750749609375
            ],
            [
              85.441823828125,
              27.750808203125
            ],
            [
              85.44179453125,
              27.750808203125
            ],
            [
              85.44179453125,
              27.7508375
            ],
            [
              85.44161875,
              27.7508375
            ],
            [
              85.44161875,
              27.750808203125
            ],
            [
              85.44156015624999,
              27.750808203125
            ],
            [
              85.44156015624999,
              27.75077890625
            ],
            [
              85.44144296875,
              27.75077890625
            ],
            [
              85.44144296875,
              27.750749609375
            ],
            [
              85.441296484375,
              27.750749609375
            ],
            [
              85.441296484375,
              27.7508375
            ],
            [
              85.44132578125,
              27.7508375
            ],
            [
              85.44132578125,
              27.750866796875002
            ],
            [
              85.441355078125,
              27.750866796875002
            ],
            [
              85.441355078125,
              27.75089609375
            ],
            [
              85.44144296875,
              27.75089609375
            ],
            [
              85.44144296875,
              27.750925390625
            ],
            [
              85.4417359375,
              27.750925390625
            ],
            [
              85.4417359375,
              27.750954687500002
            ],
            [
              85.44179453125,
              27.750954687500002
            ],
            [
              85.44179453125,
              27.750983984375
            ],
            [
              85.441823828125,
              27.750983984375
            ],
            [
              85.441823828125,
              27.751042578125
            ],
            [
              85.441853125,
              27.751042578125
            ],
            [
              85.441853125,
              27.751071875
            ],
            [
              85.441882421875,
              27.751071875
            ],
            [
              85.441882421875,
              27.751101171875
            ],
            [
              85.44194101562499,
              27.751101171875
            ],
            [
              85.44194101562499,
              27.7511890625
            ],
            [
              85.44191171874999,
              27.7511890625
            ],
            [
              85.44191171874999,
              27.751394140625
            ],
            [
              85.441882421875,
              27.751394140625
            ],
            [
              85.441882421875,
              27.751452734375
            ],
            [
              85.441853125,
              27.751452734375
            ],
            [
              85.441853125,
              27.751540625
            ],
            [
              85.441823828125,
              27.751540625
            ],
            [
              85.441823828125,
              27.751628515625
            ],
            [
              85.44179453125,
              27.751628515625
            ],
            [
              85.44179453125,
              27.751687109375002
            ],
            [
              85.441765234375,
              27.751687109375002
            ],
            [
              85.441765234375,
              27.751745703125
            ],
            [
              85.4417359375,
              27.751745703125
            ],
            [
              85.4417359375,
              27.751775000000002
            ],
            [
              85.441706640625,
              27.751775000000002
            ],
            [
              85.441706640625,
              27.75183359375
            ],
            [
              85.44158945312499,
              27.75183359375
            ],
            [
              85.44158945312499,
              27.751862890625
            ],
            [
              85.44153085937499,
              27.751862890625
            ]
          ]
        ]
      },
      "properties": {
        "building_id": 17,
        "damage_tier": "no-damage",
        "confidence": 0.917
      }
    },
    {
      "type": "Feature",
      "geometry": {
        "type": "Polygon",
        "coordinates": [
          [
            [
              85.451960546875,
              27.750749609375
            ],
            [
              85.451960546875,
              27.7507203125
            ],
            [
              85.45187265625,
              27.7507203125
            ],
            [
              85.45187265625,
              27.750691015625
            ],
            [
              85.45184335937499,
              27.750691015625
            ],
            [
              85.45184335937499,
              27.75054453125
            ],
            [
              85.451901953125,
              27.75054453125
            ],
            [
              85.451901953125,
              27.750573828125
            ],
            [
              85.45193125,
              27.750573828125
            ],
            [
              85.45193125,
              27.750603125
            ],
            [
              85.452019140625,
              27.750603125
            ],
            [
              85.452019140625,
              27.750632421875
            ],
            [
              85.452077734375,
              27.750632421875
            ],
            [
              85.452077734375,
              27.750691015625
            ],
            [
              85.452019140625,
              27.750691015625
            ],
            [
              85.452019140625,
              27.7507203125
            ],
            [
              85.45198984375,
              27.7507203125
            ],
            [
              85.45198984375,
              27.750749609375
            ],
            [
              85.451960546875,
              27.750749609375
            ]
          ]
        ]
      },
      "properties": {
        "building_id": 18,
        "damage_tier": "destroyed",
        "confidence": 0.925
      }
    },
    {
      "type": "Feature",
      "geometry": {
        "type": "Polygon",
        "coordinates": [
          [
            [
              85.44062265625,
              27.750603125
            ],
            [
              85.44062265625,
              27.750573828125
            ],
            [
              85.440593359375,
              27.750573828125
            ],
            [
              85.440593359375,
              27.750515234375
            ],
            [
              85.44062265625,
              27.750515234375
            ],
            [
              85.44062265625,
              27.750456640625
            ],
            [
              85.440651953125,
              27.750456640625
            ],
            [
              85.440651953125,
              27.75042734375
            ],
            [
              85.44068125,
              27.75042734375
            ],
            [
              85.44068125,
              27.750398046875
            ],
            [
              85.440886328125,
              27.750398046875
            ],
            [
              85.440886328125,
              27.75042734375
            ],
            [
              85.440915625,
              27.75042734375
            ],
            [
              85.440915625,
              27.7504859375
            ],
            [
              85.440886328125,
              27.7504859375
            ],
            [
              85.440886328125,
              27.750515234375
            ],
            [
              85.44085703124999,
              27.750515234375
            ],
            [
              85.44085703124999,
              27.75054453125
            ],
            [
              85.44082773437499,
              27.75054453125
            ],
            [
              85.44082773437499,
              27.750573828125
            ],
            [
              85.44079843749999,
              27.750573828125
            ],
            [
              85.44079843749999,
              27.750603125
            ],
            [
              85.44062265625,
              27.750603125
            ]
          ]
        ]
      },
      "properties": {
        "building_id": 19,
        "damage_tier": "no-damage",
        "confidence": 0.812
      }
    },
    {
      "type": "Feature",
      "geometry": {
        "type": "Polygon",
        "coordinates": [
          [
            [
              85.44636484375,
              27.75130625
            ],
            [
              85.44636484375,
              27.751276953125
            ],
            [
              85.44630624999999,
              27.751276953125
            ],
            [
              85.44630624999999,
              27.75124765625
            ],
            [
              85.446276953125,
              27.75124765625
            ],
            [
              85.446276953125,
              27.7511890625
            ],
            [
              85.44624765625,
              27.7511890625
            ],
            [
              85.44624765625,
              27.751042578125
            ],
            [
              85.446276953125,
              27.751042578125
            ],
            [
              85.446276953125,
              27.750954687500002
            ],
            [
              85.44630624999999,
              27.750954687500002
            ],
            [
              85.44630624999999,
              27.750808203125
            ],
            [
              85.44633554687499,
              27.750808203125
            ],
            [
              85.44633554687499,
              27.750691015625
            ],
            [
              85.44636484375,
              27.750691015625
            ],
            [
              85.44636484375,
              27.75066171875
            ],
            [
              85.446394140625,
              27.75066171875
            ],
            [
              85.446394140625,
              27.750632421875
            ],
            [
              85.4464234375,
              27.750632421875
            ],
            [
              85.4464234375,
              27.750573828125
            ],
            [
              85.446452734375,
              27.750573828125
            ],
            [
              85.446452734375,
              27.75054453125
            ],
            [
              85.44648203125,
              27.75054453125
            ],
            [
              85.44648203125,
              27.750515234375
            ],
            [
              85.446511328125,
              27.750515234375
            ],
            [
              85.446511328125,
              27.7504859375
            ],
            [
              85.446540625,
              27.7504859375
            ],
            [
              85.446540625,
              27.750456640625
            ],
            [
              85.446569921875,
              27.750456640625
            ],
            [
              85.446569921875,
              27.75042734375
            ],
            [
              85.44659921875,
              27.75042734375
            ],
            [
              85.44659921875,
              27.750398046875
            ],
            [
              85.446628515625,
              27.750398046875
            ],
            [
              85.446628515625,
              27.75036875
            ],
            [
              85.44665781249999,
              27.75036875
            ],
            [
              85.44665781249999,
              27.750339453125
            ],
            [
              85.44668710937499,
              27.750339453125
            ],
            [
              85.44668710937499,
              27.75031015625
            ],
            [
              85.44671640624999,
              27.75031015625
            ],
            [
              85.44671640624999,
              27.750280859375
            ],
            [
              85.446775,
              27.750280859375
            ],
            [
              85.446775,
              27.7502515625
            ],
            [
              85.44683359375,
              27.7502515625
            ],
            [
              85.44683359375,
              27.750222265625002
            ],
            [
              85.44703867187499,
              27.750222265625002
            ],
            [
              85.44703867187499,
              27.75019296875
            ],
            [
              85.4471265625,
              27.75019296875
            ],
            [
              85.4471265625,
              27.750163671875
            ],
            [
              85.447214453125,
              27.750163671875
            ],
            [
              85.447214453125,
              27.750134375000002
            ],
            [
              85.447273046875,
              27.750134375000002
            ],
            [
              85.447273046875,
              27.750105078125
            ],
            [
              85.447478125,
              27.750105078125
            ],
            [
              85.447478125,
              27.75007578125
            ],
            [
              85.44765390625,
              27.75007578125
            ],
            [
              85.44765390625,
              27.750105078125
            ],
            [
              85.447683203125,
              27.750105078125
            ],
            [
              85.447683203125,
              27.750134375000002
            ],
            [
              85.4477125,
              27.750134375000002
            ],
            [
              85.4477125,
              27.750163671875
            ],
            [
              85.447741796875,
              27.750163671875
            ],
            [
              85.447741796875,
              27.75019296875
            ],
            [
              85.44777109374999,
              27.75019296875
            ],
            [
              85.44777109374999,
              27.7502515625
            ],
            [
              85.4478296875,
              27.7502515625
            ],
            [
              85.4478296875,
              27.750280859375
            ],
            [
              85.447858984375,
              27.750280859375
            ],
            [
              85.447858984375,
              27.75031015625
            ],
            [
              85.44788828125,
              27.75031015625
            ],
            [
              85.44788828125,
              27.75036875
            ],
            [
              85.447858984375,
              27.75036875
            ],
            [
              85.447858984375,
              27.750398046875
            ],
            [
              85.4478296875,
              27.750398046875
            ],
            [
              85.4478296875,
              27.750456640625
            ],
            [
              85.447858984375,
              27.750456640625
            ],
            [
              85.447858984375,
              27.750573828125
            ],
            [
              85.4478296875,
              27.750573828125
            ],
            [
              85.4478296875,
              27.75066171875
            ],
            [
              85.447741796875,
              27.75066171875
            ],
            [
              85.447741796875,
              27.750691015625
            ],
            [
              85.4475953125,
              27.750691015625
            ],
            [
              85.4475953125,
              27.7507203125
            ],
            [
              85.447478125,
              27.7507203125
            ],
            [
              85.447478125,
              27.750749609375
            ],
            [
              85.44739023437499,
              27.750749609375
            ],
            [
              85.44739023437499,
              27.75077890625
            ],
            [
              85.447331640625,
              27.75077890625
            ],
            [
              85.447331640625,
              27.750808203125
            ],
            [
              85.44730234375,
              27.750808203125
            ],
            [
              85.44730234375,
              27.7508375
            ],
            [
              85.447273046875,
              27.7508375
            ],
            [
              85.447273046875,
              27.750866796875002
            ],
            [
              85.44724375,
              27.750866796875002
            ],
            [
              85.44724375,
              27.75089609375
            ],
            [
              85.447214453125,
              27.75089609375
            ],
            [
              85.447214453125,
              27.750954687500002
            ],
            [
              85.447155859375,
              27.750954687500002
            ],
            [
              85.447155859375,
              27.750983984375
            ],
            [
              85.44706796874999,
              27.750983984375
            ],
            [
              85.44706796874999,
              27.75101328125
            ],
            [
              85.446980078125,
              27.75101328125
            ],
            [
              85.446980078125,
              27.751042578125
            ],
            [
              85.446921484375,
              27.751042578125
            ],
            [
              85.446921484375,
              27.751071875
            ],
            [
              85.446862890625,
              27.751071875
            ],
            [
              85.446862890625,
              27.751101171875
            ],
            [
              85.44683359375,
              27.751101171875
            ],
            [
              85.44683359375,
              27.75113046875
            ],
            [
              85.446804296875,
              27.75113046875
            ],
            [
              85.446804296875,
              27.751159765625
            ],
            [
              85.446775,
              27.751159765625
            ],
            [
              85.446775,
              27.7511890625
            ],
            [
              85.44671640624999,
              27.7511890625
            ],
            [
              85.44671640624999,
              27.751218359375
            ],
            [
              85.44668710937499,
              27.751218359375
            ],
            [
              85.44668710937499,
              27.75124765625
            ],
            [
              85.44665781249999,
              27.75124765625
            ],
            [
              85.44665781249999,
              27.751276953125
            ],
            [
              85.44659921875,
              27.751276953125
            ],
            [
              85.44659921875,
              27.75130625
            ],
            [
              85.44636484375,
              27.75130625
            ]
          ]
        ]
      },
      "properties": {
        "building_id": 20,
        "damage_tier": "no-damage",
        "confidence": 0.489
      }
    }
  ]
}