{
  "type": "FeatureCollection",
  "features": [
    {
      "type": "Feature",
      "geometry": {
        "type": "Polygon",
        "coordinates": [
          [
            [
              -0.025292968750000002,
              0.016015625
            ],
            [
              -0.025292968750000002,
              0.015917968750000004
            ],
            [
              -0.02548828125,
              0.015917968750000004
            ],
            [
              -0.02548828125,
              0.015820312500000003
            ],
            [
              -0.02568359375,
              0.015820312500000003
            ],
            [
              -0.02568359375,
              0.01572265625
            ],
            [
              -0.02587890625,
              0.01572265625
            ],
            [
              -0.02587890625,
              0.015625
            ],
            [
              -0.026074218750000003,
              0.015625
            ],
            [
              -0.026074218750000003,
              0.015527343749999999
            ],
            [
              -0.026171875,
              0.015527343749999999
            ],
            [
              -0.026171875,
              0.015429687500000004
            ],
            [
              -0.026269531250000002,
              0.015429687500000004
            ],
            [
              -0.026269531250000002,
              0.015332031250000003
            ],
            [
              -0.0263671875,
              0.015332031250000003
            ],
            [
              -0.0263671875,
              0.015234375000000001
            ],
            [
              -0.02646484375,
              0.015234375000000001
            ],
            [
              -0.02646484375,
              0.01513671875
            ],
            [
              -0.026562500000000003,
              0.01513671875
            ],
            [
              -0.026562500000000003,
              0.015039062499999999
            ],
            [
              -0.02666015625,
              0.015039062499999999
            ],
            [
              -0.02666015625,
              0.014941406250000004
            ],
            [
              -0.026757812500000002,
              0.014941406250000004
            ],
            [
              -0.026757812500000002,
              0.014843750000000003
            ],
            [
              -0.02685546875,
              0.014843750000000003
            ],
            [
              -0.02685546875,
              0.014550781249999999
            ],
            [
              -0.026953125,
              0.014550781249999999
            ],
            [
              -0.026953125,
              0.014355468750000003
            ],
            [
              -0.027050781250000003,
              0.014355468750000003
            ],
            [
              -0.027050781250000003,
              0.014062499999999999
            ],
            [
              -0.0271484375,
              0.014062499999999999
            ],
            [
              -0.0271484375,
              0.013867187500000003
            ],
            [
              -0.027246093750000002,
              0.013867187500000003
            ],
            [
              -0.027246093750000002,
              0.013769531250000001
            ],
            [
              -0.02734375,
              0.013769531250000001
            ],
            [
              -0.02734375,
              0.013671875
            ],
            [
              -0.02744140625,
              0.013671875
            ],
            [
              -0.02744140625,
              0.013476562500000004
            ],
            [
              -0.027539062500000003,
              0.013476562500000004
            ],
            [
              -0.027539062500000003,
              0.013378906250000003
            ],
            [
              -0.027734375000000002,
              0.013378906250000003
            ],
            [
              -0.027734375000000002,
              0.013281250000000001
            ],
            [
              -0.0279296875,
              0.013281250000000001
            ],
            [
              -0.0279296875,
              0.01318359375
            ],
            [
              -0.028027343750000003,
              0.01318359375
            ],
            [
              -0.028027343750000003,
              0.012988281250000004
            ],
            [
              -0.028125,
              0.012988281250000004
            ],
            [
              -0.028125,
              0.012890625000000003
            ],
            [
              -0.028222656250000002,
              0.012890625000000003
            ],
            [
              -0.028222656250000002,
              0.012792968750000001
            ],
            [
              -0.0283203125,
              0.012792968750000001
            ],
            [
              -0.0283203125,
              0.0126953125
            ],
            [
              -0.02841796875,
              0.0126953125
            ],
            [
              -0.02841796875,
              0.012597656249999999
            ],
            [
              -0.028515625000000003,
              0.012597656249999999
            ],
            [
              -0.028515625000000003,
              0.012402343750000003
            ],
            [
              -0.028710937500000002,
              0.012402343750000003
            ],
            [
              -0.028710937500000002,
              0.012304687500000001
            ],
            [
              -0.02880859375,
              0.012304687500000001
            ],
            [
              -0.02880859375,
              0.01220703125
            ],
            [
              -0.02890625,
              0.01220703125
            ],
            [
              -0.02890625,
              0.012109374999999999
            ],
            [
              -0.029003906250000003,
              0.012109374999999999
            ],
            [
              -0.029003906250000003,
              0.012011718749999997
            ],
            [
              -0.0291015625,
              0.012011718749999997
            ],
            [
              -0.0291015625,
              0.011914062500000003
            ],
            [
              -0.029199218750000002,
              0.011914062500000003
            ],
            [
              -0.029199218750000002,
              0.01171875
            ],
            [
              -0.029296875,
              0.01171875
            ],
            [
              -0.029296875,
              0.011035156249999997
            ],
            [
              -0.029199218750000002,
              0.011035156249999997
            ],
            [
              -0.029199218750000002,
              0.010937500000000003
            ],
            [
              -0.0291015625,
              0.010937500000000003
            ],
            [
              -0.0291015625,
              0.010839843750000001
            ],
            [
              -0.029003906250000003,
              0.010839843750000001
            ],
            [
              -0.029003906250000003,
              0.0107421875
            ],
            [
              -0.02890625,
              0.0107421875
            ],
            [
              -0.02890625,
              0.010546874999999997
            ],
            [
              -0.02880859375,
              0.010546874999999997
            ],
            [
              -0.02880859375,
              0.010351562500000001
            ],
            [
              -0.028710937500000002,
              0.010351562500000001
            ],
            [
              -0.028710937500000002,
              0.009667968749999999
            ],
            [
              -0.02880859375,
              0.009667968749999999
            ],
            [
              -0.02880859375,
              0.009472656250000003
            ],
            [
              -0.02890625,
              0.009472656250000003
            ],
            [
              -0.02890625,
              0.009179687499999999
            ],
            [
              -0.029003906250000003,
              0.009179687499999999
            ],
            [
              -0.029003906250000003,
              0.008886718750000001
            ],
            [
              -0.0291015625,
              0.008886718750000001
            ],
            [
              -0.0291015625,
              0.008398437500000001
            ],
            [
              -0.029003906250000003,
              0.008398437500000001
            ],
            [
              -0.029003906250000003,
              0.00830078125
            ],
            [
              -0.02861328125,
              0.00830078125
            ],
            [
              -0.02861328125,
              0.008398437500000001
            ],
            [
              -0.02841796875,
              0.008398437500000001
            ],
            [
              -0.02841796875,
              0.008496093750000003
            ],
            [
              -0.028222656250000002,
              0.008496093750000003
            ],
            [
              -0.028222656250000002,
              0.008593749999999997
            ],
            [
              -0.028125,
              0.008593749999999997
            ],
            [
              -0.028125,
              0.008691406249999999
            ],
            [
              -0.028027343750000003,
              0.008691406249999999
            ],
            [
              -0.028027343750000003,
              0.0087890625
            ],
            [
              -0.0279296875,
              0.0087890625
            ],
            [
              -0.0279296875,
              0.008886718750000001
            ],
            [
              -0.02783203125,
              0.008886718750000001
            ],
            [
              -0.02783203125,
              0.008984375000000003
            ],
            [
              -0.027734375000000002,
              0.008984375000000003
            ],
            [
              -0.027734375000000002,
              0.009082031249999997
            ],
            [
              -0.02763671875,
              0.009082031249999997
            ],
            [
              -0.02763671875,
              0.009179687499999999
            ],
            [
              -0.027539062500000003,
              0.009179687499999999
            ],
            [
              -0.027539062500000003,
              0.00927734375
            ],
            [
              -0.02744140625,
              0.00927734375
            ],
            [
              -0.02744140625,
              0.009472656250000003
            ],
            [
              -0.02734375,
              0.009472656250000003
            ],
            [
              -0.02734375,
              0.009765625
            ],
            [
              -0.027246093750000002,
              0.009765625
            ],
            [
              -0.027246093750000002,
              0.009863281250000001
            ],
            [
              -0.0271484375,
              0.009863281250000001
            ],
            [
              -0.0271484375,
              0.010058593749999997
            ],
            [
              -0.027050781250000003,
              0.010058593749999997
            ],
            [
              -0.027050781250000003,
              0.01025390625
            ],
            [
              -0.026953125,
              0.01025390625
            ],
            [
              -0.026953125,
              0.010351562500000001
            ],
            [
              -0.02685546875,
              0.010351562500000001
            ],
            [
              -0.02685546875,
              0.010449218750000003
            ],
            [
              -0.026757812500000002,
              0.010449218750000003
            ],
            [
              -0.026757812500000002,
              0.010644531249999999
            ],
            [
              -0.02666015625,
              0.010644531249999999
            ],
            [
              -0.02666015625,
              0.0107421875
            ],
            [
              -0.026562500000000003,
              0.0107421875
            ],
            [
              -0.026562500000000003,
              0.010937500000000003
            ],
            [
              -0.02646484375,
              0.010937500000000003
            ],
            [
              -0.02646484375,
              0.011035156249999997
            ],
            [
              -0.0263671875,
              0.011035156249999997
            ],
            [
              -0.0263671875,
              0.011132812499999999
            ],
            [
              -0.026269531250000002,
              0.011132812499999999
            ],
            [
              -0.026269531250000002,
              0.011328125000000001
            ],
            [
              -0.026171875,
              0.011328125000000001
            ],
            [
              -0.026171875,
              0.011425781250000003
            ],
            [
              -0.026074218750000003,
              0.011425781250000003
            ],
            [
              -0.026074218750000003,
              0.011523437499999997
            ],
            [
              -0.0259765625,
              0.011523437499999997
            ],
            [
              -0.0259765625,
              0.011621093749999999
            ],
            [
              -0.02587890625,
              0.011621093749999999
            ],
            [
              -0.02587890625,
              0.011816406250000001
            ],
            [
              -0.025781250000000002,
              0.011816406250000001
            ],
            [
              -0.025781250000000002,
              0.011914062500000003
            ],
            [
              -0.02568359375,
              0.011914062500000003
            ],
            [
              -0.02568359375,
              0.012011718749999997
            ],
            [
              -0.025585937500000003,
              0.012011718749999997
            ],
            [
              -0.025585937500000003,
              0.012109374999999999
            ],
            [
              -0.02548828125,
              0.012109374999999999
            ],
            [
              -0.02548828125,
              0.012304687500000001
            ],
            [
              -0.025390625,
              0.012304687500000001
            ],
            [
              -0.025390625,
              0.012402343750000003
            ],
            [
              -0.025292968750000002,
              0.012402343750000003
            ],
            [
              -0.025292968750000002,
              0.012499999999999997
            ],
            [
              -0.0251953125,
              0.012499999999999997
            ],
            [
              -0.0251953125,
              0.012597656249999999
            ],
            [
              -0.025097656250000003,
              0.012597656249999999
            ],
            [
              -0.025097656250000003,
              0.0126953125
            ],
            [
              -0.025,
              0.0126953125
            ],
            [
              -0.025,
              0.012792968750000001
            ],
            [
              -0.02490234375,
              0.012792968750000001
            ],
            [
              -0.02490234375,
              0.012890625000000003
            ],
            [
              -0.024804687500000002,
              0.012890625000000003
            ],
            [
              -0.024804687500000002,
              0.012988281250000004
            ],
            [
              -0.024609375000000003,
              0.012988281250000004
            ],
            [
              -0.024609375000000003,
              0.013085937499999999
            ],
            [
              -0.02451171875,
              0.013085937499999999
            ],
            [
              -0.02451171875,
              0.01318359375
            ],
            [
              -0.0244140625,
              0.01318359375
            ],
            [
              -0.0244140625,
              0.013281250000000001
            ],
            [
              -0.024316406250000002,
              0.013281250000000001
            ],
            [
              -0.024316406250000002,
              0.013378906250000003
            ],
            [
              -0.02421875,
              0.013378906250000003
            ],
            [
              -0.02421875,
              0.013574218749999999
            ],
            [
              -0.024121093750000003,
              0.013574218749999999
            ],
            [
              -0.024121093750000003,
              0.013671875
            ],
            [
              -0.0240234375,
              0.013671875
            ],
            [
              -0.0240234375,
              0.013769531250000001
            ],
            [
              -0.02392578125,
              0.013769531250000001
            ],
            [
              -0.02392578125,
              0.014062499999999999
            ],
            [
              -0.023828125000000002,
              0.014062499999999999
            ],
            [
              -0.023828125000000002,
              0.015527343749999999
            ],
            [
              -0.02392578125,
              0.015527343749999999
            ],
            [
              -0.02392578125,
              0.01572265625
            ],
            [
              -0.02421875,
              0.01572265625
            ],
            [
              -0.02421875,
              0.015820312500000003
            ],
            [
              -0.02451171875,
              0.015820312500000003
            ],
            [
              -0.02451171875,
              0.015917968750000004
            ],
            [
              -0.02470703125,
              0.015917968750000004
            ],
            [
              -0.02470703125,
              0.016015625
            ],
            [
              -0.025292968750000002,
              0.016015625
            ]
          ]
        ]
      },
      "properties": {
        "building_id": 0,
        "damage_tier": "destroyed",
        "confidence": 0.754
      }
    },
    {
      "type": "Feature",
      "geometry": {
        "type": "Polygon",
        "coordinates": [
          [
            [
              -0.016894531250000004,
              0.012402343750000003
            ],
            [
              -0.016894531250000004,
              0.012304687500000001
            ],
            [
              -0.017285156250000003,
              0.012304687500000001
            ],
            [
              -0.017285156250000003,
              0.01220703125
            ],
            [
              -0.017578125,
              0.01220703125
            ],
            [
              -0.017578125,
              0.012109374999999999
            ],
            [
              -0.017871093750000004,
              0.012109374999999999
            ],
            [
              -0.017871093750000004,
              0.012011718749999997
            ],
            [
              -0.01796875,
              0.012011718749999997
            ],
            [
              -0.01796875,
              0.011914062500000003
            ],
            [
              -0.0181640625,
              0.011914062500000003
            ],
            [
              -0.0181640625,
              0.01171875
            ],
            [
              -0.018261718750000003,
              0.01171875
            ],
            [
              -0.018261718750000003,
              0.011621093749999999
            ],
            [
              -0.018359375000000004,
              0.011621093749999999
            ],
            [
              -0.018359375000000004,
              0.011523437499999997
            ],
            [
              -0.01845703125,
              0.011523437499999997
            ],
            [
              -0.01845703125,
              0.011328125000000001
            ],
            [
              -0.0185546875,
              0.011328125000000001
            ],
            [
              -0.0185546875,
              0.01123046875
            ],
            [
              -0.01865234375,
              0.01123046875
            ],
            [
              -0.01865234375,
              0.011132812499999999
            ],
            [
              -0.018750000000000003,
              0.011132812499999999
            ],
            [
              -0.018750000000000003,
              0.010937500000000003
            ],
            [
              -0.01884765625,
              0.010937500000000003
            ],
            [
              -0.01884765625,
              0.0107421875
            ],
            [
              -0.018945312500000002,
              0.0107421875
            ],
            [
              -0.018945312500000002,
              0.010644531249999999
            ],
            [
              -0.01904296875,
              0.010644531249999999
            ],
            [
              -0.01904296875,
              0.0107421875
            ],
            [
              -0.019238281250000003,
              0.0107421875
            ],
            [
              -0.019238281250000003,
              0.010937500000000003
            ],
            [
              -0.01962890625,
              0.010937500000000003
            ],
            [
              -0.01962890625,
              0.010839843750000001
            ],
            [
              -0.02001953125,
              0.010839843750000001
            ],
            [
              -0.02001953125,
              0.0107421875
            ],
            [
              -0.020214843750000003,
              0.0107421875
            ],
            [
              -0.020214843750000003,
              0.010644531249999999
            ],
            [
              -0.0203125,
              0.010644531249999999
            ],
            [
              -0.0203125,
              0.010546874999999997
            ],
            [
              -0.0205078125,
              0.010546874999999997
            ],
            [
              -0.0205078125,
              0.010449218750000003
            ],
            [
              -0.02060546875,
              0.010449218750000003
            ],
            [
              -0.02060546875,
              0.010351562500000001
            ],
            [
              -0.020703125000000003,
              0.010351562500000001
            ],
            [
              -0.020703125000000003,
              0.01025390625
            ],
            [
              -0.02080078125,
              0.01025390625
            ],
            [
              -0.02080078125,
              0.010058593749999997
            ],
            [
              -0.020898437500000002,
              0.010058593749999997
            ],
            [
              -0.020898437500000002,
              0.009863281250000001
            ],
            [
              -0.02080078125,
              0.009863281250000001
            ],
            [
              -0.02080078125,
              0.009765625
            ],
            [
              -0.020703125000000003,
              0.009765625
            ],
            [
              -0.020703125000000003,
              0.009570312499999997
            ],
            [
              -0.02060546875,
              0.009570312499999997
            ],
            [
              -0.02060546875,
              0.009472656250000003
            ],
            [
              -0.020703125000000003,
              0.009472656250000003
            ],
            [
              -0.020703125000000003,
              0.009179687499999999
            ],
            [
              -0.02080078125,
              0.009179687499999999
            ],
            [
              -0.02080078125,
              0.008984375000000003
            ],
            [
              -0.020898437500000002,
              0.008984375000000003
            ],
            [
              -0.020898437500000002,
              0.008886718750000001
            ],
            [
              -0.02099609375,
              0.008886718750000001
            ],
            [
              -0.02099609375,
              0.008691406249999999
            ],
            [
              -0.020898437500000002,
              0.008691406249999999
            ],
            [
              -0.020898437500000002,
              0.008593749999999997
            ],
            [
              -0.02080078125,
              0.008593749999999997
            ],
            [
              -0.02080078125,
              0.008496093750000003
            ],
            [
              -0.020703125000000003,
              0.008496093750000003
            ],
            [
              -0.020703125000000003,
              0.008398437500000001
            ],
            [
              -0.02060546875,
              0.008398437500000001
            ],
            [
              -0.02060546875,
              0.00830078125
            ],
            [
              -0.020703125000000003,
              0.00830078125
            ],
            [
              -0.020703125000000003,
              0.008105468749999997
            ],
            [
              -0.02080078125,
              0.008105468749999997
            ],
            [
              -0.02080078125,
              0.008007812500000003
            ],
            [
              -0.020703125000000003,
              0.008007812500000003
            ],
            [
              -0.020703125000000003,
              0.007910156250000001
            ],
            [
              -0.0205078125,
              0.007910156250000001
            ],
            [
              -0.0205078125,
              0.0078125
            ],
            [
              -0.020410156250000002,
              0.0078125
            ],
            [
              -0.020410156250000002,
              0.007714843749999999
            ],
            [
              -0.0203125,
              0.007714843749999999
            ],
            [
              -0.0203125,
              0.007617187499999997
            ],
            [
              -0.0201171875,
              0.007617187499999997
            ],
            [
              -0.0201171875,
              0.007519531250000003
            ],
            [
              -0.02001953125,
              0.007519531250000003
            ],
            [
              -0.02001953125,
              0.007617187499999997
            ],
            [
              -0.01962890625,
              0.007617187499999997
            ],
            [
              -0.01962890625,
              0.007714843749999999
            ],
            [
              -0.0193359375,
              0.007714843749999999
            ],
            [
              -0.0193359375,
              0.0078125
            ],
            [
              -0.019140625,
              0.0078125
            ],
            [
              -0.019140625,
              0.007910156250000001
            ],
            [
              -0.01904296875,
              0.007910156250000001
            ],
            [
              -0.01904296875,
              0.008007812500000003
            ],
            [
              -0.018945312500000002,
              0.008007812500000003
            ],
            [
              -0.018945312500000002,
              0.008105468749999997
            ],
            [
              -0.01884765625,
              0.008105468749999997
            ],
            [
              -0.01884765625,
              0.008203124999999999
            ],
            [
              -0.018750000000000003,
              0.008203124999999999
            ],
            [
              -0.018750000000000003,
              0.00830078125
            ],
            [
              -0.01865234375,
              0.00830078125
            ],
            [
              -0.01865234375,
              0.008398437500000001
            ],
            [
              -0.01845703125,
              0.008398437500000001
            ],
            [
              -0.01845703125,
              0.008496093750000003
            ],
            [
              -0.018359375000000004,
              0.008496093750000003
            ],
            [
              -0.018359375000000004,
              0.008593749999999997
            ],
            [
              -0.018261718750000003,
              0.008593749999999997
            ],
            [
              -0.018261718750000003,
              0.008691406249999999
            ],
            [
              -0.01806640625,
              0.008691406249999999
            ],
            [
              -0.01806640625,
              0.0087890625
            ],
            [
              -0.01796875,
              0.0087890625
            ],
            [
              -0.01796875,
              0.008886718750000001
            ],
            [
              -0.017871093750000004,
              0.008886718750000001
            ],
            [
              -0.017871093750000004,
              0.008984375000000003
            ],
            [
              -0.017773437500000003,
              0.008984375000000003
            ],
            [
              -0.017773437500000003,
              0.009082031249999997
            ],
            [
              -0.01767578125,
              0.009082031249999997
            ],
            [
              -0.01767578125,
              0.00927734375
            ],
            [
              -0.017578125,
              0.00927734375
            ],
            [
              -0.017578125,
              0.009375000000000001
            ],
            [
              -0.01748046875,
              0.009375000000000001
            ],
            [
              -0.01748046875,
              0.009472656250000003
            ],
            [
              -0.017382812500000004,
              0.009472656250000003
            ],
            [
              -0.017382812500000004,
              0.009570312499999997
            ],
            [
              -0.017285156250000003,
              0.009570312499999997
            ],
            [
              -0.017285156250000003,
              0.009667968749999999
            ],
            [
              -0.0171875,
              0.009667968749999999
            ],
            [
              -0.0171875,
              0.009765625
            ],
            [
              -0.0169921875,
              0.009765625
            ],
            [
              -0.0169921875,
              0.009863281250000001
            ],
            [
              -0.016894531250000004,
              0.009863281250000001
            ],
            [
              -0.016894531250000004,
              0.010058593749999997
            ],
            [
              -0.016796875000000003,
              0.010058593749999997
            ],
            [
              -0.016796875000000003,
              0.010351562500000001
            ],
            [
              -0.01669921875,
              0.010351562500000001
            ],
            [
              -0.01669921875,
              0.010644531249999999
            ],
            [
              -0.0166015625,
              0.010644531249999999
            ],
            [
              -0.0166015625,
              0.010937500000000003
            ],
            [
              -0.01650390625,
              0.010937500000000003
            ],
            [
              -0.01650390625,
              0.01123046875
            ],
            [
              -0.016406250000000004,
              0.01123046875
            ],
            [
              -0.016406250000000004,
              0.011816406250000001
            ],
            [
              -0.016308593750000003,
              0.011816406250000001
            ],
            [
              -0.016308593750000003,
              0.011914062500000003
            ],
            [
              -0.016406250000000004,
              0.011914062500000003
            ],
            [
              -0.016406250000000004,
              0.01220703125
            ],
            [
              -0.01650390625,
              0.01220703125
            ],
            [
              -0.01650390625,
              0.012402343750000003
            ],
            [
              -0.016894531250000004,
              0.012402343750000003
            ]
          ]
        ]
      },
      "properties": {
        "building_id": 1,
        "damage_tier": "destroyed",
        "confidence": 0.435
      }
    },
    {
      "type": "Feature",
      "geometry": {
        "type": "Polygon",
        "coordinates": [
          [
            [
              -0.015527343749999999,
              0.006445312500000001
            ],
            [
              -0.015527343749999999,
              0.006249999999999999
            ],
            [
              -0.015625,
              0.006249999999999999
            ],
            [
              -0.015625,
              0.006152343749999997
            ],
            [
              -0.015820312500000003,
              0.006152343749999997
            ],
            [
              -0.015820312500000003,
              0.005957031250000001
            ],
            [
              -0.015429687500000004,
              0.005957031250000001
            ],
            [
              -0.015429687500000004,
              0.006054687500000003
            ],
            [
              -0.015332031250000003,
              0.006054687500000003
            ],
            [
              -0.015332031250000003,
              0.006445312500000001
            ],
            [
              -0.015527343749999999,
              0.006445312500000001
            ]
          ]
        ]
      },
      "properties": {
        "building_id": 2,
        "damage_tier": "major-damage",
        "confidence": 0.429
      }
    },
    {
      "type": "Feature",
      "geometry": {
        "type": "Polygon",
        "coordinates": [
          [
            [
              -0.0162109375,
              0.005175781249999997
            ],
            [
              -0.0162109375,
              0.005078125000000003
            ],
            [
              -0.016308593750000003,
              0.005078125000000003
            ],
            [
              -0.016308593750000003,
              0.004101562500000003
            ],
            [
              -0.0162109375,
              0.004101562500000003
            ],
            [
              -0.0162109375,
              0.004003906250000001
            ],
            [
              -0.016015625,
              0.004003906250000001
            ],
            [
              -0.016015625,
              0.00390625
            ],
            [
              -0.015820312500000003,
              0.00390625
            ],
            [
              -0.015820312500000003,
              0.004003906250000001
            ],
            [
              -0.01572265625,
              0.004003906250000001
            ],
            [
              -0.01572265625,
              0.004101562500000003
            ],
            [
              -0.015625,
              0.004101562500000003
            ],
            [
              -0.015625,
              0.00439453125
            ],
            [
              -0.015527343749999999,
              0.00439453125
            ],
            [
              -0.015527343749999999,
              0.004589843750000003
            ],
            [
              -0.015625,
              0.004589843750000003
            ],
            [
              -0.015625,
              0.0048828125
            ],
            [
              -0.01572265625,
              0.0048828125
            ],
            [
              -0.01572265625,
              0.004980468750000001
            ],
            [
              -0.015820312500000003,
              0.004980468750000001
            ],
            [
              -0.015820312500000003,
              0.005078125000000003
            ],
            [
              -0.01611328125,
              0.005078125000000003
            ],
            [
              -0.01611328125,
              0.005175781249999997
            ],
            [
              -0.0162109375,
              0.005175781249999997
            ]
          ]
        ]
      },
      "properties": {
        "building_id": 3,
        "damage_tier": "major-damage",
        "confidence": 0.441
      }
    },
    {
      "type": "Feature",
      "geometry": {
        "type": "Polygon",
        "coordinates": [
          [
            [
              -0.02255859375,
              0.013964843750000004
            ],
            [
              -0.02255859375,
              0.013867187500000003
            ],
            [
              -0.02275390625,
              0.013867187500000003
            ],
            [
              -0.02275390625,
              0.013769531250000001
            ],
            [
              -0.022851562500000002,
              0.013769531250000001
            ],
            [
              -0.022851562500000002,
              0.013574218749999999
            ],
            [
              -0.02294921875,
              0.013574218749999999
            ],
            [
              -0.02294921875,
              0.013281250000000001
            ],
            [
              -0.023046875,
              0.013281250000000001
            ],
            [
              -0.023046875,
              0.013085937499999999
            ],
            [
              -0.023144531250000003,
              0.013085937499999999
            ],
            [
              -0.023144531250000003,
              0.012988281250000004
            ],
            [
              -0.0232421875,
              0.012988281250000004
            ],
            [
              -0.0232421875,
              0.012792968750000001
            ],
            [
              -0.0234375,
              0.012792968750000001
            ],
            [
              -0.0234375,
              0.0126953125
            ],
            [
              -0.02353515625,
              0.0126953125
            ],
            [
              -0.02353515625,
              0.012597656249999999
            ],
            [
              -0.023632812500000003,
              0.012597656249999999
            ],
            [
              -0.023632812500000003,
              0.012499999999999997
            ],
            [
              -0.02373046875,
              0.012499999999999997
            ],
            [
              -0.02373046875,
              0.012402343750000003
            ],
            [
              -0.023828125000000002,
              0.012402343750000003
            ],
            [
              -0.023828125000000002,
              0.012304687500000001
            ],
            [
              -0.02392578125,
              0.012304687500000001
            ],
            [
              -0.02392578125,
              0.01220703125
            ],
            [
              -0.0240234375,
              0.01220703125
            ],
            [
              -0.0240234375,
              0.012109374999999999
            ],
            [
              -0.024121093750000003,
              0.012109374999999999
            ],
            [
              -0.024121093750000003,
              0.012011718749999997
            ],
            [
              -0.024316406250000002,
              0.012011718749999997
            ],
            [
              -0.024316406250000002,
              0.011914062500000003
            ],
            [
              -0.02451171875,
              0.011914062500000003
            ],
            [
              -0.02451171875,
              0.01171875
            ],
            [
              -0.024609375000000003,
              0.01171875
            ],
            [
              -0.024609375000000003,
              0.011621093749999999
            ],
            [
              -0.024804687500000002,
              0.011621093749999999
            ],
            [
              -0.024804687500000002,
              0.011523437499999997
            ],
            [
              -0.02490234375,
              0.011523437499999997
            ],
            [
              -0.02490234375,
              0.011328125000000001
            ],
            [
              -0.025,
              0.011328125000000001
            ],
            [
              -0.025,
              0.011132812499999999
            ],
            [
              -0.025097656250000003,
              0.011132812499999999
            ],
            [
              -0.025097656250000003,
              0.011035156249999997
            ],
            [
              -0.0251953125,
              0.011035156249999997
            ],
            [
              -0.0251953125,
              0.010937500000000003
            ],
            [
              -0.025292968750000002,
              0.010937500000000003
            ],
            [
              -0.025292968750000002,
              0.010839843750000001
            ],
            [
              -0.02548828125,
              0.010839843750000001
            ],
            [
              -0.02548828125,
              0.0107421875
            ],
            [
              -0.025585937500000003,
              0.0107421875
            ],
            [
              -0.025585937500000003,
              0.010546874999999997
            ],
            [
              -0.02568359375,
              0.010546874999999997
            ],
            [
              -0.02568359375,
              0.010449218750000003
            ],
            [
              -0.025781250000000002,
              0.010449218750000003
            ],
            [
              -0.025781250000000002,
              0.010156249999999999
            ],
            [
              -0.02587890625,
              0.010156249999999999
            ],
            [
              -0.02587890625,
              0.009960937500000003
            ],
            [
              -0.0259765625,
              0.009960937500000003
            ],
            [
              -0.0259765625,
              0.009765625
            ],
            [
              -0.026074218750000003,
              0.009765625
            ],
            [
              -0.026074218750000003,
              0.009472656250000003
            ],
            [
              -0.026171875,
              0.009472656250000003
            ],
            [
              -0.026171875,
              0.00927734375
            ],
            [
              -0.026269531250000002,
              0.00927734375
            ],
            [
              -0.026269531250000002,
              0.009082031249999997
            ],
            [
              -0.0263671875,
              0.009082031249999997
            ],
            [
              -0.0263671875,
              0.008593749999999997
            ],
            [
              -0.02646484375,
              0.008593749999999997
            ],
            [
              -0.02646484375,
              0.008203124999999999
            ],
            [
              -0.026562500000000003,
              0.008203124999999999
            ],
            [
              -0.026562500000000003,
              0.007519531250000003
            ],
            [
              -0.02646484375,
              0.007519531250000003
            ],
            [
              -0.02646484375,
              0.007421875000000001
            ],
            [
              -0.0263671875,
              0.007421875000000001
            ],
            [
              -0.0263671875,
              0.00732421875
            ],
            [
              -0.026269531250000002,
              0.00732421875
            ],
            [
              -0.026269531250000002,
              0.007226562499999999
            ],
            [
              -0.026171875,
              0.007226562499999999
            ],
            [
              -0.026171875,
              0.007128906249999997
            ],
            [
              -0.026074218750000003,
              0.007128906249999997
            ],
            [
              -0.026074218750000003,
              0.007031250000000003
            ],
            [
              -0.0259765625,
              0.007031250000000003
            ],
            [
              -0.0259765625,
              0.006933593750000001
            ],
            [
              -0.025781250000000002,
              0.006933593750000001
            ],
            [
              -0.025781250000000002,
              0.006738281249999999
            ],
            [
              -0.02568359375,
              0.006738281249999999
            ],
            [
              -0.02568359375,
              0.006542968750000003
            ],
            [
              -0.025585937500000003,
              0.006542968750000003
            ],
            [
              -0.025585937500000003,
              0.00634765625
            ],
            [
              -0.02568359375,
              0.00634765625
            ],
            [
              -0.02568359375,
              0.006249999999999999
            ],
            [
              -0.025781250000000002,
              0.006249999999999999
            ],
            [
              -0.025781250000000002,
              0.005957031250000001
            ],
            [
              -0.02587890625,
              0.005957031250000001
            ],
            [
              -0.02587890625,
              0.005175781249999997
            ],
            [
              -0.0259765625,
              0.005175781249999997
            ],
            [
              -0.0259765625,
              0.004980468750000001
            ],
            [
              -0.026074218750000003,
              0.004980468750000001
            ],
            [
              -0.026074218750000003,
              0.0037109374999999972
            ],
            [
              -0.0259765625,
              0.0037109374999999972
            ],
            [
              -0.0259765625,
              0.0032226562499999972
            ],
            [
              -0.02587890625,
              0.0032226562499999972
            ],
            [
              -0.02587890625,
              0.0027343749999999972
            ],
            [
              -0.025781250000000002,
              0.0027343749999999972
            ],
            [
              -0.025781250000000002,
              0.00244140625
            ],
            [
              -0.02568359375,
              0.00244140625
            ],
            [
              -0.02568359375,
              0.0023437499999999986
            ],
            [
              -0.025585937500000003,
              0.0023437499999999986
            ],
            [
              -0.025585937500000003,
              0.0021484375000000028
            ],
            [
              -0.02548828125,
              0.0021484375000000028
            ],
            [
              -0.02548828125,
              0.0020507812500000014
            ],
            [
              -0.025390625,
              0.0020507812500000014
            ],
            [
              -0.025390625,
              0.0017578124999999972
            ],
            [
              -0.025292968750000002,
              0.0017578124999999972
            ],
            [
              -0.025292968750000002,
              0.0016601562500000028
            ],
            [
              -0.0251953125,
              0.0016601562500000028
            ],
            [
              -0.0251953125,
              0.00146484375
            ],
            [
              -0.025097656250000003,
              0.00146484375
            ],
            [
              -0.025097656250000003,
              0.0013671874999999986
            ],
            [
              -0.025,
              0.0013671874999999986
            ],
            [
              -0.025,
              0.0012695312499999972
            ],
            [
              -0.02490234375,
              0.0012695312499999972
            ],
            [
              -0.02490234375,
              0.0011718750000000028
            ],
            [
              -0.02392578125,
              0.0011718750000000028
            ],
            [
              -0.02392578125,
              0.0012695312499999972
            ],
            [
              -0.023828125000000002,
              0.0012695312499999972
            ],
            [
              -0.023828125000000002,
              0.0013671874999999986
            ],
            [
              -0.02373046875,
              0.0013671874999999986
            ],
            [
              -0.02373046875,
              0.0015625000000000014
            ],
            [
              -0.023632812500000003,
              0.0015625000000000014
            ],
            [
              -0.023632812500000003,
              0.001953125
            ],
            [
              -0.02353515625,
              0.001953125
            ],
            [
              -0.02353515625,
              0.00244140625
            ],
            [
              -0.0234375,
              0.00244140625
            ],
            [
              -0.0234375,
              0.0028320312499999986
            ],
            [
              -0.023339843750000002,
              0.0028320312499999986
            ],
            [
              -0.023339843750000002,
              0.0031250000000000028
            ],
            [
              -0.0232421875,
              0.0031250000000000028
            ],
            [
              -0.0232421875,
              0.0033203124999999986
            ],
            [
              -0.023144531250000003,
              0.0033203124999999986
            ],
            [
              -0.023144531250000003,
              0.0036132812500000028
            ],
            [
              -0.023046875,
              0.0036132812500000028
            ],
            [
              -0.023046875,
              0.004003906250000001
            ],
            [
              -0.02294921875,
              0.004003906250000001
            ],
            [
              -0.02294921875,
              0.004296874999999999
            ],
            [
              -0.022851562500000002,
              0.004296874999999999
            ],
            [
              -0.022851562500000002,
              0.004492187500000001
            ],
            [
              -0.02275390625,
              0.004492187500000001
            ],
            [
              -0.02275390625,
              0.004687499999999997
            ],
            [
              -0.022656250000000003,
              0.004687499999999997
            ],
            [
              -0.022656250000000003,
              0.005078125000000003
            ],
            [
              -0.02255859375,
              0.005078125000000003
            ],
            [
              -0.02255859375,
              0.005273437499999999
            ],
            [
              -0.0224609375,
              0.005273437499999999
            ],
            [
              -0.0224609375,
              0.005468750000000001
            ],
            [
              -0.022363281250000002,
              0.005468750000000001
            ],
            [
              -0.022363281250000002,
              0.005761718749999999
            ],
            [
              -0.022265625,
              0.005761718749999999
            ],
            [
              -0.022265625,
              0.005957031250000001
            ],
            [
              -0.022167968750000003,
              0.005957031250000001
            ],
            [
              -0.022167968750000003,
              0.006249999999999999
            ],
            [
              -0.0220703125,
              0.006249999999999999
            ],
            [
              -0.0220703125,
              0.006445312500000001
            ],
            [
              -0.02197265625,
              0.006445312500000001
            ],
            [
              -0.02197265625,
              0.006640624999999997
            ],
            [
              -0.021875000000000002,
              0.006640624999999997
            ],
            [
              -0.021875000000000002,
              0.0068359375
            ],
            [
              -0.02177734375,
              0.0068359375
            ],
            [
              -0.02177734375,
              0.007031250000000003
            ],
            [
              -0.021679687500000003,
              0.007031250000000003
            ],
            [
              -0.021679687500000003,
              0.007226562499999999
            ],
            [
              -0.02158203125,
              0.007226562499999999
            ],
            [
              -0.02158203125,
              0.007421875000000001
            ],
            [
              -0.021484375,
              0.007421875000000001
            ],
            [
              -0.021484375,
              0.007519531250000003
            ],
            [
              -0.021386718750000002,
              0.007519531250000003
            ],
            [
              -0.021386718750000002,
              0.007617187499999997
            ],
            [
              -0.0212890625,
              0.007617187499999997
            ],
            [
              -0.0212890625,
              0.0078125
            ],
            [
              -0.021191406250000003,
              0.0078125
            ],
            [
              -0.021191406250000003,
              0.007910156250000001
            ],
            [
              -0.02099609375,
              0.007910156250000001
            ],
            [
              -0.02099609375,
              0.008105468749999997
            ],
            [
              -0.021386718750000002,
              0.008105468749999997
            ],
            [
              -0.021386718750000002,
              0.008203124999999999
            ],
            [
              -0.02158203125,
              0.008203124999999999
            ],
            [
              -0.02158203125,
              0.00830078125
            ],
            [
              -0.021679687500000003,
              0.00830078125
            ],
            [
              -0.021679687500000003,
              0.008398437500000001
            ],
            [
              -0.021875000000000002,
              0.008398437500000001
            ],
            [
              -0.021875000000000002,
              0.008496093750000003
            ],
            [
              -0.0220703125,
              0.008496093750000003
            ],
            [
              -0.0220703125,
              0.008593749999999997
            ],
            [
              -0.022656250000000003,
              0.008593749999999997
            ],
            [
              -0.022656250000000003,
              0.008691406249999999
            ],
            [
              -0.02275390625,
              0.008691406249999999
            ],
            [
              -0.02275390625,
              0.008984375000000003
            ],
            [
              -0.022656250000000003,
              0.008984375000000003
            ],
            [
              -0.022656250000000003,
              0.009570312499999997
            ],
            [
              -0.02255859375,
              0.009570312499999997
            ],
            [
              -0.02255859375,
              0.009960937500000003
            ],
            [
              -0.0224609375,
              0.009960937500000003
            ],
            [
              -0.0224609375,
              0.01025390625
            ],
            [
              -0.022363281250000002,
              0.01025390625
            ],
            [
              -0.022363281250000002,
              0.010546874999999997
            ],
            [
              -0.0224609375,
              0.010546874999999997
            ],
            [
              -0.0224609375,
              0.010937500000000003
            ],
            [
              -0.022363281250000002,
              0.010937500000000003
            ],
            [
              -0.022363281250000002,
              0.01171875
            ],
            [
              -0.022265625,
              0.01171875
            ],
            [
              -0.022265625,
              0.012011718749999997
            ],
            [
              -0.022167968750000003,
              0.012011718749999997
            ],
            [
              -0.022167968750000003,
              0.012304687500000001
            ],
            [
              -0.0220703125,
              0.012304687500000001
            ],
            [
              -0.0220703125,
              0.012792968750000001
            ],
            [
              -0.022167968750000003,
              0.012792968750000001
            ],
            [
              -0.022167968750000003,
              0.012988281250000004
            ],
            [
              -0.022265625,
              0.012988281250000004
            ],
            [
              -0.022265625,
              0.013867187500000003
            ],
            [
              -0.022363281250000002,
              0.013867187500000003
            ],
            [
              -0.022363281250000002,
              0.013964843750000004
            ],
            [
              -0.02255859375,
              0.013964843750000004
            ]
          ]
        ]
      },
      "properties": {
        "building_id": 4,
        "damage_tier": "destroyed",
        "confidence": 0.751
      }
    },
    {
      "type": "Feature",
      "geometry": {
        "type": "Polygon",
        "coordinates": [
          [
            [
              -0.007617187499999997,
              -0.006933593750000001
            ],
            [
              -0.007617187499999997,
              -0.007031250000000003
            ],
            [
              -0.007714843749999999,
              -0.007031250000000003
            ],
            [
              -0.007714843749999999,
              -0.007128906249999997
            ],
            [
              -0.0078125,
              -0.007128906249999997
            ],
            [
              -0.0078125,
              -0.00732421875
            ],
            [
              -0.008007812500000003,
              -0.00732421875
            ],
            [
              -0.008007812500000003,
              -0.007519531250000003
            ],
            [
              -0.008105468749999997,
              -0.007519531250000003
            ],
            [
              -0.008105468749999997,
              -0.007617187499999997
            ],
            [
              -0.008203124999999999,
              -0.007617187499999997
            ],
            [
              -0.008203124999999999,
              -0.0078125
            ],
            [
              -0.00830078125,
              -0.0078125
            ],
            [
              -0.00830078125,
              -0.007910156250000001
            ],
            [
              -0.008398437500000001,
              -0.007910156250000001
            ],
            [
              -0.008398437500000001,
              -0.008007812500000003
            ],
            [
              -0.008496093750000003,
              -0.008007812500000003
            ],
            [
              -0.008496093750000003,
              -0.008105468749999997
            ],
            [
              -0.008593749999999997,
              -0.008105468749999997
            ],
            [
              -0.008593749999999997,
              -0.008203124999999999
            ],
            [
              -0.008691406249999999,
              -0.008203124999999999
            ],
            [
              -0.008691406249999999,
              -0.008398437500000001
            ],
            [
              -0.0087890625,
              -0.008398437500000001
            ],
            [
              -0.0087890625,
              -0.008496093750000003
            ],
            [
              -0.008984375000000003,
              -0.008496093750000003
            ],
            [
              -0.008984375000000003,
              -0.008593749999999997
            ],
            [
              -0.009082031249999997,
              -0.008593749999999997
            ],
            [
              -0.009082031249999997,
              -0.0087890625
            ],
            [
              -0.009179687499999999,
              -0.0087890625
            ],
            [
              -0.009179687499999999,
              -0.008984375000000003
            ],
            [
              -0.00927734375,
              -0.008984375000000003
            ],
            [
              -0.00927734375,
              -0.009082031249999997
            ],
            [
              -0.009375000000000001,
              -0.009082031249999997
            ],
            [
              -0.009375000000000001,
              -0.009179687499999999
            ],
            [
              -0.009472656250000003,
              -0.009179687499999999
            ],
            [
              -0.009472656250000003,
              -0.009960937500000003
            ],
            [
              -0.009570312499999997,
              -0.009960937500000003
            ],
            [
              -0.009570312499999997,
              -0.010546874999999997
            ],
            [
              -0.009667968749999999,
              -0.010546874999999997
            ],
            [
              -0.009667968749999999,
              -0.012402343750000003
            ],
            [
              -0.009570312499999997,
              -0.012402343750000003
            ],
            [
              -0.009570312499999997,
              -0.012597656250000006
            ],
            [
              -0.009472656250000003,
              -0.012597656250000006
            ],
            [
              -0.009472656250000003,
              -0.0126953125
            ],
            [
              -0.009375000000000001,
              -0.0126953125
            ],
            [
              -0.009375000000000001,
              -0.012792968749999994
            ],
            [
              -0.009179687499999999,
              -0.012792968749999994
            ],
            [
              -0.009179687499999999,
              -0.012890625000000003
            ],
            [
              -0.009082031249999997,
              -0.012890625000000003
            ],
            [
              -0.009082031249999997,
              -0.012988281249999997
            ],
            [
              -0.008984375000000003,
              -0.012988281249999997
            ],
            [
              -0.008984375000000003,
              -0.013085937500000006
            ],
            [
              -0.0087890625,
              -0.013085937500000006
            ],
            [
              -0.0087890625,
              -0.01318359375
            ],
            [
              -0.008691406249999999,
              -0.01318359375
            ],
            [
              -0.008691406249999999,
              -0.013085937500000006
            ],
            [
              -0.008398437500000001,
              -0.013085937500000006
            ],
            [
              -0.008398437500000001,
              -0.012988281249999997
            ],
            [
              -0.00830078125,
              -0.012988281249999997
            ],
            [
              -0.00830078125,
              -0.012792968749999994
            ],
            [
              -0.008203124999999999,
              -0.012792968749999994
            ],
            [
              -0.008203124999999999,
              -0.0126953125
            ],
            [
              -0.008105468749999997,
              -0.0126953125
            ],
            [
              -0.008105468749999997,
              -0.012499999999999997
            ],
            [
              -0.008007812500000003,
              -0.012499999999999997
            ],
            [
              -0.008007812500000003,
              -0.012304687500000001
            ],
            [
              -0.007910156250000001,
              -0.012304687500000001
            ],
            [
              -0.007910156250000001,
              -0.012011718749999997
            ],
            [
              -0.0078125,
              -0.012011718749999997
            ],
            [
              -0.0078125,
              -0.01171875
            ],
            [
              -0.007714843749999999,
              -0.01171875
            ],
            [
              -0.007714843749999999,
              -0.011328125000000001
            ],
            [
              -0.007617187499999997,
              -0.011328125000000001
            ],
            [
              -0.007617187499999997,
              -0.011035156249999997
            ],
            [
              -0.007519531250000003,
              -0.011035156249999997
            ],
            [
              -0.007519531250000003,
              -0.010644531249999999
            ],
            [
              -0.007421875000000001,
              -0.010644531249999999
            ],
            [
              -0.007421875000000001,
              -0.01025390625
            ],
            [
              -0.00732421875,
              -0.01025390625
            ],
            [
              -0.00732421875,
              -0.009765625
            ],
            [
              -0.007226562499999999,
              -0.009765625
            ],
            [
              -0.007226562499999999,
              -0.00927734375
            ],
            [
              -0.007128906249999997,
              -0.00927734375
            ],
            [
              -0.007128906249999997,
              -0.008398437500000001
            ],
            [
              -0.007031250000000003,
              -0.008398437500000001
            ],
            [
              -0.007031250000000003,
              -0.0078125
            ],
            [
              -0.007128906249999997,
              -0.0078125
            ],
            [
              -0.007128906249999997,
              -0.007519531250000003
            ],
            [
              -0.007226562499999999,
              -0.007519531250000003
            ],
            [
              -0.007226562499999999,
              -0.00732421875
            ],
            [
              -0.00732421875,
              -0.00732421875
            ],
            [
              -0.00732421875,
              -0.007128906249999997
            ],
            [
              -0.007421875000000001,
              -0.007128906249999997
            ],
            [
              -0.007421875000000001,
              -0.007031250000000003
            ],
            [
              -0.007519531250000003,
              -0.007031250000000003
            ],
            [
              -0.007519531250000003,
              -0.006933593750000001
            ],
            [
              -0.007617187499999997,
              -0.006933593750000001
            ]
          ]
        ]
      },
      "properties": {
        "building_id": 5,
        "damage_tier": "destroyed",
        "confidence": 0.992
      }
    }
  ]
}