{
  "type": "FeatureCollection",
  "features": [
    {
      "type": "Feature",
      "geometry": {
        "type": "Polygon",
        "coordinates": [
          [
            [
              -0.03203125,
              0.00390625
            ],
            [
              -0.03203125,
              0.0038085937499999986
            ],
            [
              -0.032421875,
              0.0038085937499999986
            ],
            [
              -0.032421875,
              0.0037109374999999972
            ],
            [
              -0.032617187500000006,
              0.0037109374999999972
            ],
            [
              -0.032617187500000006,
              0.0035156250000000014
            ],
            [
              -0.03271484375,
              0.0035156250000000014
            ],
            [
              -0.03271484375,
              0.0027343749999999972
            ],
            [
              -0.032617187500000006,
              0.0027343749999999972
            ],
            [
              -0.032617187500000006,
              0.0025390625000000014
            ],
            [
              -0.03251953125,
              0.0025390625000000014
            ],
            [
              -0.03251953125,
              0.00244140625
            ],
            [
              -0.032421875,
              0.00244140625
            ],
            [
              -0.032421875,
              0.0023437499999999986
            ],
            [
              -0.0322265625,
              0.0023437499999999986
            ],
            [
              -0.0322265625,
              0.0022460937499999972
            ],
            [
              -0.03203125,
              0.0022460937499999972
            ],
            [
              -0.03203125,
              0.0021484375000000028
            ],
            [
              -0.03193359375,
              0.0021484375000000028
            ],
            [
              -0.03193359375,
              0.0020507812500000014
            ],
            [
              -0.03173828125,
              0.0020507812500000014
            ],
            [
              -0.03173828125,
              0.001953125
            ],
            [
              -0.031640625000000006,
              0.001953125
            ],
            [
              -0.031640625000000006,
              0.0018554687499999986
            ],
            [
              -0.0314453125,
              0.0018554687499999986
            ],
            [
              -0.0314453125,
              0.0017578124999999972
            ],
            [
              -0.03134765625,
              0.0017578124999999972
            ],
            [
              -0.03134765625,
              0.0016601562500000028
            ],
            [
              -0.03125,
              0.0016601562500000028
            ],
            [
              -0.03125,
              0.0015625000000000014
            ],
            [
              -0.031152343750000002,
              0.0015625000000000014
            ],
            [
              -0.031152343750000002,
              0.0013671874999999986
            ],
            [
              -0.0310546875,
              0.0013671874999999986
            ],
            [
              -0.0310546875,
              0.0012695312499999972
            ],
            [
              -0.030957031250000003,
              0.0012695312499999972
            ],
            [
              -0.030957031250000003,
              0.0011718750000000028
            ],
            [
              -0.030859375,
              0.0011718750000000028
            ],
            [
              -0.030859375,
              0.0010742187500000014
            ],
            [
              -0.03076171875,
              0.0010742187500000014
            ],
            [
              -0.03076171875,
              0.0009765625
            ],
            [
              -0.030664062500000002,
              0.0009765625
            ],
            [
              -0.030664062500000002,
              0.0008789062499999986
            ],
            [
              -0.0298828125,
              0.0008789062499999986
            ],
            [
              -0.0298828125,
              0.0009765625
            ],
            [
              -0.029687500000000002,
              0.0009765625
            ],
            [
              -0.029687500000000002,
              0.0010742187500000014
            ],
            [
              -0.02958984375,
              0.0010742187500000014
            ],
            [
              -0.02958984375,
              0.0012695312499999972
            ],
            [
              -0.029492187500000003,
              0.0012695312499999972
            ],
            [
              -0.029492187500000003,
              0.00146484375
            ],
            [
              -0.02958984375,
              0.00146484375
            ],
            [
              -0.02958984375,
              0.0017578124999999972
            ],
            [
              -0.029687500000000002,
              0.0017578124999999972
            ],
            [
              -0.029687500000000002,
              0.001953125
            ],
            [
              -0.02978515625,
              0.001953125
            ],
            [
              -0.02978515625,
              0.0020507812500000014
            ],
            [
              -0.0298828125,
              0.0020507812500000014
            ],
            [
              -0.0298828125,
              0.0022460937499999972
            ],
            [
              -0.029980468750000003,
              0.0022460937499999972
            ],
            [
              -0.029980468750000003,
              0.0023437499999999986
            ],
            [
              -0.030078125,
              0.0023437499999999986
            ],
            [
              -0.030078125,
              0.00244140625
            ],
            [
              -0.030175781250000002,
              0.00244140625
            ],
            [
              -0.030175781250000002,
              0.0025390625000000014
            ],
            [
              -0.0302734375,
              0.0025390625000000014
            ],
            [
              -0.0302734375,
              0.0027343749999999972
            ],
            [
              -0.03037109375,
              0.0027343749999999972
            ],
            [
              -0.03037109375,
              0.0028320312499999986
            ],
            [
              -0.030468750000000003,
              0.0028320312499999986
            ],
            [
              -0.030468750000000003,
              0.0030273437500000014
            ],
            [
              -0.03056640625,
              0.0030273437500000014
            ],
            [
              -0.03056640625,
              0.0032226562499999972
            ],
            [
              -0.030664062500000002,
              0.0032226562499999972
            ],
            [
              -0.030664062500000002,
              0.0033203124999999986
            ],
            [
              -0.03076171875,
              0.0033203124999999986
            ],
            [
              -0.03076171875,
              0.00341796875
            ],
            [
              -0.030859375,
              0.00341796875
            ],
            [
              -0.030859375,
              0.0035156250000000014
            ],
            [
              -0.030957031250000003,
              0.0035156250000000014
            ],
            [
              -0.030957031250000003,
              0.0037109374999999972
            ],
            [
              -0.031152343750000002,
              0.0037109374999999972
            ],
            [
              -0.031152343750000002,
              0.0038085937499999986
            ],
            [
              -0.03134765625,
              0.0038085937499999986
            ],
            [
              -0.03134765625,
              0.00390625
            ],
            [
              -0.03203125,
              0.00390625
            ]
          ]
        ]
      },
      "properties": {
        "building_id": 0,
        "damage_tier": "destroyed",
        "confidence": 0.925
      }
    },
    {
      "type": "Feature",
      "geometry": {
        "type": "Polygon",
        "coordinates": [
          [
            [
              -0.03427734375,
              -0.023632812500000003
            ],
            [
              -0.03427734375,
              -0.023730468749999997
            ],
            [
              -0.034375,
              -0.023730468749999997
            ],
            [
              -0.034375,
              -0.02392578125
            ],
            [
              -0.034472656250000004,
              -0.02392578125
            ],
            [
              -0.034472656250000004,
              -0.024023437499999994
            ],
            [
              -0.03427734375,
              -0.024023437499999994
            ],
            [
              -0.03427734375,
              -0.024121093750000003
            ],
            [
              -0.03388671875,
              -0.024121093750000003
            ],
            [
              -0.03388671875,
              -0.024218749999999997
            ],
            [
              -0.0333984375,
              -0.024218749999999997
            ],
            [
              -0.0333984375,
              -0.024121093750000003
            ],
            [
              -0.03330078125,
              -0.024121093750000003
            ],
            [
              -0.03330078125,
              -0.024023437499999994
            ],
            [
              -0.0333984375,
              -0.024023437499999994
            ],
            [
              -0.0333984375,
              -0.02392578125
            ],
            [
              -0.033593750000000006,
              -0.02392578125
            ],
            [
              -0.033593750000000006,
              -0.023828125000000006
            ],
            [
              -0.03369140625,
              -0.023828125000000006
            ],
            [
              -0.03369140625,
              -0.023730468749999997
            ],
            [
              -0.033984375,
              -0.023730468749999997
            ],
            [
              -0.033984375,
              -0.023632812500000003
            ],
            [
              -0.03427734375,
              -0.023632812500000003
            ]
          ]
        ]
      },
      "properties": {
        "building_id": 1,
        "damage_tier": "destroyed",
        "confidence": 0.811
      }
    }
  ]
}